{"type":"FeatureCollection","metadata":{"date":"2026-10-05","active_alerts":[{"alert_id":"8817f9b2a1ebdc13","source":"nowcasting","alert_type":"nowcasting","interval_text":"","interval_start":"2026-10-05T06:00:00","interval_end":"2026-10-05T10:00:00","durata_ore":4.0,"valid_from":"2026-10-05T06:00:00","valid_to":"2026-10-05T10:00:00","cod_culoare_max":1,"fenomene_pe_cod":{"1":"Ceață ce determină vizibilitate redusă sub 200 m, ce va favoriza, în funcție de condițiile locale, formarea ghețușului sau chiciurei."},"judete_afectate":["SV"],"judete_count":1,"judete_culori":{"SV":1},"color_counts":{"1":1},"text_alerta_html":"","message":"Ceață ce determină vizibilitate redusă sub 200 m, ce va favoriza, în funcție de condițiile locale, formarea ghețușului sau chiciurei.","feature_meta":{"SV":{"county_code":"SV","county_name":"Suceava","zone_name":"Suceava - localitati","display_name":"Suceava - localitati","localities":["Vatra Dornei","Șaru Dornei","Dorna Candrenilor","Dorna-Arini","Iacobeni","Panaci","Poiana Stampei","Coșna"],"geometry_source":"coordGis","match_confidence":"high"}},"source_url":"","source_label":"","notes":""}],"alert_count":1,"general_alert_count":0,"nowcasting_alert_count":1,"manual_nowcasting_alert_count":0,"feature_count":1,"general_feature_count":0,"nowcasting_feature_count":1,"max_color":1,"general_max_color":0,"nowcasting_count":1,"has_nowcasting":true,"has_manual_nowcasting":false,"calendar_badge":"NC","sources":["nowcasting"],"alerts_by_county":{"SV":[{"alert_id":"8817f9b2a1ebdc13","cod":"Galben","culoare":"1","fenomen_group":"ceata","source":"nowcasting"}]},"max_by_county":{"SV":{"max_color":1,"alert_count":1,"phenomena":["ceata"]}}},"features":[{"type":"Feature","geometry":{"type":"MultiPolygon","coordinates":[[[[25.319313,47.437707],[25.336098,47.414995],[25.338896,47.390379],[25.351485,47.380908],[25.378062,47.357224],[25.406038,47.361014],[25.448002,47.379961],[25.475978,47.397007],[25.503954,47.391326],[25.491365,47.366699],[25.466186,47.337321],[25.403241,47.301287],[25.400443,47.280414],[25.417229,47.249089],[25.436812,47.218696],[25.436812,47.19779],[25.417229,47.195889],[25.386455,47.206343],[25.365473,47.231045],[25.340295,47.214895],[25.292736,47.206343],[25.274551,47.222496],[25.315116,47.24719],[25.330503,47.280414],[25.34589,47.321203],[25.315116,47.339217],[25.274551,47.327841],[25.246575,47.305081],[25.221397,47.286107],[25.19482,47.273771],[25.168243,47.281363],[25.19482,47.319307],[25.208808,47.343956],[25.173838,47.331633],[25.155653,47.313617],[25.129076,47.303184],[25.103898,47.28421],[25.080118,47.283261],[25.063333,47.278516],[25.042351,47.282312],[25.036101,47.289743],[25.066898,47.298741],[25.092484,47.309987],[25.106699,47.320909],[25.11428,47.329901],[25.13418,47.346598],[25.169242,47.361043],[25.14034,47.357191],[25.107173,47.348203],[25.087272,47.340498],[25.07827,47.342745],[25.074006,47.347882],[25.086325,47.359438],[25.114754,47.392166],[25.156449,47.40307],[25.164978,47.426796],[25.213307,47.432566],[25.273008,47.431284],[25.29196,47.425514],[25.319313,47.437707]]]]},"properties":{"alert_id":"8817f9b2a1ebdc13","source":"nowcasting","alert_type":"nowcasting","feature_id":"656b1bb3b3e4c5af31","judet_cod":"SV","judet_nume":"Suceava","county_code":"SV","county_name":"Suceava","cod_judet":"SV","cod_culoare":1,"cod_culoare_nume":"Galben","culoare":"1","cod":"Galben","fenomen_principal":"Ceață ce determină vizibilitate redusă sub 200 m, ce va favoriza, în funcție de condițiile locale, formarea ghețușului sau chiciurei.","fenomen_group":"ceata","zona_text":"Județul Suceava: Vatra Dornei, Șaru Dornei, Dorna Candrenilor, Dorna-Arini, Iacobeni, Panaci, Poiana Stampei, Coșna;<br>","zona_nume":"Suceava - localitati","zone_name":"Suceava - localitati","display_name":"Suceava - localitati","localities":["Vatra Dornei","Șaru Dornei","Dorna Candrenilor","Dorna-Arini","Iacobeni","Panaci","Poiana Stampei","Coșna"],"geometry_source":"coordGis","match_confidence":"high","interval_text":"","interval_start":"2026-10-05T06:00:00","valid_from":"2026-10-05T06:00:00","valid_to":"2026-10-05T10:00:00","interval_valabilitate_text":"","interval_end":"2026-10-05T10:00:00","data_expirare":"2026-10-05T10:00:00","mesaj_plain":"Ceață ce determină vizibilitate redusă sub 200 m, ce va favoriza, în funcție de condițiile locale, formarea ghețușului sau chiciurei.","source_url":"","source_label":"","notes":"","durata_ore":4.0,"zi":"2026-10-05"}}]}