{"type":"FeatureCollection","metadata":{"date":"2026-09-15","active_alerts":[{"alert_id":"abdbc371c3e6de93","source":"nowcasting","alert_type":"nowcasting","interval_text":"","interval_start":"2026-09-15T07:37:00","interval_end":"2026-09-15T09:00:00","durata_ore":1.4,"valid_from":"2026-09-15T07:37:00","valid_to":"2026-09-15T09:00:00","cod_culoare_max":1,"fenomene_pe_cod":{"1":"Ceață ce determină vizibilitate redusă, local sub 200 m și izolat sub 50 m."},"judete_afectate":["CV"],"judete_count":1,"judete_culori":{"CV":1},"color_counts":{"1":1},"text_alerta_html":"","message":"Ceață ce determină vizibilitate redusă, local sub 200 m și izolat sub 50 m.","feature_meta":{"CV":{"county_code":"CV","county_name":"Covasna","zone_name":"Covasna - localitati","display_name":"Covasna - localitati","localities":["Întorsura Buzăului","Sita Buzăului","Barcani"],"geometry_source":"coordGis","match_confidence":"high"}},"source_url":"","source_label":"","notes":""},{"alert_id":"f22e1e1995ba5b36","source":"nowcasting","alert_type":"nowcasting","interval_text":"","interval_start":"2026-09-15T03:15:00","interval_end":"2026-09-15T09:00:00","durata_ore":5.8,"valid_from":"2026-09-15T03:15:00","valid_to":"2026-09-15T09:00:00","cod_culoare_max":1,"fenomene_pe_cod":{"1":"Ceață ce determină vizibilitate redusă, local sub 200 m și izolat sub 50 m."},"judete_afectate":["BN","SV"],"judete_count":2,"judete_culori":{"SV":1,"BN":1},"color_counts":{"1":2},"text_alerta_html":"","message":"Ceață ce determină vizibilitate redusă, local sub 200 m și izolat sub 50 m.","feature_meta":{"SV":{"county_code":"SV","county_name":"Suceava","zone_name":"Suceava - localitati","display_name":"Suceava - localitati","localities":["Vatra Dornei","Broșteni","Fundu Moldovei","Șaru Dornei","Dorna Candrenilor","Pojorâta","Dorna-Arini","Crucea","Iacobeni","Poiana Stampei","Coșna"],"geometry_source":"uat_match","match_confidence":"medium"},"BN":{"county_code":"BN","county_name":"Bistrița-Năsăud","zone_name":"Bistrița-Năsăud - localitati","display_name":"Bistrița-Năsăud - localitati","localities":["Tiha Bârgăului"],"geometry_source":"county_fallback","match_confidence":"low"}},"source_url":"","source_label":"","notes":""}],"alert_count":2,"general_alert_count":0,"nowcasting_alert_count":2,"manual_nowcasting_alert_count":0,"feature_count":3,"general_feature_count":0,"nowcasting_feature_count":3,"max_color":1,"general_max_color":0,"nowcasting_count":2,"has_nowcasting":true,"has_manual_nowcasting":false,"calendar_badge":"NC","sources":["nowcasting"],"alerts_by_county":{"BN":[{"alert_id":"f22e1e1995ba5b36","cod":"Galben","culoare":"1","fenomen_group":"ceata","source":"nowcasting"}],"CV":[{"alert_id":"abdbc371c3e6de93","cod":"Galben","culoare":"1","fenomen_group":"ceata","source":"nowcasting"}],"SV":[{"alert_id":"f22e1e1995ba5b36","cod":"Galben","culoare":"1","fenomen_group":"ceata","source":"nowcasting"}]},"max_by_county":{"BN":{"max_color":1,"alert_count":1,"phenomena":["ceata"]},"CV":{"max_color":1,"alert_count":1,"phenomena":["ceata"]},"SV":{"max_color":1,"alert_count":1,"phenomena":["ceata"]}}},"features":[{"type":"Feature","geometry":{"type":"MultiPolygon","coordinates":[[[[25.407199,46.949544],[25.407861,46.93999],[25.420626,46.929639],[25.422788,46.924604],[25.423429,46.912787],[25.430024,46.911758],[25.435165,46.912492],[25.445754,46.906671],[25.449747,46.901628],[25.460714,46.897563],[25.464347,46.893527],[25.464317,46.890008],[25.470855,46.882943],[25.466423,46.879191],[25.466018,46.874668],[25.472227,46.872129],[25.503694,46.866214],[25.514938,46.853848],[25.514871,46.84681],[25.517699,46.835989],[25.529287,46.822362],[25.531428,46.816571],[25.520386,46.810589],[25.510489,46.809376],[25.506401,46.802858],[25.508905,46.796563],[25.522425,46.79424],[25.546591,46.795134],[25.552048,46.79184],[25.543921,46.784337],[25.540918,46.776811],[25.5343,46.773574],[25.527661,46.768074],[25.526881,46.76305],[25.529415,46.760274],[25.534513,46.757988],[25.533759,46.755729],[25.531177,46.753478],[25.524228,46.75351],[25.523114,46.751756],[25.528939,46.748964],[25.53624,46.747673],[25.560471,46.756859],[25.564784,46.749548],[25.570251,46.747761],[25.577215,46.749235],[25.582746,46.75348],[25.588947,46.751941],[25.591818,46.746898],[25.592811,46.737341],[25.624137,46.727121],[25.632182,46.727328],[25.649452,46.734773],[25.656398,46.734734],[25.653429,46.73098],[25.64683,46.729509],[25.632788,46.716516],[25.626531,46.712779],[25.613982,46.701786],[25.611736,46.697022],[25.60403,46.694046],[25.594469,46.688314],[25.594074,46.685551],[25.59696,46.682268],[25.614783,46.675639],[25.619858,46.672343],[25.626055,46.671304],[25.631918,46.673032],[25.635198,46.672511],[25.630393,46.66751],[25.630338,46.662734],[25.638005,46.662692],[25.652344,46.668136],[25.654081,46.664698],[25.648892,46.658192],[25.643003,46.654203],[25.627596,46.647752],[25.627538,46.642725],[25.639452,46.631598],[25.648913,46.629283],[25.660589,46.629216],[25.667187,46.631692],[25.678867,46.631875],[25.691334,46.636577],[25.704836,46.636495],[25.711389,46.635198],[25.720465,46.631622],[25.7255,46.62606],[25.719599,46.621321],[25.705323,46.617639],[25.698382,46.616927],[25.69251,46.614197],[25.673906,46.614308],[25.66696,46.613091],[25.655652,46.613156],[25.649427,46.61118],[25.645379,46.608187],[25.644964,46.603915],[25.639082,46.599926],[25.632153,46.599965],[25.620161,46.603801],[25.607399,46.60412],[25.590652,46.606973],[25.587023,46.608751],[25.571828,46.607736],[25.56934,46.614033],[25.563558,46.619341],[25.560709,46.626142],[25.553835,46.631957],[25.551337,46.637499],[25.545155,46.639791],[25.499272,46.65106],[25.468937,46.646914],[25.460882,46.64393],[25.448099,46.642975],[25.430582,46.643294],[25.402152,46.648675],[25.39744,46.653217],[25.39601,46.657495],[25.379301,46.669617],[25.370449,46.674117],[25.37082,46.67943],[25.374517,46.68195],[25.38372,46.692226],[25.383397,46.698261],[25.377957,46.70406],[25.377277,46.711352],[25.37295,46.719913],[25.376654,46.726939],[25.393934,46.740707],[25.396554,46.748993],[25.394837,46.764333],[25.402552,46.768831],[25.40552,46.77435],[25.405552,46.778624],[25.401936,46.784418],[25.386685,46.80106],[25.375749,46.807632],[25.373953,46.812665],[25.383884,46.819168],[25.39783,46.823394],[25.400817,46.831176],[25.37703,46.834021],[25.37046,46.83731],[25.369758,46.841837],[25.380439,46.850097],[25.381204,46.854619],[25.386351,46.857116],[25.382714,46.860898],[25.366965,46.862206],[25.364493,46.876039],[25.358368,46.892145],[25.359159,46.90094],[25.353328,46.906488],[25.345998,46.907265],[25.334246,46.904786],[25.310772,46.9046],[25.307504,46.91039],[25.312673,46.916157],[25.314567,46.926458],[25.307996,46.932257],[25.289326,46.9406],[25.277997,46.949928],[25.261113,46.951427],[25.274719,46.954963],[25.28353,46.954941],[25.292333,46.953663],[25.298177,46.948369],[25.306226,46.943824],[25.324559,46.940757],[25.331923,46.944758],[25.333425,46.950284],[25.344451,46.952513],[25.352922,46.956761],[25.364324,46.959993],[25.378698,46.96799],[25.39302,46.968193],[25.404398,46.967651],[25.407309,46.964122],[25.409468,46.958333],[25.407199,46.949544]]],[[[25.78043,46.462858],[25.780451,46.458636],[25.785187,46.463019],[25.792528,46.467494],[25.822127,46.476084],[25.831504,46.477611],[25.843796,46.490875],[25.84493,46.50158],[25.857713,46.512868],[25.882032,46.517371],[25.865101,46.489377],[25.863762,46.465951],[25.866436,46.4512],[25.886568,46.435661],[25.872771,46.430901],[25.861735,46.421945],[25.846779,46.393933],[25.846642,46.385017],[25.852804,46.378509],[25.859911,46.36551],[25.859131,46.356886],[25.844948,46.343004],[25.842012,46.33365],[25.843537,46.323835],[25.845659,46.321121],[25.870875,46.31139],[25.891051,46.304204],[25.910531,46.299029],[25.927279,46.303916],[25.941166,46.310834],[25.94931,46.320812],[25.953143,46.322624],[25.957835,46.328968],[25.966305,46.335936],[25.970105,46.337645],[25.972937,46.328034],[25.963093,46.318365],[25.954509,46.304609],[25.953964,46.294055],[25.959651,46.266604],[25.96317,46.26054],[25.96227,46.250491],[25.956189,46.234201],[25.956268,46.217858],[25.959549,46.203933],[25.954071,46.195501],[25.954716,46.19097],[25.958232,46.184808],[25.951099,46.180291],[25.94707,46.166937],[25.94351,46.16508],[25.923655,46.162414],[25.915852,46.166436],[25.908235,46.165366],[25.904131,46.163324],[25.899506,46.162606],[25.882973,46.163866],[25.873239,46.158863],[25.864863,46.159262],[25.867581,46.165901],[25.862794,46.169575],[25.859973,46.174373],[25.859316,46.178652],[25.854374,46.186734],[25.849338,46.188783],[25.841243,46.203928],[25.847934,46.215192],[25.841657,46.231077],[25.832429,46.243715],[25.833599,46.249237],[25.808552,46.271038],[25.811884,46.275791],[25.809387,46.278574],[25.802037,46.296727],[25.807166,46.300211],[25.822957,46.305717],[25.825547,46.307998],[25.812312,46.315413],[25.794558,46.320299],[25.772021,46.321346],[25.756747,46.319513],[25.752576,46.328618],[25.751412,46.337702],[25.744431,46.345783],[25.73445,46.354627],[25.738404,46.361],[25.740251,46.37111],[25.732967,46.375709],[25.725363,46.377517],[25.718558,46.377121],[25.730851,46.380499],[25.729445,46.384027],[25.726202,46.386059],[25.727799,46.396859],[25.723855,46.400906],[25.713737,46.405243],[25.710158,46.409539],[25.712394,46.413799],[25.72189,46.417259],[25.725974,46.42377],[25.721668,46.428071],[25.709756,46.434681],[25.721176,46.445923],[25.723077,46.452196],[25.731137,46.452301],[25.732254,46.460007],[25.728498,46.465994],[25.705332,46.477112],[25.691645,46.488257],[25.688167,46.501099],[25.701091,46.51535],[25.692486,46.525961],[25.695329,46.549071],[25.699749,46.552815],[25.712594,46.559775],[25.726498,46.563962],[25.761566,46.569516],[25.766135,46.573957],[25.76682,46.576631],[25.754731,46.591888],[25.759518,46.594683],[25.78074,46.599451],[25.802556,46.596634],[25.811326,46.589537],[25.822596,46.564013],[25.840421,46.555523],[25.841625,46.544086],[25.817678,46.534736],[25.810353,46.529313],[25.801946,46.520563],[25.79761,46.507023],[25.79027,46.500169],[25.786372,46.492816],[25.78043,46.462858]]],[[[26.016736,45.749117],[26.121101,45.708382],[26.068357,45.621329],[25.990925,45.67938],[26.016736,45.749117]]]]},"properties":{"alert_id":"abdbc371c3e6de93","source":"nowcasting","alert_type":"nowcasting","feature_id":"72d5506c0fb543207d","judet_cod":"CV","judet_nume":"Covasna","county_code":"CV","county_name":"Covasna","cod_judet":"CV","cod_culoare":1,"cod_culoare_nume":"Galben","culoare":"1","cod":"Galben","fenomen_principal":"Ceață ce determină vizibilitate redusă, local sub 200 m și izolat sub 50 m.","fenomen_group":"ceata","zona_text":"Județul Covasna: Întorsura Buzăului, Sita Buzăului, Barcani;<br>Zona depresionară a județului Harghita , respectiv zona localităților: Miercurea Ciuc, Toplița, Gheorgheni, Ditrău, Sândominic, Remetea, Joseni, Suseni, Ciumani, Ciucsângeorgiu, Sărmaș, Frumoasa, Lăzarea, Sânsimion, Cârța, Siculeni, Mihăileni, Tomești, Gălăuțaș, Ciceu, Sânmartin, Sâncrăieni, Dănești, Subcetate, Mădăraș, Tușnad, Sântimbru, Voșlăbeni, Cozmeni, Leliceni, Păuleni-Ciuc, Racu;<br>","zona_nume":"Covasna - localitati","zone_name":"Covasna - localitati","display_name":"Covasna - localitati","localities":["Întorsura Buzăului","Sita Buzăului","Barcani"],"geometry_source":"coordGis","match_confidence":"high","interval_text":"","interval_start":"2026-09-15T07:37:00","valid_from":"2026-09-15T07:37:00","valid_to":"2026-09-15T09:00:00","interval_valabilitate_text":"","interval_end":"2026-09-15T09:00:00","data_expirare":"2026-09-15T09:00:00","mesaj_plain":"Ceață ce determină vizibilitate redusă, local sub 200 m și izolat sub 50 m.","source_url":"","source_label":"","notes":"","durata_ore":1.4,"zi":"2026-09-15"}},{"type":"Feature","geometry":{"type":"MultiPolygon","coordinates":[[[[24.960848646392115,47.59686784703264],[24.99215039612093,47.585587601474735],[24.99106336455644,47.58048549853733],[25.007783344181515,47.56884111243191],[25.051962073733748,47.560457206219766],[25.066497284035258,47.530355999138884],[25.09505639627081,47.516217883892146],[25.09379658802691,47.503977657609504],[25.06147443308527,47.48127905639834],[25.045373902058106,47.48104622620459],[25.046993974934054,47.470234719864365],[25.06024939644704,47.46252341705998],[25.06620296072168,47.450213822499],[25.0811568306133,47.45397763759021],[25.090902286091413,47.448940679261526],[25.077557622788273,47.43823649761993],[25.062312776839693,47.436951502525865],[25.052381328546023,47.43102017665016],[25.05031515600482,47.425470478778195],[25.05828745580104,47.416548009516404],[25.02670967592844,47.43581315112965],[25.014651629442046,47.433434236042125],[24.99946942343845,47.42021632548201],[24.982845348313365,47.42403572818634],[24.985608135685325,47.418077397482946],[25.001348425967688,47.414261102725234],[25.03333728997022,47.39432315332096],[25.03997352759075,47.380444510700336],[25.062646490889843,47.379196912662444],[25.069429355135807,47.3699382186378],[25.060324158886168,47.353271870823114],[25.069791744435296,47.34179284134534],[25.077102652604832,47.34077296689246],[25.072690338130634,47.32948591111997],[25.07754390819599,47.31166544534753],[25.047514206415826,47.303686709366055],[25.028074060545023,47.28679871056862],[25.051348427174815,47.27023511056899],[25.079599444962227,47.25864056196802],[25.074866937211322,47.24618034849223],[25.04427405814458,47.21609136440855],[25.05829057483313,47.20140673914988],[25.056626731095697,47.18801591217596],[25.06719266125541,47.16676277955808],[25.057613565157652,47.15059515227215],[25.06607636133837,47.14284610529244],[25.063395518125745,47.13655306186738],[25.05097853957724,47.1310631748518],[25.04241245707034,47.13282580246454],[25.032264887278217,47.11944086401932],[25.013508961918884,47.111181930117894],[24.99876609823722,47.11081881914106],[24.985898980307727,47.11910775469661],[24.978107514486886,47.113882787601405],[24.953387875736944,47.11990573469069],[24.940833956727833,47.10049573487791],[24.932059912476532,47.09604872358232],[24.914418713388578,47.10218005719393],[24.905452500516784,47.10054945253225],[24.897106912998687,47.10925515343116],[24.87022117831709,47.10485566085857],[24.854173852727325,47.09593800952047],[24.793027675077504,47.049362886643536],[24.7741963967822,47.00846310980236],[24.74039468769508,46.98156249496808],[24.74000992763826,46.97312613391836],[24.744986977831996,46.972094494338045],[24.740145607592243,46.960183531320055],[24.73318427730404,46.95742388272925],[24.741006092244945,46.953091086286825],[24.72171912694368,46.93238719658377],[24.753607038678826,46.91425360063431],[24.754708497412093,46.91003545386477],[24.745582811741777,46.905776860744425],[24.728389517870163,46.9113155072951],[24.72495140355801,46.90368822160875],[24.70862795210718,46.902056487489915],[24.693689073110942,46.90822300586779],[24.657723839905923,46.90913041239977],[24.64635457731337,46.919232091172766],[24.653375096914807,46.923221093393686],[24.63996295303042,46.92545590064837],[24.644853236043332,46.936882756872855],[24.638456576071682,46.937826082456176],[24.638679988266087,46.94522356098243],[24.629184518110154,46.95125533159072],[24.622893525855662,46.942971759757405],[24.600577089383542,46.947962363885686],[24.594273106168128,46.94516465210852],[24.578661240872997,46.92590390810118],[24.584537165586028,46.91518749226588],[24.570125532989817,46.91453387304505],[24.564943017988938,46.912379198384656],[24.568935749924783,46.90860164800971],[24.560438747483193,46.9054212070254],[24.5324376964436,46.907037272541224],[24.531787677865122,46.89899741410102],[24.54028496977565,46.89125148846566],[24.53203873286608,46.88116141623293],[24.53891082393432,46.876429691752016],[24.538257362151707,46.86784483304318],[24.532806875286052,46.870465137631506],[24.527187190803286,46.85398259141204],[24.509122264080723,46.84879956385148],[24.503267867831493,46.851373822725535],[24.50365214431836,46.83957891210016],[24.490379369544854,46.840121464268364],[24.458157878214795,46.82008106452654],[24.46343529411384,46.81163374234948],[24.44929449998708,46.789055514378916],[24.460229575556482,46.78504546203803],[24.462206596338117,46.7915000429505],[24.47225846962044,46.78304366623694],[24.452117939774435,46.76566865631556],[24.43260998735511,46.769947477557],[24.42548166581466,46.776200608041286],[24.42402297513463,46.772073341868094],[24.4092545428546,46.77211949757389],[24.401111395929156,46.764222556228574],[24.401004778998225,46.750547340809284],[24.362388145333895,46.746321910037665],[24.339260383925698,46.75774723463529],[24.324369336796288,46.75414182980891],[24.308783573788755,46.75824526688562],[24.30115345992034,46.75315095057206],[24.24759867823618,46.77290781380418],[24.24746608183655,46.768713660750194],[24.23487727063721,46.772886139725784],[24.24024872528184,46.774556507430894],[24.211364520335415,46.78354677206981],[24.216975812363902,46.78787013054843],[24.177569675500493,46.80716297529054],[24.192144635316016,46.80650564448337],[24.188471083317843,46.81217851971017],[24.196931702807774,46.820185927046985],[24.188841441333874,46.83107464868964],[24.210582794485532,46.839424788287204],[24.19924974020538,46.85259643883516],[24.219135120100347,46.873950956088784],[24.212108299652556,46.88519328803652],[24.227401874919,46.88836698616686],[24.20964631726396,46.91203962351282],[24.186812255740982,46.921848407182765],[24.193646058898562,46.9241905279976],[24.192550854499675,46.935087929445345],[24.185346482454136,46.928931475409264],[24.161542386184713,46.93358031849348],[24.16138863069304,46.94787706531335],[24.167832028446703,46.94651773718559],[24.178299271693845,46.95350553778719],[24.170366741845886,46.95815111856967],[24.17551892713988,46.96317847753551],[24.15824001864988,46.96483451757665],[24.156984829266477,46.96171280192154],[24.141564086409236,46.96726783257694],[24.113932698255184,46.96055412085994],[24.118131342911614,46.974048767389675],[24.097877638603247,46.98910265702008],[24.115879657593474,47.01122595944966],[24.11531325969624,47.02207057410373],[24.10361420480632,47.027214922794386],[24.11664726768854,47.04139024090021],[24.114593478430812,47.05059139299793],[24.126364240635873,47.060405634673195],[24.12386619987169,47.06641117113792],[24.134192344642152,47.07391403493591],[24.131142410136068,47.0878205036591],[24.14575460849779,47.08767457224975],[24.147227605153493,47.08964010301263],[24.119518512414608,47.097864897516175],[24.120375167310524,47.1059419262396],[24.109896460124318,47.11134402105269],[24.107796072055635,47.124134821719515],[24.09652081199428,47.12700560897664],[24.08789849564093,47.115208176704805],[24.07723621144409,47.11986169483562],[24.070169221740986,47.11822241368413],[24.070774512133756,47.12873772112102],[24.040519199355487,47.132551434301995],[24.039302340342605,47.14033126246233],[24.026150235030233,47.1459018389204],[24.01741811584956,47.142490958326476],[24.011500338497527,47.150496417253784],[24.014142209065636,47.1585556921041],[24.02378346979341,47.15492462019777],[24.028445137818178,47.16412182508462],[24.016649258306984,47.178343465216294],[24.00204827715816,47.175785024849745],[24.005298928615442,47.16697046559895],[23.977841615500825,47.16810917315752],[23.95832644250786,47.162185218738095],[23.958456056639744,47.174077560683834],[23.950604166888077,47.17663686599062],[23.936036393938604,47.19929320212092],[23.936732910784407,47.21156237115841],[23.918742800279677,47.253874974669614],[23.92126320841583,47.27330202037159],[23.93061954586819,47.27434279164448],[23.934727181105465,47.284765462142715],[23.9281265067913,47.300504359086],[23.938375650395233,47.302787443189835],[23.941130602516843,47.309265270476445],[23.95026029774807,47.30607399408774],[23.95345547284165,47.315752422790595],[23.9569030771017,47.31133991853717],[23.959535471622683,47.31698776603803],[23.971594941877793,47.31168855348585],[23.979824425195318,47.32114759632675],[24.007142698763776,47.30459792362454],[24.00863005694791,47.31298297611077],[24.021168594526483,47.31420325679517],[24.018383012103094,47.31729341642284],[24.029444245464372,47.324823075048734],[24.02199994360206,47.329102762413896],[24.02682037527137,47.331380154111976],[24.01780526082436,47.34454441895065],[24.022139783304336,47.361271882244466],[24.032780057040167,47.36218231509714],[24.037811774957422,47.37407154559623],[24.060832796538072,47.37765001913671],[24.076314702910523,47.402762914946145],[24.072377257274077,47.409675049296666],[24.084289621388958,47.41093304001253],[24.085728471336598,47.417569661425325],[24.093504579788902,47.41753118605354],[24.094265998635898,47.4225023610166],[24.103043103808954,47.4215621794182],[24.110354491988968,47.43346101740262],[24.124459285409962,47.43815968762541],[24.1180255871997,47.447273871913275],[24.126619715707598,47.4582764291925],[24.118947731229863,47.46046291640895],[24.129980218126313,47.46561153961806],[24.122448153540525,47.47473300882542],[24.128466438077023,47.47944936535698],[24.118926357901003,47.47823614311809],[24.117584963324905,47.48294677139921],[24.126684378462787,47.49939911486981],[24.1311838283427,47.49100163570503],[24.1414019673633,47.487549783266665],[24.144211667725575,47.49339129060895],[24.153625856013235,47.49482278170866],[24.153431497427988,47.502755738762865],[24.166877148290283,47.505694495613575],[24.18202146853979,47.507190385133],[24.189364378198697,47.503308306662],[24.197547921969324,47.50632500486941],[24.205217606659033,47.49796884494084],[24.216612958090572,47.50362705904546],[24.241057082882914,47.50045551903548],[24.252390542541484,47.518855812422494],[24.267717403029987,47.51739076873217],[24.278008607115954,47.52998220336419],[24.27939438335266,47.54417249469974],[24.3019510925913,47.55822626817089],[24.303210818544198,47.579115549624014],[24.321761248324794,47.57266270973708],[24.32600900773136,47.566847699865875],[24.34270947747562,47.56537495317177],[24.360905061868984,47.574739284588944],[24.38653104084754,47.60836861811495],[24.438217015928142,47.590645523127684],[24.45641578626546,47.59535255209816],[24.472937885333057,47.58779466025429],[24.552772549939785,47.573532090670454],[24.56564424552987,47.562667060418605],[24.5815064382219,47.57045611906833],[24.604531337689636,47.56862667004457],[24.63189463063508,47.57581993875155],[24.652145250777252,47.567521903846384],[24.651895020753855,47.558318915865065],[24.659594130399096,47.55398927773755],[24.66434200427887,47.557463268349736],[24.691239702541637,47.55854881355406],[24.72540265023173,47.575928645067265],[24.73455596195216,47.571403065665926],[24.755289460403784,47.57127353894563],[24.78742280882264,47.57699226612239],[24.80725262010722,47.56666979283571],[24.82175898783776,47.593257404409755],[24.8294260861093,47.59684555982168],[24.860842008045903,47.59132802447211],[24.899121259426053,47.60302955749407],[24.916613844406218,47.59824389774522],[24.960848646392115,47.59686784703264]]]]},"properties":{"alert_id":"f22e1e1995ba5b36","source":"nowcasting","alert_type":"nowcasting","feature_id":"c608551009f99ef098","judet_cod":"BN","judet_nume":"Bistrița-Năsăud","county_code":"BN","county_name":"Bistrița-Năsăud","cod_judet":"BN","cod_culoare":1,"cod_culoare_nume":"Galben","culoare":"1","cod":"Galben","fenomen_principal":"Ceață ce determină vizibilitate redusă, local sub 200 m și izolat sub 50 m.","fenomen_group":"ceata","zona_text":"Județul Suceava: Vatra Dornei, Broșteni, Fundu Moldovei, Șaru Dornei, Dorna Candrenilor, Pojorâta, Dorna-Arini, Crucea, Iacobeni, Poiana Stampei, Coșna;<br>Județul Bistriţa-Năsăud: Tiha Bârgăului;<br>","zona_nume":"Bistrița-Năsăud - localitati","zone_name":"Bistrița-Năsăud - localitati","display_name":"Bistrița-Năsăud - localitati","localities":["Tiha Bârgăului"],"geometry_source":"county_fallback","match_confidence":"low","interval_text":"","interval_start":"2026-09-15T03:15:00","valid_from":"2026-09-15T03:15:00","valid_to":"2026-09-15T09:00:00","interval_valabilitate_text":"","interval_end":"2026-09-15T09:00:00","data_expirare":"2026-09-15T09:00:00","mesaj_plain":"Ceață ce determină vizibilitate redusă, local sub 200 m și izolat sub 50 m.","source_url":"","source_label":"","notes":"","durata_ore":5.8,"zi":"2026-09-15"}},{"type":"Feature","geometry":{"type":"MultiPolygon","coordinates":[[[[25.417582325615665,47.40751873719776],[25.414999302677483,47.403212986924906],[25.418888409638058,47.399213041605826],[25.411684128042516,47.3915389556864],[25.409459226302484,47.37852734880799],[25.401719087982258,47.372103368845046],[25.402327237905492,47.36756524055689],[25.39752088724315,47.364429006806354],[25.404047767439398,47.354611441307185],[25.404828811354182,47.348572213005156],[25.400377637925477,47.34194807615971],[25.403574300177592,47.339485621944206],[25.399604546397143,47.33458770268382],[25.39024463455972,47.32978352499821],[25.38597502764854,47.32127494520501],[25.380418723414756,47.318453091628236],[25.369597231010662,47.31818687992982],[25.356294758196917,47.31365798592565],[25.336649899756033,47.31762215189358],[25.330777983826163,47.31507756021292],[25.32399715098797,47.30325156190949],[25.311051934874676,47.30060131669063],[25.30739533934453,47.301734227859164],[25.301300818959646,47.29874380639725],[25.29459082973915,47.31716331365694],[25.294985526308338,47.322643376697876],[25.286854949366337,47.32858062958709],[25.287706026344775,47.333347912377626],[25.28107595172075,47.338306603721215],[25.281136632296015,47.345001281184295],[25.295850821327125,47.35628678317021],[25.291424862203733,47.36434232096525],[25.292871933803017,47.36853014454176],[25.300301510516103,47.37349267661728],[25.282257300258472,47.385921099116416],[25.258491228784692,47.38248849883341],[25.248483085350223,47.39608767539598],[25.244384196968344,47.39637660176438],[25.249067698125,47.399589430460765],[25.264933470095578,47.39869488693624],[25.27191427650927,47.396484590747576],[25.298873020763594,47.39854783086505],[25.302714936411025,47.401284061540856],[25.32426196331169,47.404736561204416],[25.33093987662306,47.41165298269493],[25.33659645131863,47.411056914191825],[25.357887680080808,47.4156664297211],[25.364208232681214,47.42059931862408],[25.36372950428001,47.42381843672067],[25.368073077334813,47.42757231031143],[25.38197965696458,47.42563115994534],[25.39137896805318,47.41778955902045],[25.417582325615665,47.40751873719776]]],[[[25.758026867665183,47.321950675855916],[25.777547044130074,47.30798987594827],[25.789249882057714,47.286641593975524],[25.804656522168592,47.28020290704568],[25.809035201524512,47.27111743680931],[25.8061640639516,47.2683564465474],[25.81296161156003,47.26020593722148],[25.788167041749517,47.23860652498646],[25.774127398706508,47.23571017315],[25.76812976496893,47.230816166805845],[25.753393812764546,47.22935448444271],[25.750120004850857,47.22488895747897],[25.743096822796478,47.22629578170753],[25.734892858437053,47.216360712346884],[25.7289698021327,47.21708588343284],[25.729511869782076,47.203735721234224],[25.71815529000704,47.2005963451059],[25.716010220079337,47.19706552846218],[25.717053164044515,47.1852547650525],[25.718624898412898,47.18130631080121],[25.722261277984504,47.17979477276122],[25.721119520408656,47.17495590727193],[25.70048048945552,47.170736772410315],[25.69794578442006,47.163761035764274],[25.691758727453355,47.15879632476021],[25.690534513563367,47.15469026932084],[25.697762924599083,47.143423330977896],[25.67996445539354,47.1305980314853],[25.674003805763256,47.12897278523118],[25.673992707014147,47.12158783178111],[25.66398272795012,47.11939923517862],[25.665876265160644,47.10793514520168],[25.663332090683614,47.10520370013151],[25.664375318015892,47.10086097268583],[25.659585361031635,47.095854335330415],[25.661598720871847,47.09166152284255],[25.6521517359804,47.08722600250248],[25.640075208059713,47.09330529117239],[25.62380512661506,47.09502996309431],[25.613717440200734,47.08378212625013],[25.60159554595199,47.07733886686484],[25.574415487538968,47.0846980433427],[25.55234735717059,47.08124564235076],[25.535636559474717,47.083463419344895],[25.531971592889672,47.08674763672763],[25.531523623846013,47.09696952611937],[25.527382372493186,47.10014340213896],[25.526817668869505,47.1053040476339],[25.530300481194864,47.110530393173406],[25.517001212848594,47.11898876405734],[25.508995726762617,47.11686692878276],[25.50497105478352,47.118172512252656],[25.494582060407847,47.12863693110983],[25.500968291163144,47.134968296100006],[25.508838020292732,47.13130812324843],[25.51928466520492,47.13202048694657],[25.522022974284823,47.134121752888646],[25.519712609773958,47.14628257676114],[25.537056622075177,47.17037651475542],[25.531286422641628,47.1834122313232],[25.51985952727159,47.17809334022019],[25.512701505275036,47.18078407164378],[25.506371411374857,47.18031649779508],[25.501749714794105,47.18535578659991],[25.501314929894587,47.189904656512354],[25.5062946931331,47.191419460938036],[25.50944066854916,47.18975329410225],[25.516393876611318,47.19613564073041],[25.52556107934527,47.19323115217924],[25.535405489718816,47.20081775295638],[25.541364405682888,47.196867761070074],[25.55579585670505,47.194249806699204],[25.547732039429228,47.213358869470945],[25.534519147446193,47.219640428176],[25.527555354650204,47.22673689452881],[25.5138508709148,47.231553063890054],[25.508539770569516,47.23627869916131],[25.500699895229737,47.23800396490836],[25.492240630279028,47.23576310783738],[25.473120722368193,47.23884349538183],[25.465079437387132,47.234297259302096],[25.456437862407192,47.235146495416366],[25.445789852077134,47.23199215946491],[25.431123521980034,47.25769832613219],[25.428899610578497,47.26829942478158],[25.421191757430357,47.27207534426223],[25.417655635945447,47.28021623312841],[25.448455205355554,47.282565408120796],[25.464058096615975,47.2858873677671],[25.46970302280374,47.29515758126592],[25.485606393936735,47.28579376309131],[25.48464093540669,47.278252534900034],[25.494052873899317,47.286238954046176],[25.50595339057616,47.28998513538355],[25.512942291780522,47.29010390564024],[25.515379458856373,47.29218622588267],[25.530748848755596,47.290860937793],[25.543355180427763,47.28687228167433],[25.556976617920153,47.28883794655575],[25.563819795238558,47.29288753131828],[25.563991584994405,47.29668424581983],[25.57315932112615,47.2987867258496],[25.582487023621066,47.30402602183792],[25.591020497228744,47.30441370847301],[25.5970894699981,47.315343756134084],[25.613801976949418,47.317169233852766],[25.6309995323509,47.3102430398216],[25.62589079335395,47.314195376474494],[25.63288889756376,47.31480024897249],[25.637215146471085,47.31764495847593],[25.647505847399536,47.31704168991086],[25.654503817862135,47.314246576612035],[25.6647392477641,47.31439013936603],[25.688493543334097,47.32382002851716],[25.699887068021248,47.319049686393825],[25.705893390435627,47.31351875706993],[25.71632953070407,47.31140640644973],[25.71965166647377,47.30653650729472],[25.728063243350316,47.304545474708405],[25.740845707481473,47.310175745287026],[25.739969900706303,47.315204894043426],[25.746808001782043,47.321575002090896],[25.754433637013587,47.31973147653641],[25.758026867665183,47.321950675855916]]],[[[25.38235057403343,47.59444655527805],[25.382033452544995,47.592148148884476],[25.393411420187594,47.57974558730239],[25.408523410867225,47.57748133524363],[25.413072597520472,47.560887351017286],[25.423879087144787,47.55457839813015],[25.436338584853004,47.557623853013126],[25.44828650744395,47.552696965133755],[25.45526988829274,47.537074586678784],[25.44932393967797,47.53406590971868],[25.451066821360783,47.53212630676968],[25.445424547064242,47.526324734987526],[25.437191197250232,47.52689428683816],[25.425070532763744,47.515502412841144],[25.404469593853243,47.516268619115465],[25.395259189191503,47.51286685202002],[25.394823360890474,47.51009747253918],[25.387819905000548,47.50605550605021],[25.37195272200645,47.50038522009688],[25.330227231568408,47.49218349635794],[25.323280345207515,47.48786358914464],[25.31075583887554,47.49194907057547],[25.30320190626892,47.500630443958066],[25.300793383573904,47.51194729072771],[25.291753327277544,47.51363131406795],[25.284700850471488,47.520969752640795],[25.274591059431778,47.51706263121031],[25.276457378734463,47.52056627836087],[25.266364986730824,47.52696114118538],[25.267512719277608,47.53448625407906],[25.260696843607455,47.54352216344474],[25.240883192245455,47.54191157132491],[25.229199674147203,47.550695230113675],[25.224550756428144,47.550199359316736],[25.223067397482147,47.55360871748577],[25.215067862552402,47.55296952676945],[25.207320884545204,47.55560266223025],[25.208532830874674,47.55781396690127],[25.203543716525584,47.55940454566855],[25.197878302336097,47.57205466515734],[25.1974094502173,47.57482014118798],[25.202300946258983,47.57465757730888],[25.20081083628721,47.58176066861702],[25.194835757725446,47.582992960294796],[25.20072230277149,47.586622075485224],[25.200125859391527,47.59169985346346],[25.206401868292208,47.59071929827025],[25.207698443227958,47.59606747695812],[25.211901817828938,47.599601050258116],[25.22074107282829,47.5989860214489],[25.232676106467924,47.60158295062713],[25.243040591431576,47.60790558895064],[25.258924162959207,47.61040556865808],[25.273341086759693,47.61757756991153],[25.27933139106638,47.61829815327023],[25.29138921292612,47.61023914503271],[25.297763265940787,47.60102788597062],[25.305525622655598,47.59757929206768],[25.319168300779054,47.595186001659656],[25.333529038488365,47.59779955323915],[25.340267264356115,47.596281187354464],[25.367147548978124,47.583432421627585],[25.368709348947004,47.586638208154966],[25.38235057403343,47.59444655527805]]],[[[25.417655635945447,47.28021623312841],[25.420536212377563,47.27496976857561],[25.40870764571671,47.269311873743334],[25.40594745807512,47.26535603670046],[25.398381032291248,47.269154622974234],[25.37259162601333,47.27388949806868],[25.36043736750729,47.26397357373902],[25.363473767584384,47.2621095485489],[25.361612874023695,47.25924510264124],[25.352694805111476,47.25223154180726],[25.359679966928436,47.24918466498538],[25.360921069648764,47.24739364717291],[25.35561204560593,47.24473619739285],[25.366641405749093,47.2377415044165],[25.373299738118046,47.22482678464098],[25.369163634066364,47.22342967757349],[25.369536438557315,47.220497244899995],[25.366290345981458,47.218129981611646],[25.35874827478773,47.216169491923765],[25.356815322567435,47.21119703177299],[25.34818439407887,47.20538590469278],[25.33989411783503,47.19560487059733],[25.344656139860998,47.179678694595154],[25.335667455753207,47.17689960083634],[25.32129891072143,47.16641037708114],[25.30503790892055,47.16513870735331],[25.294407736338012,47.15587363477155],[25.296051541515116,47.14817157513749],[25.287230244324327,47.13323399063748],[25.29712013207745,47.118383595626476],[25.293936658702638,47.11336139036726],[25.280007829142342,47.10400215089429],[25.264315463599075,47.103681297929846],[25.25151784569717,47.097821126813855],[25.237957238073058,47.09690736083501],[25.231393387595308,47.10001825186188],[25.226392225822874,47.10812269467462],[25.199869909724253,47.11359973822163],[25.190665511171513,47.118910014676665],[25.182308797830277,47.12795818085338],[25.177797842092943,47.12794883035703],[25.172071273538375,47.13105807139392],[25.17576546975879,47.13766015381937],[25.174455083671784,47.14117654855291],[25.160527016765503,47.151853809539155],[25.15902592763903,47.159178256868906],[25.172946607504834,47.182987309173235],[25.172260008628847,47.18715868875086],[25.19473210642207,47.19866486617161],[25.202703588245484,47.21176708272249],[25.213602709209336,47.21887934692275],[25.212417021710642,47.22702325660666],[25.234510879399885,47.234910748075],[25.24095306812466,47.24135863827909],[25.239834922232074,47.252384529999745],[25.23554237299142,47.26022315517035],[25.238288889490033,47.27279160994597],[25.244623198588453,47.27911106291045],[25.259052527027606,47.28477679898191],[25.262432519684943,47.28985700432256],[25.275691802304575,47.29621524487004],[25.28818186594797,47.294661407563524],[25.30371849725524,47.2989246701313],[25.30739533934453,47.301734227859164],[25.311051934874676,47.30060131669063],[25.323497749380806,47.30301704924614],[25.330777983826163,47.31507756021292],[25.336649899756033,47.31762215189358],[25.356294758196917,47.31365798592565],[25.369597231010662,47.31818687992982],[25.380418723414756,47.318453091628236],[25.382161915418234,47.3204619061785],[25.38238270587894,47.318170079004446],[25.38945704458793,47.315461455172],[25.392894585836203,47.30975859175665],[25.402967355188196,47.30656764211562],[25.404555615004067,47.30439941921616],[25.39999361828117,47.29414835703572],[25.40339077086658,47.28902841194672],[25.417655635945447,47.28021623312841]]],[[[25.231752234811037,47.424165649550545],[25.243907411925207,47.40548998254448],[25.25019514303551,47.402043656639464],[25.244384196968344,47.39637660176438],[25.248483085350223,47.39608767539598],[25.258491228784692,47.38248849883341],[25.282257300258472,47.385921099116416],[25.300301510516103,47.37349267661728],[25.292871933803017,47.36853014454176],[25.291424862203733,47.36434232096525],[25.295850821327125,47.35628678317021],[25.281136632296015,47.345001281184295],[25.28107595172075,47.338306603721215],[25.287706026344775,47.333347912377626],[25.286854949366337,47.32858062958709],[25.294985526308338,47.322643376697876],[25.29459082973915,47.31716331365694],[25.301300818959646,47.29874380639725],[25.285518188544376,47.29429205741412],[25.27912785167015,47.29673513605963],[25.274857832184217,47.29593637650241],[25.262432519684943,47.28985700432256],[25.259052527027606,47.28477679898191],[25.247107106655466,47.280514329681225],[25.240216579926724,47.27549221715889],[25.23554237299142,47.26022315517035],[25.239834922232074,47.252384529999745],[25.24095306812466,47.24135863827909],[25.234510879399885,47.234910748075],[25.212417021710642,47.22702325660666],[25.213602709209336,47.21887934692275],[25.202703588245484,47.21176708272249],[25.19473210642207,47.19866486617161],[25.18565356933106,47.19317162493105],[25.17403345986061,47.18950218130029],[25.17003773096448,47.19194690488161],[25.154259868491486,47.21499545889742],[25.14513820755386,47.22016348863433],[25.14732749613187,47.22287818876533],[25.14209910774666,47.233530974006655],[25.1570899291615,47.24636036538825],[25.15704051954893,47.26464118547714],[25.162545510359017,47.26915770588474],[25.165595123802625,47.278309865068046],[25.150878607366735,47.283290708699774],[25.156830667039166,47.28899830503566],[25.152164891164983,47.2955796864025],[25.15845846129134,47.29899859110995],[25.168098243935066,47.300435403301535],[25.170031383791823,47.30504350895828],[25.17830854653687,47.30513361374456],[25.184206157964535,47.31202577383628],[25.186892204169226,47.31223840663929],[25.19188398242321,47.32426934522137],[25.20845679213712,47.32722765516269],[25.209175408316536,47.33210182426828],[25.205643031130087,47.3360285813873],[25.207819906568854,47.34722200376645],[25.210874390616382,47.34969341964797],[25.203895391122476,47.34893622689815],[25.199276051230335,47.3547520852664],[25.199360487140936,47.357498776692694],[25.213232587077062,47.35921104063598],[25.2072759414658,47.363331073380714],[25.209160800344588,47.36742908883172],[25.205764079021716,47.37404069575918],[25.20819376825423,47.37545320336846],[25.200506323623625,47.3839990883964],[25.197668909120132,47.383781751260486],[25.198624773451666,47.386284009725635],[25.192397527535825,47.386429851971556],[25.18959706216123,47.383490691638],[25.185668165801427,47.383166803558204],[25.184337410401014,47.38819382457674],[25.188756902921437,47.39097405200092],[25.190352679444807,47.39626616559884],[25.20450298161104,47.401722596971005],[25.211434436192004,47.4111742446925],[25.215384735688463,47.41128038388457],[25.214745176022173,47.413065297926096],[25.22455069894726,47.417628600340414],[25.226791701078117,47.42449457827067],[25.22936384041726,47.42299296104136],[25.231752234811037,47.424165649550545]]],[[[25.530167917762316,47.40623415394929],[25.53035733040637,47.39647070119552],[25.536788467505712,47.38788946870426],[25.541005919724434,47.376088882900355],[25.527951218900032,47.36559655781999],[25.526216671895632,47.35897146280045],[25.530181598083402,47.356538697437834],[25.52802653581625,47.35503642264107],[25.53176172517468,47.344511128155034],[25.52955926667007,47.33530882835151],[25.533021769992434,47.33298580743124],[25.530669487229613,47.32863097853796],[25.492729194846117,47.309870792584135],[25.476914423275055,47.307362277224954],[25.469587652723195,47.29180710869775],[25.464058096615975,47.2858873677671],[25.447801072239326,47.28248810640838],[25.416500052927734,47.28030525187339],[25.40339077086658,47.28902841194672],[25.39999361828117,47.29414835703572],[25.404555615004067,47.30439941921616],[25.402967355188196,47.30656764211562],[25.392894585836203,47.30975859175665],[25.38945704458793,47.315461455172],[25.381799043226653,47.31976613663635],[25.38597502764854,47.32127494520501],[25.39024463455972,47.32978352499821],[25.399604546397143,47.33458770268382],[25.403574300177592,47.339485621944206],[25.400377637925477,47.34194807615971],[25.404828811354182,47.348572213005156],[25.404047767439398,47.354611441307185],[25.39752088724315,47.364429006806354],[25.402327237905492,47.36756524055689],[25.401719087982258,47.372103368845046],[25.409459226302484,47.37852734880799],[25.411684128042516,47.3915389556864],[25.418888409638058,47.399213041605826],[25.414999302677483,47.403212986924906],[25.415933768755615,47.406069964352334],[25.417582325615665,47.40751873719776],[25.428713780882887,47.40737156463953],[25.443453422416397,47.418421545501474],[25.445796575356617,47.41727541185498],[25.44894494684546,47.41864236869417],[25.46160049858437,47.42828091684855],[25.478535180567675,47.430729624711134],[25.491846496925593,47.44041214861021],[25.498484504769802,47.44111076967405],[25.513688059944997,47.44740504362144],[25.519768827727557,47.43678308019411],[25.516349245869474,47.43162210985647],[25.517717843497547,47.4288836798347],[25.51399510408401,47.41724306978039],[25.52392757481753,47.405402869288636],[25.525989436359897,47.409048891989265],[25.530167917762316,47.40623415394929]]],[[[25.614323594113063,47.43411950287267],[25.623244373549262,47.433121162884085],[25.630194232184802,47.4183630825523],[25.628607952628048,47.41313880008011],[25.6201367953108,47.409040986084925],[25.61691968003903,47.40442607625793],[25.619284839861287,47.39883683213172],[25.616313013943817,47.39505613574711],[25.62229811789119,47.38660688037508],[25.661850617721473,47.38459888170507],[25.666268116727515,47.371029973197864],[25.672909295299206,47.36479659151436],[25.6718825313765,47.35988432539891],[25.66808772288024,47.35724991843129],[25.673019247509664,47.34934578418299],[25.67345046642422,47.34019607297726],[25.679643548511294,47.336842116599634],[25.688493543334097,47.32382002851716],[25.6647392477641,47.31439013936603],[25.654503817862135,47.314246576612035],[25.647505847399536,47.31704168991086],[25.637215146471085,47.31764495847593],[25.63288889756376,47.31480024897249],[25.62589079335395,47.314195376474494],[25.6309995323509,47.3102430398216],[25.616035026289836,47.31700854076909],[25.5970894699981,47.315343756134084],[25.591020497228744,47.30441370847301],[25.582487023621066,47.30402602183792],[25.57315932112615,47.2987867258496],[25.563991584994405,47.29668424581983],[25.563819795238558,47.29288753131828],[25.556976617920153,47.28883794655575],[25.543355180427763,47.28687228167433],[25.530748848755596,47.290860937793],[25.515379458856373,47.29218622588267],[25.512942291780522,47.29010390564024],[25.50595339057616,47.28998513538355],[25.494052873899317,47.286238954046176],[25.48464093540669,47.278252534900034],[25.485606393936735,47.28579376309131],[25.46970302280374,47.29515758126592],[25.47516234264463,47.30611675078037],[25.48006866383647,47.30892010167661],[25.488121373438336,47.30834140197246],[25.501533824363086,47.31347354644491],[25.505240686417743,47.317247479289804],[25.530669487229613,47.32863097853796],[25.533021769992434,47.33298580743124],[25.52955926667007,47.33530882835151],[25.53176172517468,47.344511128155034],[25.52802653581625,47.35503642264107],[25.530181598083402,47.356538697437834],[25.526216671895632,47.35897146280045],[25.527951218900032,47.36559655781999],[25.541005919724434,47.376088882900355],[25.536788467505712,47.38788946870426],[25.53035733040637,47.39647070119552],[25.530167917762316,47.40623415394929],[25.54088455204253,47.40924747984697],[25.55264997164585,47.4041382542106],[25.551220735441586,47.41029744789903],[25.553537584372986,47.41701958594485],[25.552673051274205,47.419929138563084],[25.54231145791323,47.42466869604782],[25.544176999227982,47.43369300216128],[25.557566564245167,47.44397085754266],[25.572442494316864,47.448192887008695],[25.573706523247917,47.44962937148839],[25.57123231850278,47.450277526683905],[25.57538326454928,47.45402952220968],[25.5858438061101,47.452544095733586],[25.60278139982038,47.44539179999681],[25.608379693183142,47.438573375301985],[25.614323594113063,47.43411950287267]]],[[[25.368073077334813,47.42757231031143],[25.36372950428001,47.42381843672067],[25.364208232681214,47.42059931862408],[25.357887680080808,47.4156664297211],[25.33659645131863,47.411056914191825],[25.33093987662306,47.41165298269493],[25.32426196331169,47.404736561204416],[25.302714936411025,47.401284061540856],[25.30105221514516,47.398917216821424],[25.27191427650927,47.396484590747576],[25.264933470095578,47.39869488693624],[25.250372313018385,47.398795308345505],[25.25019514303551,47.402043656639464],[25.243907411925207,47.40548998254448],[25.231024568104488,47.42508393650483],[25.22697716472878,47.44389009963094],[25.241586341145847,47.440867440283945],[25.23908095391073,47.44438417863054],[25.26572716101739,47.44577451477271],[25.283109487064504,47.45165496719249],[25.292081813249904,47.4600825762611],[25.29792184825266,47.46229138052683],[25.30633679178476,47.45786877657344],[25.310741066311085,47.460748921343615],[25.3250086542961,47.461374113368585],[25.332447931751126,47.46724432736446],[25.339267220376215,47.469299079946715],[25.350155072659163,47.46193955008358],[25.35028513091626,47.4554739854248],[25.36248079753409,47.44165460779903],[25.361469600884966,47.439178310129556],[25.367269965912097,47.43334288047427],[25.368073077334813,47.42757231031143]]],[[[25.199360487140936,47.357498776692694],[25.203895391122476,47.34893622689815],[25.210874390616382,47.34969341964797],[25.207819906568854,47.34722200376645],[25.205643031130087,47.3360285813873],[25.209175408316536,47.33210182426828],[25.20845679213712,47.32722765516269],[25.19188398242321,47.32426934522137],[25.186892204169226,47.31223840663929],[25.184206157964535,47.31202577383628],[25.17830854653687,47.30513361374456],[25.170031383791823,47.30504350895828],[25.168098243935066,47.300435403301535],[25.15845846129134,47.29899859110995],[25.152164891164983,47.2955796864025],[25.156830667039166,47.28899830503566],[25.150878607366735,47.283290708699774],[25.165595123802625,47.278309865068046],[25.162545510359017,47.26915770588474],[25.15704051954893,47.26464118547714],[25.1570899291615,47.24636036538825],[25.14209910774666,47.233530974006655],[25.14732749613187,47.22287818876533],[25.14513820755386,47.22016348863433],[25.154259868491486,47.21499545889742],[25.17003773096448,47.19194690488161],[25.17403345986061,47.18950218130029],[25.172946607504834,47.182987309173235],[25.15902592763903,47.159178256868906],[25.160527016765503,47.151853809539155],[25.174455083671784,47.14117654855291],[25.173372058463357,47.130504244106554],[25.16439329345969,47.12970881631668],[25.144129617719397,47.11322767970208],[25.138273200492307,47.11670131473859],[25.12952814290955,47.116421753331785],[25.12489584339818,47.123229631876384],[25.109723656045936,47.119654295105995],[25.094818522971167,47.12035964668608],[25.083996562222147,47.12630173478525],[25.079003209721638,47.1262985899764],[25.07137310536655,47.134294903512135],[25.063395518125745,47.13655306186738],[25.06607636133837,47.14284610529244],[25.057613565157652,47.15059515227215],[25.065483247447265,47.16030485491544],[25.06424431800294,47.16302561023022],[25.06719266125541,47.16676277955808],[25.061279022502486,47.185325223493024],[25.056626731095697,47.18801591217596],[25.05829057483313,47.20140673914988],[25.04427405814458,47.21609136440855],[25.046682752853922,47.22161956969856],[25.059301871654277,47.23449846114637],[25.074866937211322,47.24618034849223],[25.079599444962227,47.25864056196802],[25.069525628148092,47.26097130312647],[25.051348427174815,47.27023511056899],[25.03839748440489,47.283011810393674],[25.035655983279817,47.28241678336686],[25.028074060545023,47.28679871056862],[25.047514206415826,47.303686709366055],[25.05856239448506,47.30443485325233],[25.058255600018068,47.30702064013442],[25.062211251294197,47.309724458057595],[25.07740085416631,47.3114940144548],[25.07871761369494,47.315200931341366],[25.074935070844198,47.31993451772087],[25.076422470041507,47.32693421339339],[25.07303232038337,47.32821941910271],[25.072872992139896,47.33503529039594],[25.076676843674214,47.338306769556624],[25.07775564107557,47.345905595577364],[25.09072574044329,47.350573094981335],[25.092160220103338,47.35452928618173],[25.101035977322567,47.351986889603964],[25.105174552297605,47.34693213426358],[25.11456508775284,47.35006053666214],[25.126489967918218,47.35053094993907],[25.135691613432204,47.35957670480963],[25.142354669132008,47.35685684374331],[25.1594817100649,47.361977518158554],[25.17759812762768,47.36348583805658],[25.18298921977794,47.362451555711246],[25.18620243275459,47.35912717558527],[25.19350778585417,47.36085840907962],[25.199360487140936,47.357498776692694]]],[[[25.114065665642947,47.46187618989257],[25.131173204059632,47.45817067359822],[25.14046402694181,47.46144875402086],[25.152598093162695,47.45828643876601],[25.157469990747288,47.465100534168506],[25.170977590741185,47.47139358625591],[25.183655482185998,47.46646649176574],[25.20041745615655,47.466707867512156],[25.20954691111432,47.462694968903165],[25.21788631906888,47.45193163028319],[25.218187035357143,47.44815214599608],[25.22745735436773,47.44318461355762],[25.231752234811037,47.424165649550545],[25.22936384041726,47.42299296104136],[25.226791701078117,47.42449457827067],[25.22455069894726,47.417628600340414],[25.214745176022173,47.413065297926096],[25.215384735688463,47.41128038388457],[25.211434436192004,47.4111742446925],[25.20450298161104,47.401722596971005],[25.190352679444807,47.39626616559884],[25.188756902921437,47.39097405200092],[25.184337410401014,47.38819382457674],[25.185668165801427,47.383166803558204],[25.18959706216123,47.383490691638],[25.192397527535825,47.386429851971556],[25.198624773451666,47.386284009725635],[25.197668909120132,47.383781751260486],[25.200506323623625,47.3839990883964],[25.204200882203292,47.38082414191892],[25.20819376825423,47.37545320336846],[25.205764079021716,47.37404069575918],[25.209160800344588,47.36742908883172],[25.2072759414658,47.363331073380714],[25.213232587077062,47.35921104063598],[25.199360487140936,47.357498776692694],[25.19282478224378,47.36092085172934],[25.186672803659047,47.35901767159405],[25.18298921977794,47.362451555711246],[25.17759812762768,47.36348583805658],[25.1594817100649,47.361977518158554],[25.142354669132008,47.35685684374331],[25.135691613432204,47.35957670480963],[25.126489967918218,47.35053094993907],[25.11456508775284,47.35006053666214],[25.105174552297605,47.34693213426358],[25.101035977322567,47.351986889603964],[25.092160220103338,47.35452928618173],[25.09072574044329,47.350573094981335],[25.07775564107557,47.345905595577364],[25.076445420380814,47.3412268804076],[25.069791744435296,47.34179284134534],[25.060324158886168,47.353271870823114],[25.064126698655237,47.36647302687552],[25.069429355135807,47.3699382186378],[25.062646490889843,47.379196912662444],[25.05280555488801,47.37726394794498],[25.03997352759075,47.380444510700336],[25.034721204763514,47.384976289540305],[25.033570964291997,47.38934684094423],[25.035770130625842,47.39151431208462],[25.03333728997022,47.39432315332096],[25.001348425967688,47.414261102725234],[24.995717096173557,47.41324925064226],[24.9906546463991,47.41839248313186],[24.985608135685325,47.418077397482946],[24.982845348313365,47.42403572818634],[24.986492911334157,47.42460788441733],[24.99463111824581,47.42007012781509],[24.99946942343845,47.42021632548201],[25.012118510068728,47.428387775521195],[25.014651629442046,47.433434236042125],[25.02670967592844,47.43581315112965],[25.050040063365447,47.41836068677978],[25.05828745580104,47.416548009516404],[25.05909202283076,47.420782787424216],[25.05518645160955,47.42116205623598],[25.05031515600482,47.425470478778195],[25.052381328546023,47.43102017665016],[25.061549951305597,47.43344809957395],[25.062312776839693,47.436951502525865],[25.077557622788273,47.43823649761993],[25.090902286091413,47.448940679261526],[25.0811568306133,47.45397763759021],[25.06620296072168,47.450213822499],[25.06793662293338,47.45301431368258],[25.063338204070387,47.45468210395916],[25.06024939644704,47.46252341705998],[25.055627486402518,47.46703472188141],[25.046993974934054,47.470234719864365],[25.045373902058106,47.48104622620459],[25.052107589769083,47.48079811610167],[25.05681822953184,47.483023976416646],[25.06147443308527,47.48127905639834],[25.061475264676776,47.483720409315744],[25.07236013029601,47.4890545431987],[25.07312571290273,47.49339664570275],[25.09379658802691,47.503977657609504],[25.0935534720209,47.51033141015951],[25.096635513074997,47.50956475242774],[25.098230209195954,47.499796890278205],[25.108653122569425,47.495956533809846],[25.10443941990784,47.481912194843275],[25.1109283694272,47.47834597555563],[25.114065665642947,47.46187618989257]]]]},"properties":{"alert_id":"f22e1e1995ba5b36","source":"nowcasting","alert_type":"nowcasting","feature_id":"d3f369b0df08a2b801","judet_cod":"SV","judet_nume":"Suceava","county_code":"SV","county_name":"Suceava","cod_judet":"SV","cod_culoare":1,"cod_culoare_nume":"Galben","culoare":"1","cod":"Galben","fenomen_principal":"Ceață ce determină vizibilitate redusă, local sub 200 m și izolat sub 50 m.","fenomen_group":"ceata","zona_text":"Județul Suceava: Vatra Dornei, Broșteni, Fundu Moldovei, Șaru Dornei, Dorna Candrenilor, Pojorâta, Dorna-Arini, Crucea, Iacobeni, Poiana Stampei, Coșna;<br>Județul Bistriţa-Năsăud: Tiha Bârgăului;<br>","zona_nume":"Suceava - localitati","zone_name":"Suceava - localitati","display_name":"Suceava - localitati","localities":["Vatra Dornei","Broșteni","Fundu Moldovei","Șaru Dornei","Dorna Candrenilor","Pojorâta","Dorna-Arini","Crucea","Iacobeni","Poiana Stampei","Coșna"],"geometry_source":"uat_match","match_confidence":"medium","interval_text":"","interval_start":"2026-09-15T03:15:00","valid_from":"2026-09-15T03:15:00","valid_to":"2026-09-15T09:00:00","interval_valabilitate_text":"","interval_end":"2026-09-15T09:00:00","data_expirare":"2026-09-15T09:00:00","mesaj_plain":"Ceață ce determină vizibilitate redusă, local sub 200 m și izolat sub 50 m.","source_url":"","source_label":"","notes":"","durata_ore":5.8,"zi":"2026-09-15"}}]}