{"type":"FeatureCollection","metadata":{"date":"2026-09-22","active_alerts":[{"alert_id":"6917242d1c573a30","source":"nowcasting","alert_type":"nowcasting","interval_text":"","interval_start":"2026-09-22T08:25:00","interval_end":"2026-09-22T10:00:00","durata_ore":1.6,"valid_from":"2026-09-22T08:25:00","valid_to":"2026-09-22T10:00:00","cod_culoare_max":1,"fenomene_pe_cod":{"1":"Ceață ce determină vizibilitate redusă, local sub 200 m și izolat sub 50 m."},"judete_afectate":["BC"],"judete_count":1,"judete_culori":{"BC":1},"color_counts":{"1":1},"text_alerta_html":"","message":"Ceață ce determină vizibilitate redusă, local sub 200 m și izolat sub 50 m.","feature_meta":{"BC":{"county_code":"BC","county_name":"Bacău","zone_name":"Bacău - localitati","display_name":"Bacău - localitati","localities":["Balcani","Helegiu","Pârjol","Berești-Tazlău","Livezi","Târgu Trotuș","Bârsănești","Pârgărești","Sănduleni","Scorțeni","Strugari","Ardeoani"],"geometry_source":"coordGis","match_confidence":"high"}},"source_url":"","source_label":"","notes":""}],"alert_count":1,"general_alert_count":0,"nowcasting_alert_count":1,"manual_nowcasting_alert_count":0,"feature_count":1,"general_feature_count":0,"nowcasting_feature_count":1,"max_color":1,"general_max_color":0,"nowcasting_count":1,"has_nowcasting":true,"has_manual_nowcasting":false,"calendar_badge":"NC","sources":["nowcasting"],"alerts_by_county":{"BC":[{"alert_id":"6917242d1c573a30","cod":"Galben","culoare":"1","fenomen_group":"ceata","source":"nowcasting"}]},"max_by_county":{"BC":{"max_color":1,"alert_count":1,"phenomena":["ceata"]}}},"features":[{"type":"Feature","geometry":{"type":"MultiPolygon","coordinates":[[[[26.507958,46.666036],[26.560383,46.670399],[26.682651,46.571427],[26.739418,46.569426],[26.816563,46.501338],[26.773866,46.431937],[26.794554,46.302127],[26.745864,46.275728],[26.736875,46.232219],[26.630505,46.245172],[26.644737,46.320755],[26.716126,46.365057],[26.7053,46.435181],[26.616801,46.526941],[26.586284,46.594087],[26.507958,46.666036]]]]},"properties":{"alert_id":"6917242d1c573a30","source":"nowcasting","alert_type":"nowcasting","feature_id":"2e402a8480fdb33e6b","judet_cod":"BC","judet_nume":"Bacău","county_code":"BC","county_name":"Bacău","cod_judet":"BC","cod_culoare":1,"cod_culoare_nume":"Galben","culoare":"1","cod":"Galben","fenomen_principal":"Ceață ce determină vizibilitate redusă, local sub 200 m și izolat sub 50 m.","fenomen_group":"ceata","zona_text":"Județul Bacău: Balcani, Helegiu, Pârjol, Berești-Tazlău, Livezi, Târgu Trotuș, Bârsănești, Pârgărești, Sănduleni, Scorțeni, Strugari, Ardeoani;<br>","zona_nume":"Bacău - localitati","zone_name":"Bacău - localitati","display_name":"Bacău - localitati","localities":["Balcani","Helegiu","Pârjol","Berești-Tazlău","Livezi","Târgu Trotuș","Bârsănești","Pârgărești","Sănduleni","Scorțeni","Strugari","Ardeoani"],"geometry_source":"coordGis","match_confidence":"high","interval_text":"","interval_start":"2026-09-22T08:25:00","valid_from":"2026-09-22T08:25:00","valid_to":"2026-09-22T10:00:00","interval_valabilitate_text":"","interval_end":"2026-09-22T10:00:00","data_expirare":"2026-09-22T10:00:00","mesaj_plain":"Ceață ce determină vizibilitate redusă, local sub 200 m și izolat sub 50 m.","source_url":"","source_label":"","notes":"","durata_ore":1.6,"zi":"2026-09-22"}}]}