{"type":"FeatureCollection","metadata":{"date":"2026-09-07","active_alerts":[{"alert_id":"a2d15089ec879ce1","source":"nowcasting","alert_type":"nowcasting","interval_text":"","interval_start":"2026-09-07T07:30:00","interval_end":"2026-09-07T09:00:00","durata_ore":1.5,"valid_from":"2026-09-07T07:30:00","valid_to":"2026-09-07T09:00:00","cod_culoare_max":1,"fenomene_pe_cod":{"1":"Ceață ce determină vizibilitate redusă, local sub 200 m și izolat sub 50 m."},"judete_afectate":["SV"],"judete_count":1,"judete_culori":{"SV":1},"color_counts":{"1":1},"text_alerta_html":"","message":"Ceață ce determină vizibilitate redusă, local sub 200 m și izolat sub 50 m.","feature_meta":{"SV":{"county_code":"SV","county_name":"Suceava","zone_name":"Suceava - localitati","display_name":"Suceava - localitati","localities":["Vatra Dornei","Dorna Candrenilor","Pojorâta","Iacobeni","Poiana Stampei","Coșna","Ciocănești"],"geometry_source":"coordGis","match_confidence":"high"}},"source_url":"","source_label":"","notes":""}],"alert_count":1,"general_alert_count":0,"nowcasting_alert_count":1,"manual_nowcasting_alert_count":0,"feature_count":1,"general_feature_count":0,"nowcasting_feature_count":1,"max_color":1,"general_max_color":0,"nowcasting_count":1,"has_nowcasting":true,"has_manual_nowcasting":false,"calendar_badge":"NC","sources":["nowcasting"],"alerts_by_county":{"SV":[{"alert_id":"a2d15089ec879ce1","cod":"Galben","culoare":"1","fenomen_group":"ceata","source":"nowcasting"}]},"max_by_county":{"SV":{"max_color":1,"alert_count":1,"phenomena":["ceata"]}}},"features":[{"type":"Feature","geometry":{"type":"MultiPolygon","coordinates":[[[[25.062446,47.264444],[25.062079,47.264638],[25.061784,47.264836],[25.061084,47.265181],[25.059768,47.265805],[25.059136,47.266159],[25.058509,47.266439],[25.057514,47.266918],[25.056872,47.267245],[25.055731,47.267779],[25.054957,47.268315],[25.05394,47.268898],[25.052253,47.269815],[25.051803,47.270059],[25.0513,47.270189],[25.050901,47.270586],[25.050391,47.271063],[25.049072,47.272389],[25.047884,47.273604],[25.04713,47.274342],[25.046375,47.27508],[25.044229,47.277226],[25.043445,47.278012],[25.042835,47.278627],[25.039236,47.28213],[25.038621,47.282716],[25.038349,47.282966],[25.037974,47.283166],[25.037543,47.28336],[25.03731,47.283505],[25.037036,47.283303],[25.03676,47.283144],[25.036558,47.283055],[25.036348,47.282947],[25.036334,47.282854],[25.036235,47.28274],[25.036215,47.282445],[25.036186,47.282288],[25.036123,47.282299],[25.036012,47.282344],[25.03585,47.282372],[25.035607,47.282371],[25.035437,47.282433],[25.035248,47.282553],[25.035118,47.282635],[25.034888,47.282692],[25.034682,47.282806],[25.034325,47.283032],[25.034066,47.283254],[25.033849,47.283282],[25.033421,47.283395],[25.032984,47.283446],[25.032795,47.283489],[25.032598,47.283607],[25.032271,47.283741],[25.032097,47.283837],[25.03196,47.283932],[25.031823,47.284026],[25.031503,47.284251],[25.031328,47.284388],[25.031194,47.284555],[25.031095,47.284786],[25.030979,47.285088],[25.030922,47.285227],[25.030805,47.285365],[25.030648,47.285521],[25.030473,47.285664],[25.030274,47.285744],[25.029824,47.285842],[25.029519,47.28592],[25.029238,47.28601],[25.028834,47.28617],[25.0285,47.286313],[25.028279,47.286462],[25.028025,47.286624],[25.028025,47.286688],[25.028025,47.286753],[25.028087,47.286826],[25.028163,47.286869],[25.028255,47.28692],[25.028301,47.286975],[25.028343,47.287096],[25.028412,47.287154],[25.02851,47.28721],[25.028644,47.287308],[25.0287,47.287415],[25.028735,47.287493],[25.028849,47.2876],[25.028867,47.287632],[25.02882,47.28772],[25.028812,47.287821],[25.028864,47.287882],[25.028989,47.287966],[25.029101,47.287989],[25.029189,47.288045],[25.029295,47.288098],[25.029301,47.288133],[25.029325,47.288202],[25.029434,47.28824],[25.029464,47.288285],[25.029476,47.288386],[25.02949,47.288483],[25.029582,47.288559],[25.029724,47.288702],[25.029906,47.288933],[25.030101,47.289131],[25.030247,47.289322],[25.030718,47.289743],[25.030904,47.289979],[25.031139,47.290286],[25.031289,47.290507],[25.031419,47.29065],[25.031654,47.290841],[25.03183,47.290947],[25.031989,47.291126],[25.032099,47.291313],[25.032168,47.291392],[25.032292,47.291468],[25.032349,47.291555],[25.03239,47.291654],[25.032449,47.291708],[25.032653,47.291845],[25.032794,47.29197],[25.03296,47.292179],[25.033038,47.292316],[25.033124,47.29245],[25.033177,47.292615],[25.033271,47.29275],[25.03339,47.292842],[25.033532,47.292931],[25.033644,47.292992],[25.033837,47.293044],[25.033975,47.293059],[25.034191,47.293078],[25.034298,47.293095],[25.034391,47.293131],[25.034519,47.293229],[25.034654,47.293375],[25.034729,47.293524],[25.034815,47.293543],[25.034982,47.293554],[25.035138,47.29357],[25.03534,47.293662],[25.03561,47.29374],[25.03586,47.293841],[25.03595,47.293939],[25.036,47.294067],[25.036033,47.29428],[25.036069,47.294417],[25.036342,47.294478],[25.036654,47.294555],[25.036888,47.294642],[25.037314,47.294851],[25.037767,47.295108],[25.037945,47.295243],[25.038007,47.295286],[25.038537,47.295554],[25.038828,47.295711],[25.0391,47.295874],[25.039347,47.296016],[25.039557,47.296093],[25.039679,47.296133],[25.03977,47.296172],[25.039903,47.296273],[25.039958,47.296338],[25.040005,47.296418],[25.040047,47.296577],[25.040101,47.296709],[25.040141,47.296755],[25.040207,47.296805],[25.040285,47.296824],[25.040414,47.296834],[25.040521,47.296859],[25.040597,47.296913],[25.040686,47.296992],[25.04077,47.297043],[25.040824,47.297074],[25.040873,47.297136],[25.04094,47.297276],[25.04101,47.297372],[25.041068,47.29748],[25.04118,47.297557],[25.041436,47.297733],[25.041606,47.297832],[25.04172,47.297937],[25.041819,47.298072],[25.04191,47.298271],[25.041992,47.298386],[25.042104,47.298497],[25.04229,47.298629],[25.042682,47.29889],[25.043066,47.299134],[25.043419,47.299345],[25.043635,47.299456],[25.043892,47.299561],[25.04418,47.299669],[25.044618,47.299852],[25.044853,47.299918],[25.044965,47.299928],[25.045111,47.299962],[25.045244,47.300015],[25.04544,47.300207],[25.045678,47.300408],[25.04573,47.300575],[25.045798,47.3007],[25.045908,47.300885],[25.045901,47.30102],[25.045936,47.301047],[25.046069,47.301051],[25.04617,47.301112],[25.046203,47.301264],[25.046271,47.301332],[25.046326,47.301444],[25.046305,47.301515],[25.046192,47.301681],[25.046193,47.301748],[25.046406,47.301843],[25.046186,47.302252],[25.046205,47.302457],[25.046166,47.302685],[25.04613,47.302787],[25.046133,47.302831],[25.046212,47.302875],[25.046304,47.302938],[25.046344,47.302979],[25.046447,47.303004],[25.046533,47.302995],[25.046636,47.302969],[25.04669,47.302972],[25.046774,47.303018],[25.046909,47.303103],[25.046989,47.30315],[25.047085,47.303294],[25.047185,47.303414],[25.047235,47.303492],[25.047376,47.303595],[25.047465,47.303641],[25.047595,47.303691],[25.047727,47.303725],[25.047816,47.303744],[25.047899,47.303742],[25.047975,47.303728],[25.048046,47.303698],[25.048171,47.303622],[25.048271,47.303587],[25.048445,47.303572],[25.048602,47.303576],[25.048673,47.303605],[25.048754,47.303643],[25.048839,47.303647],[25.04891,47.30362],[25.049032,47.30359],[25.049162,47.303586],[25.049346,47.303619],[25.049539,47.303675],[25.049748,47.303733],[25.04994,47.303747],[25.050123,47.303734],[25.050293,47.303728],[25.050402,47.303748],[25.05053,47.303773],[25.05061,47.303778],[25.050694,47.303755],[25.050843,47.303697],[25.050966,47.303675],[25.051098,47.303675],[25.05117,47.303654],[25.051183,47.303623],[25.051181,47.303529],[25.051204,47.303466],[25.051284,47.303385],[25.051391,47.303349],[25.051457,47.303319],[25.051546,47.303224],[25.051653,47.303131],[25.051846,47.303146],[25.051948,47.303161],[25.052231,47.303189],[25.052408,47.303213],[25.052528,47.303251],[25.052637,47.303325],[25.052717,47.303408],[25.052731,47.303431],[25.052785,47.303456],[25.052858,47.303467],[25.052925,47.303468],[25.052964,47.303461],[25.05299,47.303426],[25.05298,47.3034],[25.052956,47.303355],[25.052964,47.303313],[25.052991,47.303285],[25.053038,47.303265],[25.053147,47.303271],[25.053191,47.303273],[25.053222,47.303297],[25.053246,47.303352],[25.053257,47.303376],[25.053278,47.30339],[25.053322,47.303394],[25.053345,47.303372],[25.053369,47.303334],[25.053407,47.303335],[25.053464,47.303373],[25.053553,47.303386],[25.053581,47.303403],[25.053595,47.303451],[25.053611,47.303493],[25.053668,47.303522],[25.053749,47.303522],[25.053822,47.303502],[25.053916,47.303509],[25.054042,47.303511],[25.054178,47.30346],[25.05426,47.303427],[25.054352,47.303421],[25.054443,47.303443],[25.05453,47.303483],[25.054613,47.303488],[25.054679,47.303479],[25.054772,47.30346],[25.054822,47.303464],[25.054906,47.303496],[25.05495,47.30354],[25.054973,47.3036],[25.054965,47.303662],[25.054932,47.303717],[25.054911,47.303749],[25.05491,47.303778],[25.05498,47.303801],[25.055059,47.303815],[25.055143,47.303814],[25.05525,47.303811],[25.055351,47.303794],[25.055385,47.303795],[25.055446,47.303816],[25.055459,47.30384],[25.055449,47.30388],[25.055411,47.303933],[25.055387,47.303976],[25.055409,47.303997],[25.055482,47.303999],[25.055559,47.303983],[25.055603,47.303957],[25.055641,47.30395],[25.055685,47.303953],[25.055726,47.303961],[25.055754,47.303991],[25.055755,47.304019],[25.05575,47.304083],[25.055758,47.304102],[25.055784,47.304111],[25.055821,47.304122],[25.055846,47.304121],[25.055861,47.304111],[25.055925,47.304054],[25.055971,47.304036],[25.056019,47.304046],[25.05605,47.304071],[25.056085,47.304111],[25.056103,47.304144],[25.056144,47.304169],[25.056181,47.304162],[25.056289,47.304126],[25.056354,47.30411],[25.056415,47.304107],[25.056466,47.304136],[25.0565,47.304172],[25.056511,47.304215],[25.056517,47.304258],[25.056537,47.304276],[25.05657,47.304285],[25.056621,47.30429],[25.056661,47.304274],[25.056696,47.304242],[25.056702,47.304197],[25.05669,47.304072],[25.05671,47.304055],[25.056767,47.30405],[25.056822,47.304061],[25.056883,47.304115],[25.057073,47.304305],[25.057156,47.304363],[25.05726,47.3044],[25.057374,47.304412],[25.057494,47.304418],[25.057604,47.304405],[25.057777,47.304372],[25.057864,47.304352],[25.057935,47.304359],[25.058035,47.304381],[25.058084,47.304377],[25.058171,47.304347],[25.058277,47.304346],[25.058367,47.304372],[25.058513,47.304389],[25.058599,47.30443],[25.058589,47.304458],[25.058562,47.304531],[25.058542,47.304628],[25.058573,47.304675],[25.058775,47.304774],[25.058887,47.304826],[25.058909,47.304945],[25.058909,47.305128],[25.058968,47.305196],[25.05906,47.30531],[25.059088,47.305498],[25.059117,47.305565],[25.059219,47.305707],[25.059233,47.305932],[25.059231,47.306154],[25.059225,47.306213],[25.05912,47.306276],[25.058908,47.306306],[25.058711,47.306347],[25.058615,47.306395],[25.058572,47.306503],[25.058509,47.306646],[25.05846,47.306703],[25.058316,47.30676],[25.05822,47.306803],[25.058207,47.306975],[25.058479,47.307153],[25.058722,47.307372],[25.059021,47.307678],[25.059242,47.307849],[25.05949,47.308002],[25.059702,47.308101],[25.060131,47.308339],[25.060507,47.308554],[25.060942,47.308846],[25.06115,47.308987],[25.061339,47.309094],[25.06163,47.309334],[25.061878,47.309532],[25.062018,47.309619],[25.062162,47.309678],[25.062399,47.309685],[25.062843,47.309666],[25.063134,47.309632],[25.063836,47.309605],[25.06405,47.309595],[25.06436,47.30955],[25.064619,47.309545],[25.064716,47.309522],[25.06487,47.309448],[25.065034,47.309295],[25.065146,47.309258],[25.065223,47.309269],[25.065325,47.309309],[25.065454,47.309388],[25.065558,47.309395],[25.065652,47.30936],[25.065784,47.309331],[25.065857,47.309361],[25.065961,47.30939],[25.066047,47.309384],[25.066235,47.309377],[25.066447,47.309393],[25.066626,47.309433],[25.066827,47.309487],[25.0672,47.309594],[25.067594,47.309695],[25.067977,47.30979],[25.068139,47.309817],[25.068323,47.30984],[25.068432,47.309883],[25.068596,47.309975],[25.068992,47.310074],[25.069402,47.310129],[25.069847,47.310152],[25.070313,47.310227],[25.071091,47.310358],[25.071298,47.310362],[25.071636,47.310362],[25.072376,47.310418],[25.073029,47.310463],[25.073331,47.310468],[25.073818,47.310453],[25.074107,47.310461],[25.074429,47.31051],[25.074657,47.310614],[25.074835,47.310661],[25.074982,47.310662],[25.075222,47.310653],[25.075451,47.310665],[25.075607,47.310691],[25.075946,47.310777],[25.076194,47.310817],[25.076328,47.310852],[25.076707,47.31106],[25.077166,47.311291],[25.077352,47.311448],[25.077495,47.311619],[25.077499,47.311788],[25.077469,47.312101],[25.077384,47.312239],[25.077371,47.312342],[25.077412,47.312445],[25.077381,47.312585],[25.077302,47.312947],[25.077217,47.313224],[25.077124,47.313451],[25.077044,47.313634],[25.077058,47.31374],[25.077119,47.313831],[25.07726,47.313902],[25.077498,47.314002],[25.077601,47.314054],[25.077735,47.31414],[25.077827,47.314269],[25.077897,47.314379],[25.077991,47.314455],[25.078259,47.314639],[25.078474,47.314814],[25.078625,47.31492],[25.078664,47.314988],[25.078669,47.315155],[25.078545,47.315403],[25.078301,47.315702],[25.078135,47.315853],[25.077721,47.316085],[25.077323,47.31631],[25.077119,47.316473],[25.076921,47.316711],[25.076837,47.316887],[25.076788,47.317119],[25.076721,47.317233],[25.076573,47.317393],[25.076329,47.317608],[25.076107,47.317847],[25.075865,47.318242],[25.075616,47.318651],[25.075448,47.319024],[25.075362,47.319221],[25.075261,47.319379],[25.074938,47.319783],[25.074886,47.319888],[25.074859,47.320026],[25.07486,47.320348],[25.074857,47.320489],[25.074793,47.320741],[25.074675,47.321082],[25.074636,47.321347],[25.074659,47.321473],[25.0748,47.321677],[25.074847,47.321759],[25.074872,47.321857],[25.074798,47.322001],[25.074701,47.32209],[25.074781,47.322258],[25.074727,47.322408],[25.074696,47.322525],[25.074778,47.322588],[25.07481,47.322667],[25.074752,47.32272],[25.074659,47.32276],[25.074586,47.322813],[25.07459,47.322858],[25.074732,47.322932],[25.075002,47.323024],[25.075208,47.323119],[25.075289,47.323231],[25.075307,47.32334],[25.075253,47.323407],[25.074969,47.323622],[25.074734,47.323773],[25.074667,47.323829],[25.074665,47.323864],[25.074774,47.323959],[25.074921,47.32402],[25.075163,47.324095],[25.07523,47.324137],[25.075431,47.324444],[25.075627,47.324753],[25.075774,47.324845],[25.075861,47.324939],[25.075924,47.325101],[25.075971,47.325411],[25.076005,47.325626],[25.075987,47.325859],[25.075879,47.326078],[25.075744,47.326239],[25.075723,47.326297],[25.075735,47.326349],[25.075784,47.326402],[25.076047,47.32654],[25.076101,47.326589],[25.076104,47.326687],[25.076169,47.326723],[25.07627,47.326779],[25.076355,47.326842],[25.076373,47.326888],[25.076272,47.32696],[25.076088,47.327015],[25.075803,47.327027],[25.075482,47.32704],[25.075182,47.327078],[25.074989,47.327136],[25.074904,47.327231],[25.074902,47.327312],[25.074936,47.327424],[25.074925,47.327519],[25.074813,47.327603],[25.074572,47.327649],[25.074097,47.327721],[25.073654,47.327796],[25.073418,47.327849],[25.073302,47.327915],[25.073095,47.328076],[25.072983,47.328173],[25.073006,47.328353],[25.073067,47.328615],[25.073031,47.328871],[25.072814,47.329202],[25.072641,47.32944],[25.072666,47.329572],[25.072752,47.329684],[25.072988,47.329994],[25.073138,47.330249],[25.073173,47.33048],[25.073162,47.330673],[25.073202,47.330736],[25.073198,47.330874],[25.073073,47.331092],[25.073075,47.331338],[25.073212,47.331546],[25.073343,47.331784],[25.073337,47.331935],[25.073213,47.332073],[25.073222,47.332199],[25.073265,47.332273],[25.073315,47.332466],[25.0733,47.332714],[25.073275,47.33275],[25.073167,47.332991],[25.073178,47.333092],[25.073191,47.333251],[25.073295,47.333389],[25.07359,47.333685],[25.073702,47.333871],[25.073731,47.33408],[25.073698,47.334305],[25.073607,47.334512],[25.073491,47.334614],[25.073284,47.334741],[25.072932,47.334879],[25.072828,47.334944],[25.072824,47.334989],[25.072928,47.335055],[25.073127,47.33517],[25.073393,47.335269],[25.073522,47.335308],[25.073713,47.335492],[25.073891,47.335604],[25.074107,47.335734],[25.074327,47.335827],[25.074576,47.335959],[25.075042,47.336303],[25.075337,47.33647],[25.075532,47.336642],[25.075404,47.336859],[25.075342,47.337065],[25.075544,47.337118],[25.07564,47.337185],[25.075724,47.337266],[25.075736,47.337368],[25.075709,47.337482],[25.075739,47.337578],[25.075782,47.337686],[25.075815,47.337895],[25.075932,47.338025],[25.076214,47.338147],[25.076559,47.338191],[25.076628,47.338261],[25.076634,47.338322],[25.076439,47.338454],[25.076224,47.338528],[25.076209,47.338603],[25.076359,47.338707],[25.076347,47.33876],[25.076242,47.338885],[25.076179,47.33895],[25.076149,47.339003],[25.076197,47.339131],[25.076285,47.339351],[25.076366,47.339602],[25.076363,47.339781],[25.076217,47.339918],[25.076214,47.339973],[25.076391,47.340065],[25.076534,47.340076],[25.07666,47.340126],[25.076768,47.340167],[25.076762,47.340228],[25.076675,47.340283],[25.076604,47.340413],[25.076598,47.340491],[25.076769,47.340584],[25.076987,47.340631],[25.077053,47.340727],[25.076937,47.34088],[25.076805,47.341024],[25.076661,47.341026],[25.076407,47.340915],[25.076317,47.340906],[25.076317,47.34098],[25.076368,47.341108],[25.076396,47.341181],[25.07548,47.341257],[25.074899,47.341408],[25.074163,47.341508],[25.073181,47.341472],[25.072802,47.341911],[25.072641,47.342121],[25.072201,47.342013],[25.071096,47.341808],[25.071065,47.341867],[25.069743,47.341747],[25.069912,47.34253],[25.070053,47.342525],[25.07033,47.342909],[25.070036,47.343409],[25.069225,47.343783],[25.068045,47.344495],[25.06776,47.344669],[25.185195,47.393646],[25.278948,47.384162],[25.257396,47.446144],[25.222912,47.487668],[25.274638,47.516788],[25.323131,47.475287],[25.360847,47.508782],[25.396409,47.476744],[25.355459,47.443229],[25.34145,47.403129],[25.374856,47.379784],[25.410418,47.357158],[25.363003,47.333062],[25.29188,47.338175],[25.263861,47.322837],[25.219679,47.272409],[25.243387,47.21681],[25.201359,47.184595],[25.165798,47.204366],[25.155022,47.265828],[25.185195,47.330141],[25.108684,47.283376],[25.062446,47.264444]]]]},"properties":{"alert_id":"a2d15089ec879ce1","source":"nowcasting","alert_type":"nowcasting","feature_id":"c3e3db563a284ee38a","judet_cod":"SV","judet_nume":"Suceava","county_code":"SV","county_name":"Suceava","cod_judet":"SV","cod_culoare":1,"cod_culoare_nume":"Galben","culoare":"1","cod":"Galben","fenomen_principal":"Ceață ce determină vizibilitate redusă, local sub 200 m și izolat sub 50 m.","fenomen_group":"ceata","zona_text":"Județul Suceava: Vatra Dornei, Dorna Candrenilor, Pojorâta, Iacobeni, Poiana Stampei, Coșna, Ciocănești;<br>","zona_nume":"Suceava - localitati","zone_name":"Suceava - localitati","display_name":"Suceava - localitati","localities":["Vatra Dornei","Dorna Candrenilor","Pojorâta","Iacobeni","Poiana Stampei","Coșna","Ciocănești"],"geometry_source":"coordGis","match_confidence":"high","interval_text":"","interval_start":"2026-09-07T07:30:00","valid_from":"2026-09-07T07:30:00","valid_to":"2026-09-07T09:00:00","interval_valabilitate_text":"","interval_end":"2026-09-07T09:00:00","data_expirare":"2026-09-07T09:00:00","mesaj_plain":"Ceață ce determină vizibilitate redusă, local sub 200 m și izolat sub 50 m.","source_url":"","source_label":"","notes":"","durata_ore":1.5,"zi":"2026-09-07"}}]}