{"type":"FeatureCollection","metadata":{"date":"2026-07-11","active_alerts":[{"alert_id":"24ff90550d2b4eb5","source":"nowcasting","alert_type":"nowcasting","interval_text":"","interval_start":"2026-07-11T06:30:00","interval_end":"2026-07-11T09:00:00","durata_ore":2.5,"valid_from":"2026-07-11T06:30:00","valid_to":"2026-07-11T09:00:00","cod_culoare_max":1,"fenomene_pe_cod":{"1":"Local ceață ce determină vizibilitate redusă sub 200 m."},"judete_afectate":["NT","SV","VS"],"judete_count":3,"judete_culori":{"SV":1,"NT":1,"VS":1},"color_counts":{"1":3},"text_alerta_html":"","message":"Local ceață ce determină vizibilitate redusă sub 200 m.","feature_meta":{"SV":{"county_code":"SV","county_name":"Suceava","zone_name":"Suceava - localitati","display_name":"Suceava - localitati","localities":["Vatra Dornei","Șaru Dornei","Dorna Candrenilor","Dorna-Arini","Iacobeni","Panaci","Poiana Stampei","Coșna"],"geometry_source":"coordGis","match_confidence":"high"},"NT":{"county_code":"NT","county_name":"Neamț","zone_name":"Neamț - localitati","display_name":"Neamț - localitati","localities":["Roman","Săbăoani","Tămășeni","Cordun","Horia","Doljești","Trifești","Ion Creangă","Sagna","Secuieni","Oniceni","Valea Ursului","Bozieni","Stănița","Gâdinți","Pâncești","Bira","Poienari"],"geometry_source":"uat_match","match_confidence":"high"},"VS":{"county_code":"VS","county_name":"Vaslui","zone_name":"Vaslui - localitati","display_name":"Vaslui - localitati","localities":["Duda-Epureni","Codăești","Drânceni","Văleni","Zăpodeni","Solești","Băcești","Dumești","Rebricea","Todirești","Tăcuta","Ștefan cel Mare","Bunești-Averești","Oșești","Miclești","Negrești","Tătărăni","Dănești","Boțești","Vulturești","Ferești","Arsura","Rafaila"],"geometry_source":"uat_match","match_confidence":"medium"}},"source_url":"","source_label":"","notes":""}],"alert_count":1,"general_alert_count":0,"nowcasting_alert_count":1,"manual_nowcasting_alert_count":0,"feature_count":3,"general_feature_count":0,"nowcasting_feature_count":3,"max_color":1,"general_max_color":0,"nowcasting_count":1,"has_nowcasting":true,"has_manual_nowcasting":false,"calendar_badge":"NC","sources":["nowcasting"],"alerts_by_county":{"NT":[{"alert_id":"24ff90550d2b4eb5","cod":"Galben","culoare":"1","fenomen_group":"ceata","source":"nowcasting"}],"SV":[{"alert_id":"24ff90550d2b4eb5","cod":"Galben","culoare":"1","fenomen_group":"ceata","source":"nowcasting"}],"VS":[{"alert_id":"24ff90550d2b4eb5","cod":"Galben","culoare":"1","fenomen_group":"ceata","source":"nowcasting"}]},"max_by_county":{"NT":{"max_color":1,"alert_count":1,"phenomena":["ceata"]},"SV":{"max_color":1,"alert_count":1,"phenomena":["ceata"]},"VS":{"max_color":1,"alert_count":1,"phenomena":["ceata"]}}},"features":[{"type":"Feature","geometry":{"type":"MultiPolygon","coordinates":[[[[26.99034924479141,46.95169510563924],[26.99059880416966,46.94504917285346],[26.981069706584368,46.943161560738815],[26.977056540476,46.936562558980185],[26.981950041638388,46.928110002015316],[26.99174856101406,46.91924864806825],[26.969362899002775,46.90913181134561],[26.9613363941757,46.915081638257554],[26.953337260354054,46.914335547635204],[26.946225637197294,46.91707433385853],[26.93432614558443,46.911398536214136],[26.924601573103384,46.91260505765768],[26.91645319549341,46.91967853523947],[26.89792844300535,46.92739951967997],[26.889470227269737,46.93508799303039],[26.890731581831133,46.941578258667384],[26.895380706422753,46.93880470062154],[26.904480637964724,46.93991261312894],[26.90152619099373,46.941871209184285],[26.90509038785485,46.9431918045056],[26.902632276209822,46.945848065185736],[26.913141144372997,46.95026752234893],[26.91140134617948,46.952267144220826],[26.914587096818373,46.953211460078684],[26.913672436504243,46.95777069038979],[26.926095521243894,46.959348727203185],[26.927265896421602,46.95550876562648],[26.9234198754652,46.952262191829064],[26.951397231525902,46.95212402185883],[26.95350920490442,46.95707520509241],[26.992982029207642,46.96277992985807],[26.99174384755214,46.95571955639388],[26.982380417174692,46.95867032605773],[26.97825757015924,46.956536480142645],[26.99034924479141,46.95169510563924]]],[[[26.872292039565988,47.0462523671679],[26.87637327176452,47.04130563518503],[26.888642429109204,47.04574445258739],[26.92147099400793,47.00222330759768],[26.928511454827767,46.988578142404],[26.927613286867064,46.982608661385825],[26.930656888866853,46.976838777536614],[26.927689162635584,46.974856093450505],[26.909519522183306,46.971971813417575],[26.909977703059855,46.970300489206906],[26.892739597388122,46.965335809743465],[26.890599199803187,46.96752485264941],[26.898012660656224,46.971007920218305],[26.89451570734538,46.97897309375871],[26.880199982417025,46.99047203421309],[26.87331558811088,46.98872714439002],[26.870171244183698,46.99300675825009],[26.862863556870156,46.99073828523271],[26.86303199388828,46.995518762112845],[26.855929846729328,46.99275632552357],[26.84976536489773,47.012660739526474],[26.841401259098642,47.022454805940846],[26.845869529678136,47.02241192777029],[26.842252482553764,47.02919256038],[26.85094112225491,47.03303830929747],[26.856462811128456,47.032184668034844],[26.849672078757134,47.04387263201737],[26.866367344589378,47.04939228782029],[26.871306489561615,47.04517294419993],[26.872292039565988,47.0462523671679]]],[[[26.931061720485346,47.03582921185252],[26.946242180615116,47.03147567798529],[26.946394484543077,47.02123824235752],[26.956528521833672,47.01776424961231],[26.959706078567525,47.01435519615368],[26.96935727046579,47.012183540406006],[26.968996467656083,47.009832733656694],[26.96093640132192,47.006162146266206],[26.961610640091386,47.003001468958146],[26.968261411644214,46.99840208416323],[26.962716964689083,46.99480258998317],[26.961703283770944,46.98880854193877],[26.967132427090263,46.98687413070841],[26.977375976885295,46.98917490501572],[26.985572490141085,46.983795331618225],[26.981817913871804,46.979670762007004],[26.982323790889843,46.97531450646815],[26.974912892897457,46.97323393349343],[26.973635411273438,46.97439075083798],[26.96841551473415,46.967664578224834],[26.95122033173523,46.96503772565303],[26.949507296186265,46.967663723788164],[26.944938401274737,46.968339970637295],[26.93984113692849,46.979091604145665],[26.934603063856496,46.97949643388792],[26.93041865912452,46.97694214512226],[26.927613286867064,46.982608661385825],[26.928511454827767,46.988578142404],[26.92186651239375,47.001642340210346],[26.902552493282325,47.027978486940654],[26.905090945808844,47.03021958699784],[26.909966872812472,47.02905545541618],[26.931061720485346,47.03582921185252]]],[[[26.927556024302863,46.97477413852572],[26.934603063856496,46.97949643388792],[26.93984113692849,46.979091604145665],[26.944938401274737,46.968339970637295],[26.949507296186265,46.967663723788164],[26.94992441895443,46.96017471085814],[26.95342598861385,46.960204612496845],[26.951397231525902,46.95212402185883],[26.9234198754652,46.952262191829064],[26.927265896421602,46.95550876562648],[26.926095521243894,46.959348727203185],[26.913672436504243,46.95777069038979],[26.914587096818373,46.953211460078684],[26.91140134617948,46.952267144220826],[26.913141144372997,46.95026752234893],[26.902632276209822,46.945848065185736],[26.90509038785485,46.9431918045056],[26.90152619099373,46.941871209184285],[26.904480637964724,46.93991261312894],[26.895380706422753,46.93880470062154],[26.884968697589194,46.94576608559976],[26.876808418127982,46.946473516008915],[26.86624824465192,46.95139837740933],[26.860936961457337,46.96180330250294],[26.846714324720757,46.95704060920238],[26.84266409232947,46.96467137517302],[26.83543511555665,46.96478658745948],[26.83427162944804,46.967162032719486],[26.82895406366437,46.96819713765534],[26.827012989534175,46.97668512885675],[26.82268617697946,46.98138818143346],[26.812243711713034,46.984127416248576],[26.802593698894565,46.99314508314622],[26.800468301150644,46.99627206287624],[26.802065421509297,47.000327166399046],[26.79676395027522,47.00805488113147],[26.800427485883954,47.010685313613166],[26.804260944025422,47.00744478412403],[26.811835220419233,47.0106565255102],[26.813214880218837,47.00905782085207],[26.827501823756773,47.016900980190655],[26.842263694074163,47.02099273759039],[26.84976536489773,47.012660739526474],[26.855929846729328,46.99275632552357],[26.86303199388828,46.995518762112845],[26.862863556870156,46.99073828523271],[26.870171244183698,46.99300675825009],[26.87331558811088,46.98872714439002],[26.880199982417025,46.99047203421309],[26.89451570734538,46.97897309375871],[26.898012660656224,46.971007920218305],[26.890599199803187,46.96752485264941],[26.89255621739937,46.96536605527091],[26.909977703059855,46.970300489206906],[26.909519522183306,46.971971813417575],[26.927556024302863,46.97477413852572]]],[[[26.871331205369035,46.949972861002315],[26.876808418127982,46.946473516008915],[26.883597094658796,46.94624403801352],[26.88943043424116,46.94334766866925],[26.889470227269737,46.93508799303039],[26.892884783349448,46.930874779488065],[26.904081829995498,46.923599772002106],[26.91645319549341,46.91967853523947],[26.924601573103384,46.91260505765768],[26.93432614558443,46.911398536214136],[26.946225637197294,46.91707433385853],[26.953337260354054,46.914335547635204],[26.9613363941757,46.915081638257554],[26.969362899002775,46.90913181134561],[26.97447575529301,46.91062903579589],[26.976037480218842,46.90520258860969],[26.963945912564814,46.901705227450776],[26.961516260926206,46.899250893163966],[26.97768605867537,46.886238674439646],[26.973400397190954,46.882706577243624],[26.950448587235734,46.88230487526202],[26.950068059736086,46.8781518098562],[26.96218245674428,46.87287559959675],[26.956068463541868,46.86992919282593],[26.95258265302481,46.864561106481595],[26.95496462041698,46.85853893018116],[26.943562874564297,46.86106901420985],[26.93197736344263,46.847121404880816],[26.9264463267641,46.84420328783028],[26.930610424598722,46.83791410113783],[26.93730294596068,46.83780178296024],[26.93468236503598,46.83392395272495],[26.923231475131075,46.83494754586318],[26.918365548737043,46.841496357308785],[26.919698108290742,46.844423582923824],[26.92308343731709,46.84392752067909],[26.922526820178263,46.84650232567143],[26.926056113039202,46.84459289167358],[26.920754254512563,46.854747238288525],[26.921706939408214,46.85808916218374],[26.91827364209359,46.86012411248594],[26.918729060565333,46.86207991665778],[26.92454085701925,46.86248128848766],[26.930845813258276,46.85997741280824],[26.936610395736725,46.86205569851266],[26.936963201771473,46.86465689288259],[26.92847505175444,46.86522506967762],[26.927968970877945,46.87303840493544],[26.910122750527808,46.87692838203085],[26.90831187890306,46.872932639060004],[26.912639526006394,46.87036612519104],[26.909232631865944,46.86966236957198],[26.9032029915111,46.87838133275107],[26.89967385968911,46.87923771568945],[26.90306674081257,46.88547543005733],[26.90101571523147,46.88887645153032],[26.882901113020257,46.89262505040647],[26.889764502354158,46.90073755999205],[26.895459020721148,46.901198687432974],[26.895452604097052,46.90029263289129],[26.89707551351246,46.89846599618763],[26.896197454652956,46.90310038676067],[26.888369444004802,46.90651924521274],[26.892685140966435,46.90772108530048],[26.878431230877,46.924955722428784],[26.847571265685307,46.937585653406224],[26.853264574063505,46.94244842882955],[26.85928017424744,46.94403518132225],[26.856628109782793,46.94690990275176],[26.853318934633197,46.9449201935615],[26.85300320218756,46.94886191434617],[26.86306750419199,46.95108932346426],[26.871331205369035,46.949972861002315]]],[[[26.989429205012183,47.069462309320514],[26.997268153983896,47.05189196701387],[26.99489491867406,47.051048199546656],[27.002663377289586,47.03958585832148],[27.008124531671836,47.0396896581095],[27.00885512154668,47.036502471697204],[27.02246332687508,47.03345416219006],[27.016839273474154,47.03084707089361],[27.019052659967915,47.02913032126989],[27.00678665149548,47.02807684759194],[27.00463855811348,47.01949791341673],[27.00132476828646,47.01667803000893],[26.99148561524936,47.01596443799345],[26.994497976328304,47.00152172073408],[27.01344163005972,47.007130006245475],[27.02055008034847,47.005018331730405],[27.029568526012305,47.00723412608494],[27.033607348582915,46.99968571869056],[27.003631784191597,46.99528799086462],[27.00598059723416,46.98233323249053],[26.982897918568934,46.97933035021052],[26.985572490141085,46.983795331618225],[26.97840432194196,46.98880076011782],[26.967132427090263,46.98687413070841],[26.961703283770944,46.98880854193877],[26.962716964689083,46.99480258998317],[26.968261411644214,46.99840208416323],[26.961610640091386,47.003001468958146],[26.96093640132192,47.006162146266206],[26.968996467656083,47.009832733656694],[26.96935727046579,47.012183540406006],[26.94809055757906,47.01988261335271],[26.94527827053475,47.02301485479153],[26.946467356835075,47.03129362924095],[26.932298105561085,47.034317672638856],[26.931565942021646,47.03694555843298],[26.942839495987034,47.042954796011564],[26.947502475931888,47.04072465841055],[26.959831615503013,47.044931347283736],[26.959366299114883,47.06022307680549],[26.962001626902342,47.059101010377645],[26.962182360657312,47.06173353110124],[26.97177309013819,47.061895909537064],[26.970932601849086,47.077261257977206],[26.983380548908087,47.07931536351407],[26.986994080366102,47.06797527596078],[26.989429205012183,47.069462309320514]]],[[[26.85145698374809,46.95040615227527],[26.853318934633197,46.9449201935615],[26.856628109782793,46.94690990275176],[26.85928017424744,46.94403518132225],[26.853264574063505,46.94244842882955],[26.847571265685307,46.937585653406224],[26.878431230877,46.924955722428784],[26.892685140966435,46.90772108530048],[26.888448699520936,46.90640901267391],[26.896285868567976,46.90294295416029],[26.89707551351246,46.89846599618763],[26.895459020721148,46.901198687432974],[26.889764502354158,46.90073755999205],[26.882901113020257,46.89262505040647],[26.90101571523147,46.88887645153032],[26.90306674081257,46.88547543005733],[26.887894564425263,46.85713456640001],[26.8708879402956,46.858483951228855],[26.870816929005187,46.85987788563517],[26.867527790481507,46.85869823998282],[26.867791755308502,46.860179487796195],[26.858705796670073,46.85952170377628],[26.85419234599139,46.86506854241329],[26.84695930065792,46.86340204024839],[26.82713048930389,46.88941681625852],[26.810714397061037,46.88572572126073],[26.777617883336386,46.91223964401075],[26.769461622482208,46.91118026638819],[26.768472026737815,46.9123163082395],[26.77399635761876,46.9138917004922],[26.7721004763851,46.918020740210565],[26.781877832039015,46.922626107561754],[26.76702053781741,46.93497116224811],[26.74847493293716,46.9407051493128],[26.763866355190213,46.94796135180837],[26.79545173099724,46.935276014847084],[26.808795977793533,46.942092100519744],[26.812458305781877,46.93793477058409],[26.821453789168686,46.94153975555816],[26.825162030587713,46.93784878167098],[26.84231799343795,46.942009757286954],[26.833799670369313,46.951356056980956],[26.839911914471656,46.954109088644906],[26.845114904748975,46.95365703756388],[26.848878559041907,46.9494948856901],[26.85145698374809,46.95040615227527]]],[[[27.06742572383579,46.89965893381515],[27.073962806424966,46.88978541333339],[27.07294621500418,46.886624585816286],[27.06689529405656,46.88665396664369],[27.06845113372025,46.87454867851733],[27.073729497531968,46.87819534949154],[27.082835052371635,46.87563576158547],[27.08616375348808,46.861149351651555],[27.089961260997317,46.85914644770408],[27.09154828046247,46.85415981163972],[27.08345556540771,46.85039847265257],[27.087578200555612,46.83708135437359],[27.070442244088223,46.83324412075972],[27.061931747204696,46.82625018812369],[27.060603060293808,46.82878459992024],[27.056131759194677,46.82940919764227],[27.051548487661456,46.827005145723916],[27.041298041411057,46.82654579687344],[27.038768431963472,46.82959641334468],[27.039373656042986,46.83610245443762],[27.034229756308235,46.83690150203312],[27.032600450558608,46.83908557969483],[27.025385781515897,46.836859213904106],[27.01850020543878,46.83934209534201],[27.015256874718965,46.84314249799464],[27.013080912034265,46.839347759903305],[27.006936821809923,46.83868243199068],[26.999087933108235,46.84570227345497],[26.995074464197824,46.84322440173727],[26.996344833593238,46.83971825821827],[26.99017327759108,46.844356262293665],[26.97984682740726,46.844018739652306],[26.973520577102043,46.82736020020898],[26.947532456437784,46.83113885331251],[26.94394937511546,46.82775556103649],[26.94361287935186,46.822917345275386],[26.94065006931967,46.82250414959247],[26.94163365631184,46.81948307472184],[26.93543507692305,46.8170675660138],[26.926119489287093,46.81616398081463],[26.917899895654102,46.819395662270274],[26.920324691404236,46.821387573329915],[26.917473499923748,46.82007234506902],[26.90633374316572,46.821664734289946],[26.914969124731506,46.84136467790756],[26.918365548737043,46.841496357308785],[26.923231475131075,46.83494754586318],[26.93598119841004,46.834734046758264],[26.93680206871467,46.83832519414461],[26.930610424598722,46.83791410113783],[26.9264463267641,46.84420328783028],[26.93197736344263,46.847121404880816],[26.943562874564297,46.86106901420985],[26.95496462041698,46.85853893018116],[26.95258265302481,46.864561106481595],[26.956068463541868,46.86992919282593],[26.96218245674428,46.87287559959675],[26.950068059736086,46.8781518098562],[26.949539748339326,46.881131818651845],[26.953547383351683,46.88332199678702],[26.975636868184402,46.88391674843957],[26.977934400080343,46.88750207686606],[26.97415980601775,46.89224566551545],[26.983365281132027,46.894942644332076],[26.98293563994911,46.89769296223212],[26.980733751453876,46.89510236928649],[26.97599702212341,46.8952078123502],[26.979369127011307,46.903674303417134],[26.991937530099054,46.90315937795337],[27.004626910759608,46.89854226959261],[27.016717526451526,46.9021542458664],[27.023488926033433,46.906650704737935],[27.033706059498204,46.89665644258808],[27.04102920574204,46.89465152409721],[27.05441803850621,46.89728378002854],[27.058067229975958,46.895557759838866],[27.06742572383579,46.89965893381515]]],[[[27.065181253938864,46.99833037206803],[27.09435842772437,47.00306484092609],[27.105664679208548,46.99088559401972],[27.100523583834175,46.957395286553044],[27.10175566150557,46.95166795619242],[27.097321421806008,46.93733306902565],[27.101924548171567,46.92644148884424],[27.09938751900025,46.92530635938446],[27.09670930106114,46.925497942613134],[27.097375577819413,46.92851635675155],[27.093045804657585,46.92720849548039],[27.088468819069178,46.92847989982331],[27.089227820836403,46.93765675873149],[27.071560440245594,46.93694541788074],[27.06657968157206,46.94489453876626],[27.06069650043268,46.945253783973364],[27.059139450110816,46.9482410973216],[27.053811191508284,46.94759716308879],[27.0522201142403,46.9505666234177],[27.04687551988332,46.949689876313016],[27.046792088685137,46.95375341592201],[27.04013163594028,46.9513917655325],[27.03608092135871,46.955043228397734],[27.022941317959784,46.9569642967309],[26.99943910395376,46.956006287608425],[26.995451320920594,46.9525419196489],[26.99034924479141,46.95169510563924],[26.97825757015924,46.956536480142645],[26.982380417174692,46.95867032605773],[26.99174384755214,46.95571955639388],[26.992982029207642,46.96277992985807],[26.95350920490442,46.95707520509241],[26.95342598861385,46.960204612496845],[26.94992441895443,46.96017471085814],[26.951500142150643,46.96556024130426],[26.968555206311343,46.96772656671314],[26.973635411273438,46.97439075083798],[26.974912892897457,46.97323393349343],[26.982323790889843,46.97531450646815],[26.98174149326181,46.97937513711701],[27.00598059723416,46.98233323249053],[27.003631784191597,46.99528799086462],[27.033607348582915,46.99968571869056],[27.03909063048929,47.00124096574672],[27.038041449811026,47.00373968807171],[27.043356329489527,47.00283365153974],[27.048111868167755,47.01610156669232],[27.05568715554284,47.0138773195665],[27.057550036087914,47.007760988994086],[27.060704897448744,47.00867524388907],[27.065181253938864,46.99833037206803]]],[[[26.89983630399969,46.87917940022977],[26.9032029915111,46.87838133275107],[26.909232631865944,46.86966236957198],[26.912639526006394,46.87036612519104],[26.90831187890306,46.872932639060004],[26.910122750527808,46.87692838203085],[26.927968970877945,46.87303840493544],[26.92847505175444,46.86522506967762],[26.936963201771473,46.86465689288259],[26.936610395736725,46.86205569851266],[26.930845813258276,46.85997741280824],[26.928431945699728,46.8623219054525],[26.918729060565333,46.86207991665778],[26.926056113039202,46.84459289167358],[26.922526820178263,46.84650232567143],[26.92308343731709,46.84392752067909],[26.919698108290742,46.844423582923824],[26.918365548737043,46.841496357308785],[26.91396276697278,46.840658430072864],[26.909416486124584,46.8272577361412],[26.852228826127433,46.83059131369719],[26.81853259158127,46.83564030778397],[26.79630376204637,46.848796580429614],[26.789810707361195,46.8419117128708],[26.78408699645346,46.84754786985421],[26.744226972242874,46.84707393256419],[26.744291460640788,46.84903462462148],[26.721196499877237,46.85154856265291],[26.721031640589242,46.85426175357068],[26.70933542133969,46.855113410925355],[26.707293824680903,46.86690252175213],[26.704751739627163,46.867893498536375],[26.711426743717325,46.88244456381492],[26.719707265366818,46.88406126033889],[26.72388703686167,46.883902548847665],[26.74682617723897,46.87305950898419],[26.77003226652914,46.873698352441984],[26.746696832527174,46.89683296108815],[26.762032716562697,46.9039379209203],[26.76975286873747,46.91069995714601],[26.777617883336386,46.91223964401075],[26.810096862979467,46.8859895941802],[26.82713048930389,46.88941681625852],[26.84695930065792,46.86340204024839],[26.85419234599139,46.86506854241329],[26.858705796670073,46.85952170377628],[26.867791755308502,46.860179487796195],[26.867527790481507,46.85869823998282],[26.870816929005187,46.85987788563517],[26.8708879402956,46.858483951228855],[26.887894564425263,46.85713456640001],[26.89983630399969,46.87917940022977]]],[[[27.21202761845428,46.77037880923995],[27.19956601059528,46.76688660222108],[27.195407666105904,46.761147366371524],[27.194298102625126,46.764252075143645],[27.188452831329336,46.76125178360651],[27.185763565593412,46.74976284966832],[27.177827446343343,46.748193464913044],[27.172829975246373,46.750388678746894],[27.163218713723293,46.74950373563668],[27.164902529722983,46.7429066499104],[27.160542151180525,46.73434999175179],[27.150817907440455,46.73125408592487],[27.152038665819067,46.73687360536088],[27.142310263604966,46.74125152206832],[27.14664823757896,46.753181257661666],[27.143344291164617,46.754335085341644],[27.1345878237986,46.748596164845644],[27.134122661762195,46.75030643100884],[27.1363021776477,46.75560616209581],[27.140423734541965,46.75581260618569],[27.137633808571664,46.75852621028037],[27.14114966465272,46.75933493362572],[27.14206840985314,46.76271872053703],[27.13232755954215,46.786762615526584],[27.135753952882585,46.79789625177414],[27.13101315473142,46.79803495409954],[27.127602046057657,46.79523571990899],[27.13002305129518,46.79612618105299],[27.132854297983272,46.79153709421298],[27.126701628462285,46.791752966774375],[27.12635382456541,46.793226962805065],[27.126610165156077,46.799455124425926],[27.134355653033232,46.80226478100757],[27.124869302867207,46.81440872150832],[27.13039425175279,46.81490079817188],[27.128921363274326,46.82086952971017],[27.134237630997518,46.82195298319756],[27.134876356891148,46.82516987805864],[27.136797569428072,46.82430726980825],[27.13492905659981,46.829811431183444],[27.153218060015227,46.823038381824986],[27.169022794433605,46.82251714141991],[27.16907663868585,46.826838327543605],[27.175778064021948,46.826421598776],[27.190494715313523,46.81948009592218],[27.20191513986572,46.808846301630965],[27.205427552690523,46.80884348492176],[27.204574029744208,46.8067403132772],[27.208186190280237,46.804759599359095],[27.2054542591823,46.802950580313556],[27.209955046079035,46.794657562363064],[27.21202761845428,46.77037880923995]]],[[[27.126437585474033,46.82956868785808],[27.13039425175279,46.81490079817188],[27.124869302867207,46.81440872150832],[27.12521735463002,46.81140785606032],[27.134355653033232,46.80226478100757],[27.126610165156077,46.799455124425926],[27.12635382456541,46.793226962805065],[27.126701628462285,46.791752966774375],[27.132854297983272,46.79153709421298],[27.13002305129518,46.79612618105299],[27.127602046057657,46.79523571990899],[27.13101315473142,46.79803495409954],[27.135753952882585,46.79789625177414],[27.13232755954215,46.786762615526584],[27.14206840985314,46.76271872053703],[27.14114966465272,46.75933493362572],[27.137633808571664,46.75852621028037],[27.140466741762243,46.75589846803517],[27.136219586763254,46.75552064085829],[27.1345878237986,46.748596164845644],[27.12921597430855,46.747160820443995],[27.122777627274814,46.750265462690386],[27.115315540600943,46.74871688067535],[27.10389839878678,46.76735095287435],[27.09875604097983,46.76960781175606],[27.0911539351656,46.76722833732969],[27.074467644397384,46.766386941331454],[27.061594355423512,46.75617612545354],[27.057904849385036,46.76005469056739],[27.05210261501451,46.75995279180576],[27.045402427513558,46.772370055308464],[27.032108769105353,46.77019810427576],[27.027894612503122,46.77502641892211],[27.024514103719095,46.77014497865928],[27.021668595680318,46.771962557615055],[27.00991553042005,46.77159850989878],[27.008343260298556,46.775449376270835],[27.001562307300063,46.77431805962985],[26.995650679180923,46.80031796863929],[26.99807966239381,46.79834551542732],[27.00891807078635,46.80029461672199],[27.011025342343448,46.80372232201466],[27.025536469348097,46.8106073626183],[27.028166588217804,46.81029712367421],[27.021605509943733,46.80812231734458],[27.02314731827013,46.80405121540254],[27.02988599792517,46.80497986675359],[27.03078104611903,46.808279435921115],[27.0403524393893,46.8086933090387],[27.060858960559244,46.8231398069912],[27.05871778307137,46.82583428927724],[27.070442244088223,46.83324412075972],[27.08788034353492,46.83733833678074],[27.097973978631863,46.829303055788344],[27.107578652417047,46.832224579762055],[27.119650294759126,46.831974442040355],[27.126437585474033,46.82956868785808]]],[[[27.229316929074965,46.77027990680606],[27.21633937724545,46.77225808244634],[27.21202761845428,46.77037880923995],[27.209955046079035,46.794657562363064],[27.2054542591823,46.802950580313556],[27.207680188692198,46.80606180534618],[27.184893545722144,46.823011860738596],[27.182963433426504,46.82184635537019],[27.17059253028484,46.827311400343696],[27.168071517905602,46.82600087501648],[27.169022794433605,46.82251714141991],[27.153218060015227,46.823038381824986],[27.134965594207795,46.82982313408844],[27.136797569428072,46.82430726980825],[27.134876356891148,46.82516987805864],[27.134603908725172,46.82227798411559],[27.130763105029317,46.82036826888399],[27.12370059666807,46.83068519647324],[27.11309722559697,46.83283906942993],[27.097973978631863,46.829303055788344],[27.09031272432191,46.834392526408436],[27.083485434763723,46.85052769444486],[27.09154828046247,46.85415981163972],[27.090557248208054,46.855931970287116],[27.09977748836782,46.857228392263586],[27.100084754389087,46.86464506886759],[27.101768111541745,46.862673977469136],[27.105525078583746,46.86327143963517],[27.10426110020134,46.860664978525925],[27.108961547688015,46.85959115745843],[27.109446811505368,46.85633750151454],[27.114216843679962,46.85802136117035],[27.11512589145849,46.855777352404296],[27.12123876649373,46.8577932208251],[27.128630720773362,46.854661375955715],[27.13282859480049,46.85716185780942],[27.134024576098938,46.86423303538768],[27.144753154474998,46.85895549322361],[27.149334448296774,46.8632193020774],[27.151186328720627,46.857131403624685],[27.154607079515962,46.85914126015355],[27.1563316523558,46.855580009114654],[27.167774980174283,46.865387232699874],[27.16787010291397,46.86791890274888],[27.180324198774613,46.8711372494616],[27.18159700910548,46.86957061845729],[27.18929438080356,46.8752769361166],[27.188343765662818,46.87148547602535],[27.19514905475949,46.866791359909264],[27.193251531442282,46.86377591216688],[27.20207269643165,46.86128268002622],[27.20027972252927,46.85626084496826],[27.209159572603355,46.852497657249444],[27.211667448844324,46.8538668495715],[27.219426894138174,46.84858626057847],[27.213493760710165,46.84684134459758],[27.21727650288777,46.84530536989929],[27.207364707406207,46.839923691586876],[27.22172706830771,46.831347222906416],[27.227125369507775,46.82097620837534],[27.21960532056171,46.81909589412343],[27.219948066463438,46.817603438526014],[27.215191189747987,46.81770364499507],[27.219068102462792,46.812046565245886],[27.21580334424174,46.81227130343096],[27.216001121280982,46.80629032614544],[27.21255203940887,46.80256157625392],[27.21595935433605,46.79311834242375],[27.213473985189054,46.792968153636664],[27.213326514550456,46.78973126291293],[27.223177225476018,46.788817448497056],[27.22444836315676,46.7910919441467],[27.23076132170833,46.78471426138026],[27.230478522897716,46.779560988295486],[27.233895136837532,46.77734329488684],[27.229316929074965,46.77027990680606]]],[[[27.239966593517796,47.011519011311776],[27.237896437782457,46.997212607250525],[27.243611725686236,46.99289816662111],[27.236273766708546,46.99087911566733],[27.231959450462885,46.987195385588265],[27.230402549268742,46.97831448447884],[27.226295387846253,46.97573857863529],[27.216584238704154,46.9740504447809],[27.207428069531048,46.97828912647945],[27.204373224523778,46.98261234442495],[27.198140366589172,46.97805159780516],[27.189525865352746,46.98359196793205],[27.189007459449726,46.9881884321055],[27.180329204090935,46.988886502169905],[27.173153428998543,46.98564506250159],[27.17226906080304,46.97563097681888],[27.16566828298168,46.97284672559514],[27.167630509593813,46.97137886786149],[27.171578819433986,46.97346478784169],[27.17102521371076,46.97095589108222],[27.161878174863016,46.97004145610987],[27.14848579584694,46.96118045972056],[27.147781630985662,46.95976985494722],[27.150490983046424,46.959679009483885],[27.147884473751542,46.958197114146024],[27.133855307813178,46.963450031436814],[27.121973854620833,46.950741919091016],[27.110451523523064,46.94967008352008],[27.105313731741486,46.95810309366457],[27.10199890936714,46.95922438116317],[27.105607888223172,46.99109955559055],[27.09435842772437,47.00306484092609],[27.081738488498253,47.00009723712357],[27.08000853725673,47.00333523269527],[27.085046521666165,47.018586938152005],[27.079473040512582,47.018624680725196],[27.07701088146617,47.02439378157655],[27.072276000063646,47.02595842945321],[27.08566855784734,47.026750002141455],[27.086689510470475,47.033769635949334],[27.09054938805648,47.032509962453226],[27.115201490310167,47.040121238069894],[27.121749124754807,47.03848147386947],[27.1215722177039,47.04590235794105],[27.13180588032803,47.04575034549253],[27.13648291480548,47.049327572472734],[27.148652009836646,47.04732977553387],[27.149013382893173,47.05745505968869],[27.155031391092173,47.0707876936303],[27.15174812743379,47.0751913810848],[27.156359705156465,47.07844667069465],[27.15659126729291,47.082140771497926],[27.173238624364863,47.071954301799735],[27.174796334700062,47.067921686205096],[27.18305760627265,47.06144593009607],[27.185644052974837,47.049708868478646],[27.1769379942663,47.0401668371922],[27.183984652002653,47.03491886717763],[27.186432095232743,47.030010598056656],[27.201439888676557,47.026910253039084],[27.206069800854593,47.027591868622785],[27.219304175504835,47.016864399266034],[27.228114148211244,47.01688600595599],[27.239966593517796,47.011519011311776]]],[[[27.09938751900025,46.92530635938446],[27.080468959376677,46.91703889007064],[27.075213065337206,46.92010929142728],[27.075487952467483,46.9183500466255],[27.07184755931392,46.91792190903608],[27.079156287081627,46.90019802335026],[27.07063421304488,46.901138042797974],[27.058067229975958,46.895557759838866],[27.05503511063322,46.897302965227304],[27.04246729875871,46.89464963376122],[27.03591531884579,46.89546863136605],[27.023488926033433,46.906650704737935],[27.016717526451526,46.9021542458664],[27.004626910759608,46.89854226959261],[26.991937530099054,46.90315937795337],[26.979369127011307,46.903674303417134],[26.97599702212341,46.8952078123502],[26.980733751453876,46.89510236928649],[26.98293563994911,46.89769296223212],[26.983365281132027,46.894942644332076],[26.973532988624168,46.891257536401795],[26.961516260926206,46.899250893163966],[26.963945912564814,46.901705227450776],[26.976037480218842,46.90520258860969],[26.97431348470978,46.91170172936708],[26.991226107501788,46.918276830874156],[26.991128310528858,46.92163496913143],[26.981950041638388,46.928110002015316],[26.977056540476,46.936562558980185],[26.981069706584368,46.943161560738815],[26.99059880416966,46.94504917285346],[26.99034924479141,46.95169510563924],[26.995451320920594,46.9525419196489],[26.99943910395376,46.956006287608425],[27.02754224584858,46.957031577319675],[27.03608092135871,46.955043228397734],[27.04013163594028,46.9513917655325],[27.046792088685137,46.95375341592201],[27.04687551988332,46.949689876313016],[27.0522201142403,46.9505666234177],[27.053811191508284,46.94759716308879],[27.059139450110816,46.9482410973216],[27.06069650043268,46.945253783973364],[27.06657968157206,46.94489453876626],[27.071560440245594,46.93694541788074],[27.089227820836403,46.93765675873149],[27.088468819069178,46.92847989982331],[27.093045804657585,46.92720849548039],[27.097375577819413,46.92851635675155],[27.09670930106114,46.925497942613134],[27.09938751900025,46.92530635938446]]],[[[27.121973854620833,46.950741919091016],[27.14102592937065,46.942856594627266],[27.158204532317303,46.93112369715983],[27.170664043736206,46.926122619282616],[27.181412366318614,46.91615189617152],[27.183742659964917,46.91040761744142],[27.195406476357952,46.90337564346534],[27.194203228641246,46.89929065201568],[27.19891528481445,46.89534653362173],[27.202134744940466,46.89648645443859],[27.193411945208123,46.88785620586948],[27.202500038902766,46.88252668284056],[27.18886831702828,46.87598571426605],[27.18159700910548,46.86957061845729],[27.180324198774613,46.8711372494616],[27.16937977342129,46.8686266498072],[27.16713962414183,46.87341125256025],[27.16351508969483,46.87170404652865],[27.16159432083055,46.87451072724386],[27.154571649591876,46.87214887300214],[27.147524435236875,46.880838711996454],[27.15093460936325,46.882305405286615],[27.14536942772565,46.88858827126762],[27.13649779277856,46.88759144608687],[27.136253698362395,46.89327996187101],[27.133516505777045,46.89298791711385],[27.128412234846866,46.90275679500451],[27.11953898189302,46.91124646960074],[27.125695747413662,46.914853933606004],[27.122453764142566,46.9166852396739],[27.116239198537027,46.91443430824221],[27.099359623659097,46.928747908415026],[27.09943110552758,46.93614585873322],[27.097321421806008,46.93733306902565],[27.101717018855993,46.959105315215076],[27.105313731741486,46.95810309366457],[27.110371041560832,46.9496887882073],[27.121973854620833,46.950741919091016]]],[[[27.032397195677635,47.05630309405621],[27.04792850339127,47.05359099789245],[27.041798082324117,47.04622083728403],[27.06006061018411,47.04117111579313],[27.073763338426012,47.0406776027823],[27.073808924880527,47.03710580178076],[27.078006360491568,47.03798252555055],[27.07743712758284,47.02808885976609],[27.0866561354244,47.02813539326361],[27.08542730918409,47.02665553164263],[27.072276000063646,47.02595842945321],[27.07701088146617,47.02439378157655],[27.079473040512582,47.018624680725196],[27.085046521666165,47.018586938152005],[27.08000853725673,47.00333523269527],[27.081738488498253,47.00009723712357],[27.065181253938864,46.99833037206803],[27.060704897448744,47.00867524388907],[27.057550036087914,47.007760988994086],[27.05568715554284,47.0138773195665],[27.048111868167755,47.01610156669232],[27.043356329489527,47.00283365153974],[27.038041449811026,47.00373968807171],[27.03909063048929,47.00124096574672],[27.033607348582915,46.99968571869056],[27.029568526012305,47.00723412608494],[27.02055008034847,47.005018331730405],[27.01344163005972,47.007130006245475],[26.994497976328304,47.00152172073408],[26.99148561524936,47.01596443799345],[27.00132476828646,47.01667803000893],[27.00463855811348,47.01949791341673],[27.00678665149548,47.02807684759194],[27.019052659967915,47.02913032126989],[27.016839273474154,47.03084707089361],[27.025969298143245,47.03518094457644],[27.023850363117475,47.03650203386057],[27.03614223774033,47.040086652021685],[27.036556387694514,47.041941264499215],[27.03229042167542,47.04232305023284],[27.03543264296477,47.04995625883553],[27.02518775716277,47.051608043225926],[27.032397195677635,47.05630309405621]]],[[[27.16937977342129,46.8686266498072],[27.1563316523558,46.855580009114654],[27.154607079515962,46.85914126015355],[27.151186328720627,46.857131403624685],[27.149334448296774,46.8632193020774],[27.144753154474998,46.85895549322361],[27.134024576098938,46.86423303538768],[27.13282859480049,46.85716185780942],[27.128630720773362,46.854661375955715],[27.12123876649373,46.8577932208251],[27.11512589145849,46.855777352404296],[27.114216843679962,46.85802136117035],[27.109446811505368,46.85633750151454],[27.108961547688015,46.85959115745843],[27.10426110020134,46.860664978525925],[27.105525078583746,46.86327143963517],[27.101768111541745,46.862673977469136],[27.100084754389087,46.86464506886759],[27.09977748836782,46.857228392263586],[27.090557248208054,46.855931970287116],[27.089834597099305,46.85934606941749],[27.08616375348808,46.861149351651555],[27.082938885428188,46.875558106613255],[27.073729497531968,46.87819534949154],[27.06845113372025,46.87454867851733],[27.06689529405656,46.88665396664369],[27.07294621500418,46.886624585816286],[27.073962806424966,46.88978541333339],[27.067384737295832,46.899603744460194],[27.071077911101938,46.90118315754194],[27.079163190786193,46.9002533498795],[27.07184755931392,46.91792190903608],[27.075487952467483,46.9183500466255],[27.075213065337206,46.92010929142728],[27.080468959376677,46.91703889007064],[27.101924548171567,46.92644148884424],[27.116239198537027,46.91443430824221],[27.123572257828567,46.91649729037777],[27.12624135618028,46.914188604448505],[27.119134782033917,46.91185963135422],[27.128412234846866,46.90275679500451],[27.133516505777045,46.89298791711385],[27.136253698362395,46.89327996187101],[27.13649779277856,46.88759144608687],[27.14536942772565,46.88858827126762],[27.15093460936325,46.882305405286615],[27.147524435236875,46.880838711996454],[27.15417255873705,46.8724633580796],[27.16159432083055,46.87451072724386],[27.16351508969483,46.87170404652865],[27.16713962414183,46.87341125256025],[27.16937977342129,46.8686266498072]]]]},"properties":{"alert_id":"24ff90550d2b4eb5","source":"nowcasting","alert_type":"nowcasting","feature_id":"0c537f339b2a5fdeec","judet_cod":"NT","judet_nume":"Neamț","county_code":"NT","county_name":"Neamț","cod_judet":"NT","cod_culoare":1,"cod_culoare_nume":"Galben","culoare":"1","cod":"Galben","fenomen_principal":"Local ceață ce determină vizibilitate redusă sub 200 m.","fenomen_group":"ceata","zona_text":"Județul Suceava: Vatra Dornei, Șaru Dornei, Dorna Candrenilor, Dorna-Arini, Iacobeni, Panaci, Poiana Stampei, Coșna;<br>Județul Neamţ: Roman, Săbăoani, Tămășeni, Cordun, Horia, Doljești, Trifești, Ion Creangă, Sagna, Secuieni, Oniceni, Valea Ursului, Bozieni, Stănița, Gâdinți, Pâncești, Bira, Poienari;<br>Județul Vaslui: Duda-Epureni, Codăești, Drânceni, Văleni, Zăpodeni, Solești, Băcești, Dumești, Rebricea, Todirești, Tăcuta, Ștefan cel Mare, Bunești-Averești, Oșești, Miclești, Negrești, Tătărăni, Dănești, Boțești, Vulturești, Ferești, Arsura, Rafaila;<br>","zona_nume":"Neamț - localitati","zone_name":"Neamț - localitati","display_name":"Neamț - localitati","localities":["Roman","Săbăoani","Tămășeni","Cordun","Horia","Doljești","Trifești","Ion Creangă","Sagna","Secuieni","Oniceni","Valea Ursului","Bozieni","Stănița","Gâdinți","Pâncești","Bira","Poienari"],"geometry_source":"uat_match","match_confidence":"high","interval_text":"","interval_start":"2026-07-11T06:30:00","valid_from":"2026-07-11T06:30:00","valid_to":"2026-07-11T09:00:00","interval_valabilitate_text":"","interval_end":"2026-07-11T09:00:00","data_expirare":"2026-07-11T09:00:00","mesaj_plain":"Local ceață ce determină vizibilitate redusă sub 200 m.","source_url":"","source_label":"","notes":"","durata_ore":2.5,"zi":"2026-07-11"}},{"type":"Feature","geometry":{"type":"MultiPolygon","coordinates":[[[[28.115773,46.832625],[28.115841,46.831357],[28.115893,46.829211],[28.115904,46.828113],[28.115846,46.82757],[28.11572,46.827017],[28.11555,46.826419],[28.115173,46.825358],[28.114837,46.824564],[28.114463,46.823812],[28.11417,46.823275],[28.113948,46.822774],[28.113907,46.822498],[28.113977,46.822215],[28.114119,46.822008],[28.114328,46.821761],[28.114603,46.821557],[28.11622,46.819992],[28.116646,46.819546],[28.117176,46.819152],[28.117447,46.818956],[28.117941,46.818705],[28.118652,46.818613],[28.119019,46.818622],[28.119662,46.8189],[28.120147,46.819323],[28.120544,46.819793],[28.12095,46.820239],[28.121867,46.821451],[28.122262,46.821896],[28.122771,46.822307],[28.12304,46.822482],[28.123399,46.822776],[28.124126,46.82301],[28.124522,46.823135],[28.124904,46.823065],[28.125244,46.822887],[28.125366,46.822609],[28.125475,46.822027],[28.125454,46.821437],[28.125375,46.820849],[28.12534,46.820554],[28.125351,46.819061],[28.125322,46.818762],[28.125267,46.818475],[28.125186,46.818199],[28.124927,46.817633],[28.124477,46.816782],[28.124139,46.81624],[28.123847,46.815686],[28.123572,46.815158],[28.123399,46.814917],[28.123399,46.813799],[28.123491,46.813774],[28.123865,46.813649],[28.125074,46.813515],[28.126693,46.813434],[28.127985,46.813413],[28.129268,46.813351],[28.129697,46.813281],[28.130248,46.813102],[28.130369,46.812995],[28.130446,46.812711],[28.130347,46.81242],[28.130172,46.81224],[28.130094,46.812145],[28.129836,46.811958],[28.129549,46.811784],[28.129131,46.811332],[28.12875,46.810892],[28.12845,46.810401],[28.128175,46.809921],[28.127979,46.809459],[28.127804,46.808935],[28.127693,46.808682],[28.127654,46.808422],[28.127651,46.808162],[28.127785,46.807654],[28.127848,46.807376],[28.128153,46.806917],[28.128591,46.806475],[28.129128,46.806055],[28.129685,46.805673],[28.130157,46.805288],[28.130652,46.804878],[28.131198,46.804516],[28.131657,46.804111],[28.13235,46.803542],[28.132672,46.803368],[28.132939,46.803195],[28.133385,46.802778],[28.134285,46.80229],[28.134949,46.802038],[28.135304,46.801921],[28.135678,46.801824],[28.136564,46.801713],[28.138147,46.801686],[28.138893,46.801761],[28.140076,46.80189],[28.140836,46.802006],[28.141165,46.80208],[28.141841,46.802297],[28.142213,46.802382],[28.143775,46.802276],[28.14454,46.802154],[28.145095,46.80159],[28.145665,46.800031],[28.146376,46.799319],[28.147203,46.798668],[28.148666,46.79849],[28.149812,46.798551],[28.151967,46.799554],[28.152872,46.799445],[28.153046,46.798915],[28.152773,46.79827],[28.151787,46.797489],[28.14999,46.796365],[28.149317,46.795844],[28.148644,46.795323],[28.14851,46.794635],[28.148861,46.793739],[28.150237,46.793138],[28.152646,46.792508],[28.154514,46.792008],[28.155505,46.791258],[28.156231,46.789992],[28.158785,46.786186],[28.159788,46.784836],[28.160642,46.784335],[28.161329,46.784442],[28.161959,46.784866],[28.162409,46.786004],[28.162416,46.787417],[28.161632,46.789174],[28.161107,46.790315],[28.161029,46.791094],[28.161686,46.791706],[28.16268,46.791753],[28.163899,46.791638],[28.164714,46.79133],[28.165531,46.790845],[28.166077,46.790455],[28.1664,46.789619],[28.166343,46.789036],[28.165737,46.787556],[28.165024,46.785941],[28.165098,46.78476],[28.165567,46.78372],[28.166395,46.783171],[28.16754,46.783231],[28.168765,46.783272],[28.169864,46.783001],[28.173096,46.781294],[28.174822,46.779995],[28.176161,46.778446],[28.176396,46.777556],[28.176093,46.777094],[28.175605,46.777025],[28.174436,46.777496],[28.173164,46.778015],[28.171745,46.778322],[28.169221,46.778355],[28.166608,46.778168],[28.163991,46.778221],[28.16152,46.778037],[28.160603,46.777697],[28.160405,46.777285],[28.160509,46.776985],[28.161438,46.775965],[28.163878,46.774385],[28.164892,46.773912],[28.165699,46.773927],[28.166999,46.774753],[28.168402,46.775369],[28.169325,46.775696],[28.170569,46.775922],[28.171752,46.775895],[28.172536,46.775529],[28.172798,46.774933],[28.172489,46.774331],[28.171109,46.773494],[28.16929,46.772788],[28.168242,46.772139],[28.167638,46.771624],[28.167309,46.771132],[28.1672,46.770828],[28.16715,46.770337],[28.167546,46.769828],[28.168546,46.769149],[28.169213,46.768775],[28.169988,46.768455],[28.171061,46.768281],[28.172031,46.768523],[28.173197,46.769181],[28.174987,46.770323],[28.176099,46.77082],[28.176846,46.770906],[28.177496,46.770791],[28.177961,46.770482],[28.178322,46.770056],[28.178648,46.7695],[28.17869,46.766726],[28.178665,46.76405],[28.177892,46.761218],[28.177337,46.759724],[28.177347,46.758859],[28.177772,46.758378],[28.178561,46.758097],[28.179926,46.758212],[28.181698,46.759113],[28.183278,46.75975],[28.184131,46.760033],[28.184593,46.759936],[28.185097,46.759637],[28.184981,46.758954],[28.18391,46.757965],[28.183173,46.756914],[28.182417,46.755669],[28.181544,46.754907],[28.180809,46.754674],[28.180182,46.754586],[28.179628,46.75468],[28.179087,46.755539],[28.178404,46.756334],[28.17768,46.756549],[28.176769,46.756585],[28.175812,46.756189],[28.175136,46.755685],[28.174778,46.754941],[28.174618,46.753975],[28.173958,46.752979],[28.173233,46.752007],[28.172988,46.751223],[28.173082,46.750466],[28.173497,46.75009],[28.174048,46.749922],[28.174767,46.750023],[28.175235,46.750422],[28.175712,46.750836],[28.176245,46.750994],[28.176921,46.751001],[28.177253,46.75045],[28.177061,46.750023],[28.176619,46.749276],[28.176242,46.748078],[28.176275,46.74746],[28.176865,46.746887],[28.177615,46.746626],[28.178592,46.746571],[28.179537,46.746878],[28.1806,46.747384],[28.181565,46.747605],[28.182507,46.747277],[28.183193,46.746413],[28.18368,46.745165],[28.183951,46.743897],[28.183897,46.743233],[28.183403,46.742772],[28.182855,46.742735],[28.181232,46.74345],[28.180068,46.743862],[28.179041,46.743895],[28.178334,46.743741],[28.178042,46.743337],[28.177951,46.742817],[28.17838,46.741507],[28.178897,46.740169],[28.179413,46.73883],[28.179975,46.737559],[28.18095,46.736382],[28.181474,46.735996],[28.181999,46.73561],[28.182194,46.735399],[28.182661,46.734976],[28.183062,46.734643],[28.183482,46.734289],[28.183947,46.734039],[28.184481,46.733693],[28.184725,46.733661],[28.184916,46.733633],[28.185213,46.733587],[28.185583,46.73365],[28.186117,46.733774],[28.186651,46.733898],[28.188803,46.734799],[28.190207,46.735386],[28.191739,46.735873],[28.192534,46.735866],[28.193318,46.735405],[28.194233,46.734465],[28.19453,46.733804],[28.118387,46.721701],[28.032545,46.721701],[27.977001,46.721701],[27.859179,46.717086],[27.731258,46.722855],[27.628585,46.722855],[27.539377,46.755154],[27.446802,46.759766],[27.212842,46.779365],[27.152248,46.792042],[27.046208,46.838118],[26.88799,46.846177],[26.834128,46.872649],[26.881257,46.955432],[26.842544,47.017435],[26.962049,46.996775],[27.027693,47.011697],[27.08997,47.042675],[27.130366,47.034645],[27.143832,46.989887],[27.079871,46.974959],[27.110168,46.933598],[27.185911,46.877251],[27.224624,46.863443],[27.263337,46.858839],[27.295317,46.858839],[27.327297,46.858839],[27.381159,46.880702],[27.404723,46.856537],[27.460268,46.858839],[27.529278,46.861141],[27.54106,46.895657],[27.564624,46.869196],[27.628585,46.87495],[27.655515,46.908307],[27.638684,46.958878],[27.71106,46.899107],[27.781753,46.854235],[27.84908,46.847328],[27.879377,46.800108],[27.963536,46.804717],[27.960169,46.846177],[27.990466,46.828906],[28.08809,46.827754],[28.115773,46.832625]]],[[[25.296932,47.434869],[25.320712,47.432977],[25.329104,47.399849],[25.358479,47.378068],[25.401842,47.37712],[25.443806,47.37712],[25.475978,47.367647],[25.457794,47.32879],[25.404639,47.300339],[25.41583,47.262382],[25.432615,47.231046],[25.438211,47.202543],[25.376663,47.213946],[25.362675,47.240544],[25.306724,47.213946],[25.256367,47.198741],[25.270355,47.230096],[25.319313,47.281364],[25.337497,47.324997],[25.271754,47.335426],[25.231188,47.29275],[25.214403,47.273772],[25.176635,47.282313],[25.152856,47.303185],[25.219998,47.348696],[25.157052,47.319308],[25.110892,47.290852],[25.084315,47.280415],[25.053541,47.278517],[25.045148,47.29275],[25.106695,47.314566],[25.130475,47.335426],[25.094106,47.342061],[25.074523,47.353434],[25.085713,47.373331],[25.155653,47.381856],[25.222796,47.407423],[25.261962,47.4396],[25.296932,47.434869]]]]},"properties":{"alert_id":"24ff90550d2b4eb5","source":"nowcasting","alert_type":"nowcasting","feature_id":"72b59b3bce333cf835","judet_cod":"SV","judet_nume":"Suceava","county_code":"SV","county_name":"Suceava","cod_judet":"SV","cod_culoare":1,"cod_culoare_nume":"Galben","culoare":"1","cod":"Galben","fenomen_principal":"Local ceață ce determină vizibilitate redusă sub 200 m.","fenomen_group":"ceata","zona_text":"Județul Suceava: Vatra Dornei, Șaru Dornei, Dorna Candrenilor, Dorna-Arini, Iacobeni, Panaci, Poiana Stampei, Coșna;<br>Județul Neamţ: Roman, Săbăoani, Tămășeni, Cordun, Horia, Doljești, Trifești, Ion Creangă, Sagna, Secuieni, Oniceni, Valea Ursului, Bozieni, Stănița, Gâdinți, Pâncești, Bira, Poienari;<br>Județul Vaslui: Duda-Epureni, Codăești, Drânceni, Văleni, Zăpodeni, Solești, Băcești, Dumești, Rebricea, Todirești, Tăcuta, Ștefan cel Mare, Bunești-Averești, Oșești, Miclești, Negrești, Tătărăni, Dănești, Boțești, Vulturești, Ferești, Arsura, Rafaila;<br>","zona_nume":"Suceava - localitati","zone_name":"Suceava - localitati","display_name":"Suceava - localitati","localities":["Vatra Dornei","Șaru Dornei","Dorna Candrenilor","Dorna-Arini","Iacobeni","Panaci","Poiana Stampei","Coșna"],"geometry_source":"coordGis","match_confidence":"high","interval_text":"","interval_start":"2026-07-11T06:30:00","valid_from":"2026-07-11T06:30:00","valid_to":"2026-07-11T09:00:00","interval_valabilitate_text":"","interval_end":"2026-07-11T09:00:00","data_expirare":"2026-07-11T09:00:00","mesaj_plain":"Local ceață ce determină vizibilitate redusă sub 200 m.","source_url":"","source_label":"","notes":"","durata_ore":2.5,"zi":"2026-07-11"}},{"type":"Feature","geometry":{"type":"MultiPolygon","coordinates":[[[[28.080212779296467,46.771197022857855],[28.102838853140906,46.744943477590176],[28.134658324641485,46.74129683609568],[28.140258653705704,46.738939544378624],[28.172739684467427,46.74355410232546],[28.179008034360102,46.73463378127807],[28.182059697218925,46.735647924571694],[28.185273076531686,46.73362469597501],[28.19259438003507,46.73590357166256],[28.1951059759871,46.72979076934857],[28.189126709670777,46.72874420977076],[28.18666716757206,46.72576839792236],[28.182869148617645,46.72811150361266],[28.151036195207976,46.71808989497647],[28.14571454630725,46.725013511142116],[28.133906272111304,46.723091127005254],[28.133004682499653,46.728481789982766],[28.12940200009342,46.73011532249981],[28.127256145997045,46.72002797059298],[28.139657349012182,46.707312912650984],[28.142614430665947,46.70931794171221],[28.149570766681734,46.699187861920755],[28.12341826536979,46.69461614578124],[28.116746068153592,46.70219522413303],[28.10285992832995,46.698401249116806],[28.102526477135008,46.695072033055396],[28.096970562337024,46.698352400098834],[28.0867406226581,46.691389331862126],[28.07912939892796,46.69553544926678],[28.05909802301187,46.697298722891546],[28.054209186584263,46.695929255189625],[28.054051866723132,46.69863398303452],[28.04963865647243,46.69558110379395],[28.04084221547557,46.697890481688354],[28.037580494191648,46.70150834532734],[28.030007854481806,46.70188892948369],[28.019879854923598,46.71083392646231],[28.01991554489828,46.718873854550104],[28.022454641148606,46.71986857962757],[28.019057329230197,46.723492768757424],[28.00939906468472,46.72013786890611],[28.011508996188365,46.712887237760796],[28.002937004462236,46.716291675505886],[27.995380354707216,46.725549153911956],[27.99739471197808,46.72667138515981],[28.002818478871006,46.723494602439466],[28.00469954744964,46.724630826972856],[28.005412166868325,46.72738546487804],[27.998214329581934,46.733060924616865],[28.010619799499032,46.74453255483739],[28.012959077010574,46.744124232397866],[28.01315128349138,46.74839756929737],[28.009752487656975,46.74959119974476],[28.012111352510676,46.75240959800302],[28.011944914573316,46.76192767938659],[28.02605986334803,46.76260255082383],[28.02647899301918,46.76614497556546],[28.03626384701742,46.76612491433085],[28.03958616973931,46.76363054000731],[28.080212779296467,46.771197022857855]]],[[[27.790411192976876,46.94213000385415],[27.78885480575877,46.937789927618056],[27.794213054493742,46.928105261630556],[27.808257180052287,46.928026490510916],[27.809338220608048,46.93441886114594],[27.81512163842189,46.93099173310907],[27.81653105473935,46.920407775253786],[27.811681756123246,46.92061302970254],[27.810252838131564,46.917904688464574],[27.811863412300127,46.9088761894594],[27.80891704946324,46.90695528495568],[27.811250479086375,46.90240645697185],[27.808489661387853,46.8966247605978],[27.812848344739763,46.891379555567276],[27.809279698454244,46.88682982483059],[27.81208178340417,46.886918971628155],[27.814058961340415,46.880891166345734],[27.812360058167947,46.878157290290694],[27.807241669092797,46.87779465988679],[27.80134019375403,46.8688098782758],[27.804712123580885,46.86769380622258],[27.803776971739243,46.866291468491],[27.796409997324837,46.86341859063579],[27.795802404717467,46.85683413025102],[27.79139003056731,46.856412941187585],[27.792355184395234,46.852603399103046],[27.781819765230047,46.844966489994256],[27.78293022848103,46.840715314134705],[27.78681514669596,46.84019329934321],[27.786689322618248,46.83447820124194],[27.761247423252755,46.82573854940782],[27.747109670950515,46.825589732370766],[27.749148858842233,46.82327590474399],[27.737925327323357,46.81871501354798],[27.74166841905316,46.81619788520478],[27.731100549069605,46.81010174254028],[27.72383347773108,46.824917010300595],[27.72364376403467,46.82684460749546],[27.726617810256062,46.826467570211136],[27.724900202381477,46.829115462261264],[27.690565156407725,46.85732190522861],[27.698509276439044,46.863305677288416],[27.727222675527617,46.87378108372355],[27.71959745372905,46.880807555084466],[27.71195315355648,46.88313889870086],[27.7058237494516,46.88297085427436],[27.692155797026125,46.88703607944354],[27.684634151303296,46.88559350826258],[27.699051498372473,46.903902056902204],[27.709849868778548,46.910624644546395],[27.72162904260051,46.905646744132504],[27.734554821916685,46.89210686492541],[27.740577009411215,46.895645078567846],[27.75215545206973,46.88805969830078],[27.756131068798304,46.889946218397846],[27.764575031103668,46.881542023862536],[27.76856332272228,46.882899150865356],[27.76854276958811,46.87626246909851],[27.779414693596237,46.879575547375204],[27.77930297349,46.877435191547974],[27.782412891500066,46.878116540917915],[27.78593473592259,46.88269784028789],[27.786347899134483,46.87435954181398],[27.79170039369923,46.87431286247537],[27.79036765126698,46.88645399132131],[27.782510811553372,46.89798164595197],[27.784060613163252,46.90670396804273],[27.76930929882141,46.93653694196838],[27.77064387759482,46.94716837112579],[27.781244498629018,46.94861812008686],[27.783915739356065,46.9457659950861],[27.78762975214256,46.94644885823681],[27.790411192976876,46.94213000385415]]],[[[27.790839301944985,46.72473580882737],[27.784605098453085,46.72252500846112],[27.779119823050653,46.723674011362704],[27.773088383230863,46.70493966226465],[27.756998868810165,46.70931100857269],[27.730871771148948,46.72378297521944],[27.719228107855287,46.73315762597459],[27.724659409714228,46.738257544508464],[27.696966307826766,46.76239579799597],[27.730616046687523,46.754870625887385],[27.728330526925447,46.75772277477893],[27.72994647541966,46.7638592577587],[27.725212677060682,46.78021967378176],[27.726392045106802,46.78481429615438],[27.731459591275303,46.785776181425675],[27.740294163724915,46.79165381736448],[27.741956229768903,46.78985243949341],[27.74714725363617,46.79234431728828],[27.743689060739978,46.79615021985564],[27.757060864436976,46.795231149559285],[27.74945855937179,46.804938727288516],[27.75166134147764,46.80596195368624],[27.756013072472854,46.800506627045316],[27.762694070599622,46.80318624991669],[27.781998787209993,46.78004154933443],[27.782906246056015,46.77726518706739],[27.77679425286283,46.77767122679828],[27.775572331523083,46.774021141400496],[27.781606316297285,46.77354721341363],[27.78187207943635,46.770935444895635],[27.78648290810683,46.77034498479592],[27.778111589598996,46.76390957546373],[27.777133424032954,46.756107833321074],[27.787324731534664,46.749130463411845],[27.783069295656034,46.733483640573326],[27.79172678555051,46.73123411515586],[27.790839301944985,46.72473580882737]]],[[[27.601219399097374,46.829624561498726],[27.61372216749686,46.83339618152391],[27.62047665042664,46.823127329164606],[27.625162577583254,46.82475203448716],[27.629168245949316,46.820772821936814],[27.635678380465336,46.8232444077388],[27.64148522523412,46.81577255118012],[27.646454151263036,46.81586126983688],[27.649101323676124,46.81842483158083],[27.65204546257068,46.81636439880849],[27.654295512968915,46.80998743652005],[27.65733398133189,46.81044771806366],[27.656174957560737,46.793721759716],[27.66702985138524,46.79450037040993],[27.66921775139082,46.79042141106841],[27.666941697171254,46.78042882997492],[27.67244511333874,46.77274534941682],[27.672410396542304,46.76877034109386],[27.67878061714473,46.76730162245479],[27.68083564459205,46.77122040456164],[27.678563796923815,46.774383465102375],[27.698447027953986,46.77310158391943],[27.716511845767165,46.7594672835967],[27.717680623269057,46.75704830879932],[27.696966307826766,46.76239579799597],[27.72235962257568,46.74120681206202],[27.724659409714228,46.738257544508464],[27.719228107855287,46.73315762597459],[27.733748717675585,46.72104310949834],[27.721384537600837,46.71598159109828],[27.719736933731976,46.717280196202594],[27.708879466430638,46.71412512719907],[27.7101514869876,46.71168960965193],[27.706699501142378,46.71019845014734],[27.716603631029884,46.698152786546814],[27.719858652047915,46.68534275425174],[27.694245536513733,46.68299222962842],[27.69168409663309,46.69252419910445],[27.670743801801652,46.68896064844933],[27.681625306561926,46.70953482892836],[27.68189669266944,46.713449526563544],[27.676838247667064,46.71646508917386],[27.672595606247043,46.713380126987076],[27.65727690593296,46.71225788234645],[27.65988864676406,46.70113572530847],[27.65740023637231,46.700846599240606],[27.660784473705895,46.696185608428266],[27.650096610600553,46.699306035034205],[27.652694739138457,46.70381987443106],[27.63677514955837,46.72346488748507],[27.61956445525027,46.76472131243117],[27.61323701541533,46.763774137198205],[27.6094804567283,46.75533377372869],[27.61368658047554,46.74876656790716],[27.60981235885859,46.74728463330071],[27.603082516449607,46.7583116958361],[27.60136443071589,46.756240574168594],[27.60000657228691,46.75576587208799],[27.603031322132164,46.7602927057869],[27.60056615635782,46.76088355554704],[27.595046434062766,46.7841576555125],[27.588388314675996,46.78320692239658],[27.590761213239023,46.77821070937564],[27.587875319916076,46.776678686684626],[27.59108853931571,46.7736092617744],[27.588162073400593,46.77035487045729],[27.576845363667985,46.77561045388447],[27.565972517854657,46.77180866635788],[27.564503383807946,46.77420828829147],[27.574484650806657,46.77753723801187],[27.565915465120426,46.80333505037571],[27.56355851770002,46.803106011357634],[27.563192052139858,46.80005367721955],[27.56214401701592,46.80185950824614],[27.562503921294304,46.81980281450046],[27.574668417800318,46.82260437763917],[27.58092827214139,46.82112058777313],[27.589951172569965,46.824395976802315],[27.577570344234683,46.82843499236344],[27.581553859649496,46.836622146981846],[27.601219399097374,46.829624561498726]]],[[[27.844801479054397,46.7771499339852],[27.861918258735866,46.757012571392785],[27.866757521338826,46.7582440736828],[27.873720265079154,46.74515456762986],[27.864678638338443,46.741973655890455],[27.866574281816003,46.73562203451537],[27.871135543272512,46.73165554465451],[27.89746615624628,46.737899282578994],[27.89872013410406,46.73671077713469],[27.90259619071363,46.72861674644651],[27.897713324742917,46.728767425491],[27.898908232346432,46.72330887279842],[27.89049784508361,46.7193497690324],[27.89265934003196,46.716487136274125],[27.868867341191386,46.710515588452594],[27.867755585802588,46.71261573285802],[27.844908764926526,46.709642114656205],[27.842510680988173,46.7138936602426],[27.829432238084575,46.709921430583805],[27.811954166502804,46.728808762528494],[27.807160314196516,46.7207022873317],[27.80235128742795,46.72355964337535],[27.79858997778538,46.722191082670356],[27.795122026550057,46.725180715620475],[27.790839301944985,46.72473580882737],[27.79172678555051,46.73123411515586],[27.783069295656034,46.733483640573326],[27.787324731534664,46.749130463411845],[27.777133424032954,46.756107833321074],[27.778111589598996,46.76390957546373],[27.78648290810683,46.77034498479592],[27.78187207943635,46.770935444895635],[27.781606316297285,46.77354721341363],[27.775572331523083,46.774021141400496],[27.77679425286283,46.77767122679828],[27.782906246056015,46.77726518706739],[27.781998787209993,46.78004154933443],[27.762694070599622,46.80318624991669],[27.756013072472854,46.800506627045316],[27.745912468537902,46.81314058813897],[27.737925327323357,46.81871501354798],[27.749148858842233,46.82327590474399],[27.7477443699954,46.825789265624394],[27.761247423252755,46.82573854940782],[27.786130626499553,46.83416027435076],[27.790441703512503,46.83377708856659],[27.7959000950381,46.82292859485039],[27.79121779358215,46.80218844057756],[27.8058283495733,46.80215125657271],[27.844801479054397,46.7771499339852]]],[[[27.21431898849405,46.876491579939746],[27.223288918608915,46.87802180867587],[27.22631878769937,46.8680558703344],[27.246000381292287,46.87217837987795],[27.2485084520188,46.876170626575984],[27.260045110040213,46.84921237390598],[27.261129479072803,46.845039438412776],[27.256127054635943,46.84426756390474],[27.26020579719579,46.83344126391227],[27.261456134226442,46.830431269932674],[27.264948494498192,46.83219643213076],[27.268584639629253,46.829620049400496],[27.27127549092726,46.824478466374444],[27.2692290179213,46.820654090394655],[27.271021105551267,46.81112089179198],[27.28360767440114,46.788940082680206],[27.28477977337881,46.785070333097295],[27.28113685789147,46.78523338497493],[27.281605437693923,46.782848315910684],[27.274379739291437,46.78055933428892],[27.27250491733449,46.775090925534975],[27.27453651582944,46.77150859957917],[27.260839091313954,46.768407878535506],[27.255831582773922,46.76509053627691],[27.2519239625635,46.76618431838815],[27.2370056020693,46.764050750787575],[27.229316929074965,46.77027990680606],[27.233895136837532,46.77734329488684],[27.230478522897716,46.779560988295486],[27.23076132170833,46.78471426138026],[27.22444836315676,46.7910919441467],[27.223177225476018,46.788817448497056],[27.21340484229593,46.78935115862743],[27.213473985189054,46.792968153636664],[27.21595935433605,46.79311834242375],[27.21255203940887,46.80256157625392],[27.216001121280982,46.80629032614544],[27.21580334424174,46.81227130343096],[27.219068102462792,46.812046565245886],[27.215191189747987,46.81770364499507],[27.219948066463438,46.817603438526014],[27.21960532056171,46.81909589412343],[27.227125369507775,46.82097620837534],[27.22172706830771,46.831347222906416],[27.207364707406207,46.839923691586876],[27.21727650288777,46.84530536989929],[27.213493760710165,46.84684134459758],[27.219426894138174,46.84858626057847],[27.211667448844324,46.8538668495715],[27.209159572603355,46.852497657249444],[27.20027972252927,46.85626084496826],[27.20207269643165,46.86128268002622],[27.193251531442282,46.86377591216688],[27.19514905475949,46.866791359909264],[27.188343765662818,46.87148547602535],[27.18886831702828,46.87598571426605],[27.202416153626494,46.882424798165246],[27.21431898849405,46.876491579939746]]],[[[27.322247717226453,46.867121069076894],[27.336419008327464,46.86771321891916],[27.336664679809097,46.864429304874704],[27.36227749289573,46.85141014020236],[27.362134611305226,46.83925935972858],[27.359633391945597,46.83973946002749],[27.360988661656958,46.84385162374991],[27.353758844396694,46.84377485976216],[27.346009270980403,46.84074963818033],[27.34590379528449,46.83741058295282],[27.360738095678037,46.83487776001134],[27.354745437791376,46.82209540419544],[27.35543185301996,46.80882687158619],[27.354191193013083,46.806814568863054],[27.347221094215442,46.806111529209645],[27.344890717924997,46.80279151207215],[27.337084743358268,46.802593793190944],[27.329988443450308,46.79666462083834],[27.31719606277722,46.797025034153336],[27.3115985363248,46.79017032895031],[27.31200239315838,46.78681302196737],[27.3082713943505,46.78808950786524],[27.305035810551228,46.78611338734195],[27.299696331891834,46.78658492073271],[27.289178646412655,46.781298131789995],[27.286222891274274,46.781968469446745],[27.279274835391657,46.79941227907961],[27.271021105551267,46.81112089179198],[27.2692290179213,46.820654090394655],[27.27127549092726,46.824478466374444],[27.268584639629253,46.829620049400496],[27.264948494498192,46.83219643213076],[27.261456134226442,46.830431269932674],[27.256127054635943,46.84426756390474],[27.261129479072803,46.845039438412776],[27.260045110040213,46.84921237390598],[27.25125528835427,46.86760156934539],[27.269637012696812,46.871111615069076],[27.270652456951208,46.869213362252054],[27.284763765639003,46.87592267645766],[27.29497307991694,46.86736920951809],[27.30785571566022,46.868662231866],[27.311191315709912,46.8630476754543],[27.32186911470728,46.8642101279652],[27.322247717226453,46.867121069076894]]],[[[27.556539725975714,46.90228909897811],[27.568303344737508,46.87746599830658],[27.570988540334007,46.88891184989765],[27.58454836786289,46.88891874969156],[27.589176581883088,46.88669698995244],[27.584765862714352,46.885756604456994],[27.58513297224773,46.87766115000872],[27.59982466891329,46.882223490678406],[27.59709683827263,46.885610561772445],[27.599375437592663,46.88660001684679],[27.605775564771037,46.88630512950649],[27.6042643116252,46.88998174080758],[27.609475363511418,46.88972043765922],[27.60687108444352,46.89338122796789],[27.615073704138638,46.893289759358616],[27.616034999667924,46.88986748910438],[27.620911729368707,46.88969488245619],[27.622277378134978,46.89239848862043],[27.631056859435482,46.8939534827815],[27.631810458565482,46.896723416965386],[27.643083124380706,46.89562853378887],[27.638664912289602,46.89303807138502],[27.639755526427365,46.885947661958184],[27.636709802964003,46.883814299291245],[27.6443248833648,46.87587804132938],[27.642833910589445,46.86585728064359],[27.646583152280847,46.86832239786713],[27.650487701477825,46.86258468377039],[27.643178425064463,46.85819915773097],[27.640623127329857,46.859512765277806],[27.629401123532812,46.85859544023797],[27.618054283887822,46.84584667288068],[27.605778083497032,46.84594414952219],[27.60337887548969,46.84062651770767],[27.610523661176963,46.83731685159137],[27.60701463361917,46.83125583314831],[27.601219399097374,46.829624561498726],[27.581553859649496,46.836622146981846],[27.577570344234683,46.82843499236344],[27.582037169032745,46.82619857364362],[27.580598871758745,46.82453128098988],[27.5700119350917,46.82732416374773],[27.548398732430663,46.82561171356406],[27.546616324074783,46.837679092893545],[27.544693895635053,46.83746596963319],[27.539931240093708,46.84939401602586],[27.53334915215529,46.848538562834534],[27.5180273059451,46.86550905782163],[27.515779895510146,46.875224341140026],[27.53307832446829,46.88211219691829],[27.521831174899372,46.89136230749337],[27.524540156672174,46.89329397263458],[27.523921016779813,46.90473967875251],[27.51996696667682,46.91453431639376],[27.53187664384858,46.91599947374742],[27.535000655770755,46.911090338922065],[27.54730285902563,46.91431897561741],[27.550268843102014,46.90742489522209],[27.556539725975714,46.90228909897811]]],[[[27.398235482546784,46.89311601010888],[27.400252363206448,46.88617506035644],[27.396554405328192,46.8854155837836],[27.39729300550595,46.88278273633588],[27.401644144097148,46.88389435012612],[27.40207473798897,46.87590000678503],[27.413908168402784,46.875850041929205],[27.41976050088536,46.87108909596036],[27.421305987507175,46.86793632773544],[27.417082125097238,46.86828840485206],[27.418469625031666,46.86392457413875],[27.415379110407574,46.86051468103445],[27.417099484003256,46.85876046419209],[27.413596568304012,46.849355774312606],[27.417581667388625,46.84906628825414],[27.418244116831975,46.839184480364764],[27.427386688114822,46.839356990970344],[27.427250296652073,46.83433244511882],[27.423493679621693,46.83567803246165],[27.419718708895886,46.83337046296661],[27.422701062614035,46.83205425036289],[27.42255695773428,46.828328120530955],[27.41983051113464,46.82801078872819],[27.4185655215161,46.82473763810173],[27.40922657756908,46.824564900107646],[27.413722033538484,46.80637728298363],[27.402957332173187,46.8069931855133],[27.397436353056573,46.80995500045178],[27.39758250663745,46.812433575457455],[27.389531326060112,46.81557849831945],[27.393230976106256,46.82005541956119],[27.381823206099085,46.8172161569077],[27.376478705305836,46.81168448052641],[27.373514720889087,46.81266924806172],[27.369551457510877,46.81071885558854],[27.369900163170186,46.80822101707624],[27.362085944690662,46.80784420739646],[27.360707968141586,46.81043937969521],[27.357048367873233,46.80826876377609],[27.354745437791376,46.82209540419544],[27.360738095678037,46.83487776001134],[27.34590379528449,46.83741058295282],[27.346009270980403,46.84074963818033],[27.353758844396694,46.84377485976216],[27.360988661656958,46.84385162374991],[27.359633391945597,46.83973946002749],[27.362134611305226,46.83925935972858],[27.362865220348926,46.84986937918369],[27.361415909319774,46.852437223791306],[27.352548511181446,46.85515702510981],[27.336664679809097,46.864429304874704],[27.3380377755636,46.874452878223664],[27.34972123476659,46.87676043264973],[27.35118439656491,46.881397447310306],[27.36161391047846,46.8838752070686],[27.36443850000753,46.88256553499582],[27.37252674222121,46.89224466754636],[27.37695136899119,46.88902635107409],[27.398235482546784,46.89311601010888]]],[[[27.756131068798304,46.889946218397846],[27.75215545206973,46.88805969830078],[27.740577009411215,46.895645078567846],[27.734554821916685,46.89210686492541],[27.72162904260051,46.905646744132504],[27.70917501142663,46.9106911205937],[27.699051498372473,46.903902056902204],[27.68316331191979,46.88448888701299],[27.67571423333549,46.88405220687068],[27.66912994060677,46.89000977674803],[27.658568844057548,46.888990735999705],[27.649835170618207,46.89650814342847],[27.6441546255922,46.897589568326],[27.642474597292757,46.90184052024561],[27.63708562210248,46.9049842130181],[27.63814705249128,46.912555088599944],[27.63051463262655,46.92194661070046],[27.628164665089677,46.92382946173521],[27.616234345737244,46.92498993082091],[27.61489060318251,46.92909522309211],[27.61816406708386,46.939481553005876],[27.607630155876386,46.94627138532906],[27.60841505494939,46.950327247088644],[27.61001280588605,46.94769481791244],[27.61675959418585,46.950029897896],[27.606344597224542,46.95724029933238],[27.608720708245528,46.97068875263407],[27.62113487934862,46.99165406143691],[27.629572301770846,46.98881925763011],[27.637944978526733,46.97700947622611],[27.654749613587395,46.976463723031046],[27.66001508652602,46.97362226110189],[27.667725145337258,46.96538138935771],[27.68343370674032,46.95512405688981],[27.69366793656636,46.937145384110586],[27.705381436013308,46.94008729880529],[27.710543352804375,46.931167515436535],[27.71512742146579,46.932298446181164],[27.724701243878695,46.91999356170135],[27.732969400764183,46.92226735684784],[27.737155656743624,46.916136817086254],[27.739484369670354,46.91671945651587],[27.744569294289665,46.90243875012431],[27.756131068798304,46.889946218397846]]],[[[27.682495487721027,46.69077279463351],[27.68539182173813,46.68557816563783],[27.671858538092167,46.682888627136066],[27.67374394677142,46.67945388525501],[27.679917138206118,46.67767198802163],[27.670923711269268,46.66931151903875],[27.64361339015259,46.70113070230218],[27.640342164185423,46.69926939315244],[27.633935889904915,46.70386679915273],[27.62849800190449,46.70025796562646],[27.62364635821739,46.7035710027796],[27.61631007852649,46.69603624888005],[27.60251755312984,46.70502594962669],[27.598851068923203,46.71012739230752],[27.588300535810745,46.71650040861978],[27.586175787036076,46.71579434652691],[27.58109368005386,46.72157964382938],[27.573863765437913,46.71901288059914],[27.57082700877359,46.72483144213617],[27.559662239996058,46.73098268484513],[27.557185639608196,46.73709678684068],[27.545019512874916,46.736832472933656],[27.527285258167336,46.75274912302108],[27.52434446420214,46.751496409420454],[27.519832974021057,46.755494794804925],[27.51199367144298,46.7524744680298],[27.510201742865362,46.75542655318159],[27.518931545327906,46.75921547085158],[27.515632489491995,46.762385376718576],[27.53036745549149,46.76639009730668],[27.53394257958882,46.76395224553283],[27.542402664761347,46.76769256691205],[27.549219091016877,46.76528399980866],[27.564612251271676,46.77400274467722],[27.565972517854657,46.77180866635788],[27.576845363667985,46.77561045388447],[27.586882620804573,46.769902114253036],[27.59108853931571,46.7736092617744],[27.587875319916076,46.776678686684626],[27.590761213239023,46.77821070937564],[27.588388314675996,46.78320692239658],[27.595046434062766,46.7841576555125],[27.60056615635782,46.76088355554704],[27.603031322132164,46.7602927057869],[27.60000657228691,46.75576587208799],[27.603082516449607,46.7583116958361],[27.60981235885859,46.74728463330071],[27.61368658047554,46.74876656790716],[27.6094804567283,46.75533377372869],[27.61323701541533,46.763774137198205],[27.61956445525027,46.76472131243117],[27.63677514955837,46.72346488748507],[27.652694739138457,46.70381987443106],[27.650096610600553,46.699306035034205],[27.660784473705895,46.696185608428266],[27.65740023637231,46.700846599240606],[27.65988864676406,46.70113572530847],[27.65727690593296,46.71225788234645],[27.672595606247043,46.713380126987076],[27.676838247667064,46.71646508917386],[27.68189669266944,46.713449526563544],[27.681625306561926,46.70953482892836],[27.670333582830324,46.68971499519353],[27.682495487721027,46.69077279463351]]],[[[27.9420125154112,46.85517631976477],[27.979573389987905,46.857653465968276],[28.000302300024565,46.81656797758826],[28.00705878886479,46.81926726443564],[28.013849602157865,46.80616846150338],[28.017929792962846,46.80551103608078],[28.01861883737312,46.80012169773333],[28.014544154650917,46.799576769334294],[28.014166253255702,46.78130977286967],[28.009780204066555,46.78057475103119],[28.010247882234395,46.76953090081317],[28.015458954225643,46.762617917126036],[28.011944914573316,46.76192767938659],[28.012111352510676,46.75240959800302],[28.009755138766803,46.74969812045947],[28.01315128349138,46.74839756929737],[28.012959077010574,46.744124232397866],[28.010619799499032,46.74453255483739],[27.998214329581934,46.733060924616865],[27.989299534736105,46.74022541010815],[27.987710175476963,46.74791832666654],[27.981538656011008,46.753120574643425],[27.957563603550547,46.756023707900745],[27.955018673260756,46.753290366661034],[27.9491282369918,46.75254747059307],[27.9463278102727,46.754352969705955],[27.942439756029884,46.752069987400795],[27.930103485896936,46.769036539024924],[27.93225878800565,46.76999914449489],[27.927225039867114,46.77598411726073],[27.930304694659366,46.77773352624186],[27.920430332970074,46.78522372824568],[27.925683114484315,46.788536814945594],[27.92182351544921,46.792962900989224],[27.931077572163773,46.79787084919512],[27.927292925493326,46.80657763651935],[27.934926151786566,46.80919124819354],[27.928573820208594,46.819399878731176],[27.943833695512787,46.82250616108164],[27.935275373042696,46.832373019737574],[27.94101638959002,46.83406017719271],[27.94116131034325,46.837657531503865],[27.928146487272972,46.83982742266212],[27.93306485338413,46.84408571367337],[27.93851985482808,46.84325344062196],[27.93955718767671,46.846725275707456],[27.92146125941055,46.86315534475353],[27.92828517208859,46.86640753732619],[27.936589010486674,46.8647964578599],[27.9420125154112,46.85517631976477]]],[[[27.47669045848333,46.79680392900217],[27.48775899887657,46.77858310499778],[27.491306641362925,46.7761215058029],[27.49725485295926,46.77608925625639],[27.503960833879603,46.770663624433766],[27.51144342502324,46.768097625994045],[27.518931545327906,46.75921547085158],[27.510201742865362,46.75542655318159],[27.51199367144298,46.7524744680298],[27.486612847229054,46.74291094537217],[27.479086597727775,46.73706111115118],[27.466709954258466,46.73541335147887],[27.464118021536965,46.740028977026064],[27.45587250932387,46.73748307678891],[27.450980826311493,46.74131052267267],[27.45356256579645,46.7431606119885],[27.449087428576416,46.74569274006138],[27.432377832555343,46.74131290105821],[27.417468061583584,46.74100610244664],[27.4055848027968,46.7373702497494],[27.398915490461594,46.74752577537349],[27.387563268706877,46.75142555489456],[27.380332029319888,46.760132119601565],[27.373765121060988,46.76288096425847],[27.383769159633708,46.77321589461668],[27.390895356112836,46.77513196185567],[27.38923080271382,46.77870452367996],[27.39290315168714,46.7825098003092],[27.391348133549755,46.78381897423588],[27.395940541931754,46.78640894796599],[27.40174696795793,46.7757342508516],[27.40907598001589,46.77834541242305],[27.407992247936026,46.7852116132429],[27.41281354087814,46.787184697347826],[27.414403432948234,46.78370382881673],[27.411360515704807,46.782340151400106],[27.412293112479276,46.77858871088775],[27.416939892106083,46.7812865747219],[27.418765138900103,46.77989464933882],[27.41816458631027,46.78637865455811],[27.410273438128225,46.799792529474],[27.41361470187923,46.80624501572987],[27.42852154758438,46.80092115221713],[27.447504769145088,46.797674991744444],[27.45096790314228,46.795144660809385],[27.4639974627736,46.79789993453077],[27.472791516237095,46.7954728080994],[27.47669045848333,46.79680392900217]]],[[[27.87083114844425,46.85908105199125],[27.86839926087138,46.85057610575167],[27.869660102286844,46.83967932546958],[27.877014532557585,46.83026097960601],[27.890245692616215,46.82076391001661],[27.879911752855573,46.81761577611075],[27.8696963972605,46.826049139465034],[27.859568132228667,46.82223945117632],[27.862381574332613,46.809140936847804],[27.859671262660807,46.805225537727786],[27.85269347659163,46.804893856780176],[27.853983033762326,46.79949113399158],[27.849664189609015,46.79754686936487],[27.85525981688553,46.786422906233504],[27.844801479054397,46.7771499339852],[27.8058283495733,46.80215125657271],[27.79121779358215,46.80218844057756],[27.79549059077719,46.82649578282857],[27.790441703512503,46.83377708856659],[27.786246605242102,46.83384243261257],[27.78681514669596,46.84019329934321],[27.78293022848103,46.840715314134705],[27.781819765230047,46.844966489994256],[27.792355184395234,46.852603399103046],[27.79139003056731,46.856412941187585],[27.795802404717467,46.85683413025102],[27.794835520868517,46.859455066014746],[27.797500187411273,46.860394151801394],[27.81605083078622,46.854854283765405],[27.829661448494612,46.85349334975461],[27.830023432803742,46.85929864643113],[27.83623681418141,46.86476181251936],[27.84696722766918,46.865292362923086],[27.853589716398485,46.86105645823571],[27.86188559421367,46.86055528627537],[27.866619167398316,46.855959821727474],[27.87083114844425,46.85908105199125]]],[[[27.515779895510146,46.875224341140026],[27.51948988541328,46.86292835591193],[27.527211884703124,46.85733229542094],[27.53334915215529,46.848538562834534],[27.539931240093708,46.84939401602586],[27.544693895635053,46.83746596963319],[27.546616324074783,46.837679092893545],[27.546294606286413,46.83153115473241],[27.504842860608864,46.82501211296761],[27.503418416902228,46.82188644157138],[27.492936682897987,46.81869782565867],[27.49341280947924,46.80974735388706],[27.496029916845217,46.80891413971723],[27.497048620736933,46.80307519392741],[27.492706172109347,46.805135567360246],[27.488407379072008,46.803045745620786],[27.49231504723588,46.80025367280952],[27.48508492686307,46.79916834121262],[27.479327859140316,46.793834997262465],[27.47669045848333,46.79680392900217],[27.472791516237095,46.7954728080994],[27.4639974627736,46.79789993453077],[27.45096790314228,46.795144660809385],[27.447504769145088,46.797674991744444],[27.42852154758438,46.80092115221713],[27.41361470187923,46.80624501572987],[27.40922657756908,46.824564900107646],[27.417035527000913,46.82379156732573],[27.41983051113464,46.82801078872819],[27.42255695773428,46.828328120530955],[27.422701062614035,46.83205425036289],[27.419347244226753,46.832148657308935],[27.42072023617283,46.83447508308678],[27.423493679621693,46.83567803246165],[27.427250296652073,46.83433244511882],[27.427386688114822,46.839356990970344],[27.418244116831975,46.839184480364764],[27.417581667388625,46.84906628825414],[27.413596568304012,46.849355774312606],[27.417099484003256,46.85876046419209],[27.415379110407574,46.86051468103445],[27.418469625031666,46.86392457413875],[27.417082125097238,46.86828840485206],[27.421305987507175,46.86793632773544],[27.424589858825943,46.86251157144868],[27.446910518004564,46.865537829169405],[27.446058749515966,46.867799025891145],[27.45476523836378,46.869352254426396],[27.459930649731515,46.86235030878565],[27.46719150281212,46.86419685861354],[27.462878598320824,46.86522181739131],[27.461519098090662,46.868134748207574],[27.471680878027133,46.871156190430156],[27.475517975580544,46.866371861053146],[27.489582461366282,46.869633986297224],[27.486455393415177,46.87509247967774],[27.492646727106713,46.87678070358582],[27.500269168779088,46.877552821179655],[27.515779895510146,46.875224341140026]]],[[[27.989299534736105,46.74022541010815],[28.005412166868325,46.72738546487804],[28.002818478871006,46.723494602439466],[27.99739471197808,46.72667138515981],[27.995380354707216,46.725549153911956],[28.005847118199185,46.71456641742664],[28.00299342719753,46.70470407829176],[27.99954348508525,46.701991384167655],[28.005487958676817,46.69057928038288],[28.005255601020018,46.682922961093375],[27.994920015910264,46.68630015970245],[27.995965831447048,46.68401407357243],[27.987681483945465,46.682547474499394],[27.986874927515426,46.67773274464864],[27.98133084829382,46.673231559105254],[27.979204282457623,46.67268827725867],[27.97514550458221,46.67639555859495],[27.965034780520554,46.672122773933786],[27.956623830114133,46.65694946731962],[27.943550115278942,46.645314130941244],[27.944078821409096,46.64307639848927],[27.930035423055113,46.63722095833382],[27.90229835346709,46.65796070357924],[27.895476663572147,46.666891520843365],[27.901211496017737,46.66998801074046],[27.88451260177574,46.694680915650125],[27.879438261770417,46.6932555953715],[27.868867341191386,46.710515588452594],[27.89265934003196,46.716487136274125],[27.89049784508361,46.7193497690324],[27.898908232346432,46.72330887279842],[27.898545992620438,46.72917167333815],[27.903044489822157,46.727310448643365],[27.910144365676334,46.73030485031605],[27.913201367320916,46.72687081510585],[27.911411511306188,46.72601390849286],[27.92272974815798,46.716576397174755],[27.93396107260596,46.71989665945977],[27.925368839491465,46.723923119982196],[27.922557904813377,46.72753586317829],[27.915580687969417,46.72862507527397],[27.927119804094716,46.7337443027322],[27.923878580056854,46.73711337190764],[27.928979751559528,46.73777535355781],[27.924196474886028,46.74060826036487],[27.925753990261555,46.74136680763542],[27.93665121835815,46.7307212253635],[27.94394570086385,46.728905441340345],[27.946400200800028,46.73715381459899],[27.93954459168517,46.73612058218026],[27.93247647894979,46.75011105699133],[27.9463278102727,46.754352969705955],[27.9491282369918,46.75254747059307],[27.959738015975898,46.75599920132655],[27.981538656011008,46.753120574643425],[27.987710175476963,46.74791832666654],[27.989299534736105,46.74022541010815]]],[[[27.676531953914882,46.88382130115694],[27.692155797026125,46.88703607944354],[27.7058237494516,46.88297085427436],[27.71195315355648,46.88313889870086],[27.71959745372905,46.880807555084466],[27.727222675527617,46.87378108372355],[27.698509276439044,46.863305677288416],[27.690565156407725,46.85732190522861],[27.726617810256062,46.826467570211136],[27.72364376403467,46.82684460749546],[27.710440061378726,46.812059731211185],[27.71374178042321,46.8048473090226],[27.71064212418164,46.80313586512118],[27.706100533332997,46.80526009329731],[27.70222711316577,46.80270697615898],[27.694811396684287,46.811017073077785],[27.682332743049923,46.80388351626459],[27.684650076535195,46.80008522251439],[27.68131836766298,46.797847602476274],[27.667938589483658,46.79277128761714],[27.665998431217023,46.79465683928249],[27.656174957560737,46.793721759716],[27.65733398133189,46.81044771806366],[27.654295512968915,46.80998743652005],[27.65204546257068,46.81636439880849],[27.649101323676124,46.81842483158083],[27.646454151263036,46.81586126983688],[27.64148522523412,46.81577255118012],[27.635678380465336,46.8232444077388],[27.629168245949316,46.820772821936814],[27.625162577583254,46.82475203448716],[27.62047665042664,46.823127329164606],[27.61372216749686,46.83339618152391],[27.608278074391738,46.83184666776898],[27.610523661176963,46.83731685159137],[27.60337887548969,46.84062651770767],[27.60597044103393,46.846014485135456],[27.618054283887822,46.84584667288068],[27.629401123532812,46.85859544023797],[27.640623127329857,46.859512765277806],[27.643178425064463,46.85819915773097],[27.650487701477825,46.86258468377039],[27.646583152280847,46.86832239786713],[27.642833910589445,46.86585728064359],[27.6443248833648,46.87587804132938],[27.636709802964003,46.883814299291245],[27.639755526427365,46.885947661958184],[27.638664912289602,46.89303807138502],[27.6441184555583,46.89766688436794],[27.649835170618207,46.89650814342847],[27.658568844057548,46.888990735999705],[27.66912994060677,46.89000977674803],[27.676531953914882,46.88382130115694]]],[[[27.92749762238467,46.82309714435177],[27.934926151786566,46.80919124819354],[27.927292925493326,46.80657763651935],[27.931077572163773,46.79787084919512],[27.92182351544921,46.792962900989224],[27.925683114484315,46.788536814945594],[27.920430332970074,46.78522372824568],[27.930304694659366,46.77773352624186],[27.927225039867114,46.77598411726073],[27.93225878800565,46.76999914449489],[27.930103485896936,46.769036539024924],[27.94173871672944,46.75349260390868],[27.93247647894979,46.75011105699133],[27.93954459168517,46.73612058218026],[27.945811534112686,46.73822366079391],[27.947288171010303,46.73471503182],[27.94394570086385,46.728905441340345],[27.94076973716601,46.7286294786016],[27.925753990261555,46.74136680763542],[27.924196474886028,46.74060826036487],[27.92897497044309,46.73796903051062],[27.923878580056854,46.73711337190764],[27.927119804094716,46.7337443027322],[27.915580687969417,46.72862507527397],[27.922557904813377,46.72753586317829],[27.925368839491465,46.723923119982196],[27.93396107260596,46.71989665945977],[27.92272974815798,46.716576397174755],[27.911411511306188,46.72601390849286],[27.913201367320916,46.72687081510585],[27.910144365676334,46.73030485031605],[27.903044489822157,46.727310448643365],[27.89746615624628,46.737899282578994],[27.871135543272512,46.73165554465451],[27.866574281816003,46.73562203451537],[27.864678638338443,46.741973655890455],[27.873720265079154,46.74515456762986],[27.866757521338826,46.7582440736828],[27.861918258735866,46.757012571392785],[27.844801479054397,46.7771499339852],[27.85525981688553,46.786422906233504],[27.849664189609015,46.79754686936487],[27.853983033762326,46.79949113399158],[27.85269347659163,46.804893856780176],[27.859671262660807,46.805225537727786],[27.862381574332613,46.809140936847804],[27.859568132228667,46.82223945117632],[27.8696963972605,46.826049139465034],[27.879911752855573,46.81761577611075],[27.890245692616215,46.82076391001661],[27.885927284339953,46.82378043543462],[27.8875666931517,46.83166466547354],[27.880212092150288,46.84343928511425],[27.88463555461841,46.84377883017416],[27.891445601338894,46.834587563659234],[27.892118395879177,46.82868601830888],[27.889291387175795,46.82688575423654],[27.895031114560933,46.81646095804032],[27.888289906852,46.813737696404225],[27.895190323183204,46.80724054209022],[27.902208784577976,46.80945593759614],[27.90884496667974,46.805829025079646],[27.91660026424592,46.81134910816486],[27.92033013489543,46.810599239823894],[27.916766012920974,46.81905266348995],[27.92071021991278,46.82003822357235],[27.919414748784348,46.822003512688205],[27.92749762238467,46.82309714435177]]],[[[27.582037169032745,46.82619857364362],[27.589951172569965,46.824395976802315],[27.58092827214139,46.82112058777313],[27.574668417800318,46.82260437763917],[27.562503921294304,46.81980281450046],[27.56214401701592,46.80185950824614],[27.563192052139858,46.80005367721955],[27.56355851770002,46.803106011357634],[27.565915465120426,46.80333505037571],[27.574484650806657,46.77753723801187],[27.557214591053093,46.770702537337236],[27.55235616994292,46.76604509753114],[27.549219091016877,46.76528399980866],[27.542402664761347,46.76769256691205],[27.53394257958882,46.76395224553283],[27.53036745549149,46.76639009730668],[27.515632489491995,46.762385376718576],[27.508999253892313,46.76959091872934],[27.503960833879603,46.770663624433766],[27.49725485295926,46.77608925625639],[27.491306641362925,46.7761215058029],[27.48775899887657,46.77858310499778],[27.479327859140316,46.793834997262465],[27.48508492686307,46.79916834121262],[27.49231504723588,46.80025367280952],[27.488407379072008,46.803045745620786],[27.492706172109347,46.805135567360246],[27.497048620736933,46.80307519392741],[27.496029916845217,46.80891413971723],[27.49341280947924,46.80974735388706],[27.492936682897987,46.81869782565867],[27.503418416902228,46.82188644157138],[27.503019911211673,46.824313285489104],[27.542959193097946,46.831469150508816],[27.547336305753838,46.831537659811616],[27.548398732430663,46.82561171356406],[27.5700119350917,46.82732416374773],[27.57830944320065,46.82430050326816],[27.582037169032745,46.82619857364362]]],[[[27.741385982122154,46.81606377452126],[27.75166134147764,46.80596195368624],[27.74945855937179,46.804938727288516],[27.757060864436976,46.795231149559285],[27.743689060739978,46.79615021985564],[27.74714725363617,46.79234431728828],[27.741956229768903,46.78985243949341],[27.740294163724915,46.79165381736448],[27.731459591275303,46.785776181425675],[27.726392045106802,46.78481429615438],[27.725212677060682,46.78021967378176],[27.72994647541966,46.7638592577587],[27.728330526925447,46.75772277477893],[27.730616046687523,46.754870625887385],[27.717680623269057,46.75704830879932],[27.71221356757728,46.76409286038617],[27.70613384315101,46.76570989957946],[27.698586499102067,46.773071584225626],[27.678563796923815,46.774383465102375],[27.68083564459205,46.77122040456164],[27.67878061714473,46.76730162245479],[27.672410396542304,46.76877034109386],[27.67244511333874,46.77274534941682],[27.666941697171254,46.78042882997492],[27.66983717997882,46.78762077701749],[27.6680718663951,46.7935553999703],[27.684650076535195,46.80008522251439],[27.682332743049923,46.80388351626459],[27.684955392455606,46.80617137507132],[27.694811396684287,46.811017073077785],[27.70222711316577,46.80270697615898],[27.706100533332997,46.80526009329731],[27.71064212418164,46.80313586512118],[27.71374178042321,46.8048473090226],[27.710440061378726,46.812059731211185],[27.723598784586756,46.82641325324147],[27.731100549069605,46.81010174254028],[27.741385982122154,46.81606377452126]]],[[[28.03487366220625,46.84092403029936],[28.048329148855505,46.81963612634377],[28.054557075949965,46.81423766013594],[28.060156539360165,46.816252485811525],[28.07390591665402,46.80038424348994],[28.089679955695196,46.80653915409044],[28.0944544029006,46.80308566970894],[28.081101419523346,46.795516488955755],[28.08993341632699,46.790448228126536],[28.09832346586052,46.79502585973459],[28.100337033497247,46.78469941901488],[28.10351501370374,46.780627348283204],[28.106452922785614,46.78178832012095],[28.11141684528534,46.77571086549523],[28.105921418710587,46.773598726770786],[28.103540676401803,46.774769646295724],[28.086800185251505,46.76552229905106],[28.080212779296467,46.771197022857855],[28.03958616973931,46.76363054000731],[28.032371404873384,46.76637333505163],[28.02647899301918,46.76614497556546],[28.02605986334803,46.76260255082383],[28.01541681188593,46.76280417795484],[28.010247882234395,46.76953090081317],[28.009751044729583,46.78021088167545],[28.014166253255702,46.78130977286967],[28.014544154650917,46.799576769334294],[28.01861883737312,46.80012169773333],[28.017929792962846,46.80551103608078],[28.013849602157865,46.80616846150338],[28.00705878886479,46.81926726443564],[28.000302300024565,46.81656797758826],[27.99022738575213,46.838409766747596],[28.008431537779153,46.83947098620693],[28.014684647541188,46.83379808735032],[28.021901792762154,46.833441478924236],[28.02728263083182,46.838609344581556],[28.03487366220625,46.84092403029936]]],[[[27.41361470187923,46.80624501572987],[27.410273438128225,46.799792529474],[27.41816458631027,46.78637865455811],[27.418765138900103,46.77989464933882],[27.416939892106083,46.7812865747219],[27.412293112479276,46.77858871088775],[27.411360515704807,46.782340151400106],[27.414403432948234,46.78370382881673],[27.41281354087814,46.787184697347826],[27.407992247936026,46.7852116132429],[27.40907598001589,46.77834541242305],[27.40174696795793,46.7757342508516],[27.395940541931754,46.78640894796599],[27.391348133549755,46.78381897423588],[27.39290315168714,46.7825098003092],[27.38923080271382,46.77870452367996],[27.390895356112836,46.77513196185567],[27.383769159633708,46.77321589461668],[27.376564359738015,46.764440529142306],[27.36790333963454,46.76044897742608],[27.361090506723436,46.761030966250985],[27.356064180191968,46.76379846281239],[27.35342464540497,46.77407450474327],[27.349169179394668,46.77646149815744],[27.352860633590165,46.779166771314024],[27.346262997145413,46.781523830006726],[27.333538180955852,46.77731935854038],[27.327697574638208,46.778018917205884],[27.311201225048887,46.78829191054186],[27.315553620486238,46.796337321884316],[27.32272686260833,46.79774114475048],[27.329988443450308,46.79666462083834],[27.337758045141715,46.80288266316181],[27.342385068220278,46.8021285934301],[27.34790974357002,46.806453415221306],[27.354191193013083,46.806814568863054],[27.35541284354713,46.813169564694505],[27.356842596345935,46.808320583199766],[27.360707968141586,46.81043937969521],[27.362085944690662,46.80784420739646],[27.369900163170186,46.80822101707624],[27.369551457510877,46.81071885558854],[27.373514720889087,46.81266924806172],[27.376478705305836,46.81168448052641],[27.381823206099085,46.8172161569077],[27.39207774673948,46.819964718601014],[27.389531326060112,46.81557849831945],[27.39758250663745,46.812433575457455],[27.397811650820067,46.80971112746808],[27.402957332173187,46.8069931855133],[27.41361470187923,46.80624501572987]]]]},"properties":{"alert_id":"24ff90550d2b4eb5","source":"nowcasting","alert_type":"nowcasting","feature_id":"5c9cee5dbf8cde9605","judet_cod":"VS","judet_nume":"Vaslui","county_code":"VS","county_name":"Vaslui","cod_judet":"VS","cod_culoare":1,"cod_culoare_nume":"Galben","culoare":"1","cod":"Galben","fenomen_principal":"Local ceață ce determină vizibilitate redusă sub 200 m.","fenomen_group":"ceata","zona_text":"Județul Suceava: Vatra Dornei, Șaru Dornei, Dorna Candrenilor, Dorna-Arini, Iacobeni, Panaci, Poiana Stampei, Coșna;<br>Județul Neamţ: Roman, Săbăoani, Tămășeni, Cordun, Horia, Doljești, Trifești, Ion Creangă, Sagna, Secuieni, Oniceni, Valea Ursului, Bozieni, Stănița, Gâdinți, Pâncești, Bira, Poienari;<br>Județul Vaslui: Duda-Epureni, Codăești, Drânceni, Văleni, Zăpodeni, Solești, Băcești, Dumești, Rebricea, Todirești, Tăcuta, Ștefan cel Mare, Bunești-Averești, Oșești, Miclești, Negrești, Tătărăni, Dănești, Boțești, Vulturești, Ferești, Arsura, Rafaila;<br>","zona_nume":"Vaslui - localitati","zone_name":"Vaslui - localitati","display_name":"Vaslui - localitati","localities":["Duda-Epureni","Codăești","Drânceni","Văleni","Zăpodeni","Solești","Băcești","Dumești","Rebricea","Todirești","Tăcuta","Ștefan cel Mare","Bunești-Averești","Oșești","Miclești","Negrești","Tătărăni","Dănești","Boțești","Vulturești","Ferești","Arsura","Rafaila"],"geometry_source":"uat_match","match_confidence":"medium","interval_text":"","interval_start":"2026-07-11T06:30:00","valid_from":"2026-07-11T06:30:00","valid_to":"2026-07-11T09:00:00","interval_valabilitate_text":"","interval_end":"2026-07-11T09:00:00","data_expirare":"2026-07-11T09:00:00","mesaj_plain":"Local ceață ce determină vizibilitate redusă sub 200 m.","source_url":"","source_label":"","notes":"","durata_ore":2.5,"zi":"2026-07-11"}}]}