{"type":"FeatureCollection","metadata":{"date":"2026-09-18","active_alerts":[{"alert_id":"e76bfdc02fff790f","source":"nowcasting","alert_type":"nowcasting","interval_text":"","interval_start":"2026-09-18T16:40:00","interval_end":"2026-09-18T17:30:00","durata_ore":0.8,"valid_from":"2026-09-18T16:40:00","valid_to":"2026-09-18T17:30:00","cod_culoare_max":1,"fenomene_pe_cod":{"1":"Local averse torențiale care vor acumula 15...25 l/mp, descărcări electrice, intensificări ale vântului cu viteze de 50...70 km/h, grindină de mici dimensiuni (1...2 cm)."},"judete_afectate":["BT","IS","SV"],"judete_count":3,"judete_culori":{"BT":1,"SV":1,"IS":1},"color_counts":{"1":3},"text_alerta_html":"","message":"Local averse torențiale care vor acumula 15...25 l/mp, descărcări electrice, intensificări ale vântului cu viteze de 50...70 km/h, grindină de mici dimensiuni (1...2 cm).","feature_meta":{"BT":{"county_code":"BT","county_name":"Botoșani","zone_name":"Botoșani - localitati","display_name":"Botoșani - localitati","localities":["Botoșani","Flămânzi","Vorona","Ungureni","Corni","Mihai Eminescu","Frumușica","Albești","Trușești","Bălușeni","Lunca","Tudora","Vlădeni","Cristești","Vorniceni","Curtești","Răchiți","Copălău","Gorbănești","Coșula","Todireni","Prăjeni","Sulița","Dângeni","Stăuceni","Roma","Unțeni","Nicșeni","Corlăteni","Leorda","Blândești","Brăești","Dimăcheni","Bucecea"],"geometry_source":"coordGis","match_confidence":"high"},"SV":{"county_code":"SV","county_name":"Suceava","zone_name":"Suceava - localitati","display_name":"Suceava - localitati","localities":["Dolhasca","Liteni","Salcea","Dumbrăveni","Udești","Verești","Fântânele","Dolhești","Siminicea"],"geometry_source":"uat_match","match_confidence":"medium"},"IS":{"county_code":"IS","county_name":"Iași","zone_name":"Iași - localitati","display_name":"Iași - localitati","localities":["Hârlău","Deleni","Scobinți","Lespezi","Sirețel"],"geometry_source":"uat_match","match_confidence":"medium"}},"source_url":"","source_label":"","notes":""},{"alert_id":"a7bacb6eb72e8e5d","source":"nowcasting","alert_type":"nowcasting","interval_text":"","interval_start":"2026-09-18T07:05:00","interval_end":"2026-09-18T09:00:00","durata_ore":1.9,"valid_from":"2026-09-18T07:05:00","valid_to":"2026-09-18T09:00:00","cod_culoare_max":1,"fenomene_pe_cod":{"1":"Ceață ce determină vizibilitate redusă, local sub 200 m și izolat sub 50 m."},"judete_afectate":["TL"],"judete_count":1,"judete_culori":{"TL":1},"color_counts":{"1":1},"text_alerta_html":"","message":"Ceață ce determină vizibilitate redusă, local sub 200 m și izolat sub 50 m.","feature_meta":{"TL":{"county_code":"TL","county_name":"Tulcea","zone_name":"Tulcea - localitati","display_name":"Tulcea - localitati","localities":["Tulcea","Somova","Chilia Veche","Nufăru","Beștepe","Crișan","Maliuc","Pardina","Ceatalchioi"],"geometry_source":"coordGis","match_confidence":"high"}},"source_url":"","source_label":"","notes":""}],"alert_count":2,"general_alert_count":0,"nowcasting_alert_count":2,"manual_nowcasting_alert_count":0,"feature_count":4,"general_feature_count":0,"nowcasting_feature_count":4,"max_color":1,"general_max_color":0,"nowcasting_count":2,"has_nowcasting":true,"has_manual_nowcasting":false,"calendar_badge":"NC","sources":["nowcasting"],"alerts_by_county":{"BT":[{"alert_id":"e76bfdc02fff790f","cod":"Galben","culoare":"1","fenomen_group":"ploi/vijelii","source":"nowcasting"}],"IS":[{"alert_id":"e76bfdc02fff790f","cod":"Galben","culoare":"1","fenomen_group":"ploi/vijelii","source":"nowcasting"}],"SV":[{"alert_id":"e76bfdc02fff790f","cod":"Galben","culoare":"1","fenomen_group":"ploi/vijelii","source":"nowcasting"}],"TL":[{"alert_id":"a7bacb6eb72e8e5d","cod":"Galben","culoare":"1","fenomen_group":"ceata","source":"nowcasting"}]},"max_by_county":{"BT":{"max_color":1,"alert_count":1,"phenomena":["ploi/vijelii"]},"IS":{"max_color":1,"alert_count":1,"phenomena":["ploi/vijelii"]},"SV":{"max_color":1,"alert_count":1,"phenomena":["ploi/vijelii"]},"TL":{"max_color":1,"alert_count":1,"phenomena":["ceata"]}}},"features":[{"type":"Feature","geometry":{"type":"MultiPolygon","coordinates":[[[[26.478625,47.854582],[26.570268,47.920764],[26.668961,47.946741],[26.767654,47.942019],[26.873397,47.904226],[26.975615,47.807257],[27.014387,47.74567],[27.098981,47.657902],[27.11308,47.584253],[27.091931,47.522402],[27.067258,47.486686],[26.97209,47.460478],[26.908644,47.417566],[26.771179,47.379391],[26.626664,47.386551],[26.527971,47.412795],[26.496249,47.51288],[26.40108,47.610398],[26.365833,47.695874],[26.379932,47.778842],[26.478625,47.854582]]]]},"properties":{"alert_id":"e76bfdc02fff790f","source":"nowcasting","alert_type":"nowcasting","feature_id":"3ad6f8fc04af11565c","judet_cod":"BT","judet_nume":"Botoșani","county_code":"BT","county_name":"Botoșani","cod_judet":"BT","cod_culoare":1,"cod_culoare_nume":"Galben","culoare":"1","cod":"Galben","fenomen_principal":"Local averse torențiale care vor acumula 15...25 l/mp, descărcări electrice, intensificări ale vântului cu viteze de 50...70 km/h, grindină de mici dimensiuni (1...2 cm).","fenomen_group":"ploi/vijelii","zona_text":"Județul Botoşani: Botoșani, Flămânzi, Vorona, Ungureni, Corni, Mihai Eminescu, Frumușica, Albești, Trușești, Bălușeni, Lunca, Tudora, Vlădeni, Cristești, Vorniceni, Curtești, Răchiți, Copălău, Gorbănești, Coșula, Todireni, Prăjeni, Sulița, Dângeni, Stăuceni, Roma, Unțeni, Nicșeni, Corlăteni, Leorda, Blândești, Brăești, Dimăcheni, Bucecea;<br>Județul Suceava: Dolhasca, Liteni, Salcea, Dumbrăveni, Udești, Verești, Fântânele, Dolhești, Siminicea;<br>Județul Iaşi: Hârlău, Deleni, Scobinți, Lespezi, Sirețel;<br>","zona_nume":"Botoșani - localitati","zone_name":"Botoșani - localitati","display_name":"Botoșani - localitati","localities":["Botoșani","Flămânzi","Vorona","Ungureni","Corni","Mihai Eminescu","Frumușica","Albești","Trușești","Bălușeni","Lunca","Tudora","Vlădeni","Cristești","Vorniceni","Curtești","Răchiți","Copălău","Gorbănești","Coșula","Todireni","Prăjeni","Sulița","Dângeni","Stăuceni","Roma","Unțeni","Nicșeni","Corlăteni","Leorda","Blândești","Brăești","Dimăcheni","Bucecea"],"geometry_source":"coordGis","match_confidence":"high","interval_text":"","interval_start":"2026-09-18T16:40:00","valid_from":"2026-09-18T16:40:00","valid_to":"2026-09-18T17:30:00","interval_valabilitate_text":"","interval_end":"2026-09-18T17:30:00","data_expirare":"2026-09-18T17:30:00","mesaj_plain":"Local averse torențiale care vor acumula 15...25 l/mp, descărcări electrice, intensificări ale vântului cu viteze de 50...70 km/h, grindină de mici dimensiuni (1...2 cm).","source_url":"","source_label":"","notes":"","durata_ore":0.8,"zi":"2026-09-18"}},{"type":"Feature","geometry":{"type":"MultiPolygon","coordinates":[[[[26.718789945439912,47.51527932729272],[26.730444308771474,47.51176844850075],[26.73701974568325,47.50634185259081],[26.750927017920915,47.503034358854194],[26.774118730082925,47.50386556769808],[26.78790838643273,47.49986368857576],[26.79483674066026,47.50225666795497],[26.796767445332893,47.50083414269739],[26.812505310199708,47.50770360941017],[26.81780075904201,47.50801247553756],[26.82841400111915,47.501056221815325],[26.835838203021677,47.50140539091381],[26.837707514241657,47.49725097451759],[26.84731820685902,47.49523915135288],[26.86450798318217,47.49507011152506],[26.866094948667655,47.49643754138532],[26.879142350551536,47.49163591741697],[26.90955087927183,47.4920095422396],[26.92023050604925,47.49395595399901],[26.92925814052511,47.49217323711646],[26.945824626555783,47.4972693020271],[26.968011769873012,47.49353997869553],[26.977366630316443,47.49621852504642],[26.98337171784452,47.490760142068694],[26.99053570464912,47.49256278298961],[27.008248849937768,47.47544088398629],[27.005196174400332,47.481616084202415],[27.006789642670913,47.48551086696974],[27.012290730197307,47.480048493148864],[27.009570419874674,47.47826985156395],[27.016591703088228,47.46911815795435],[27.013230021855783,47.46863323707966],[27.01000702478001,47.47249499997614],[27.012029851104455,47.46957702675842],[27.005262094975414,47.46650590495399],[27.00916368785292,47.462643561097295],[27.012370050643344,47.46454198937715],[27.022406128524704,47.461323770407375],[27.02725633305992,47.45753219532646],[27.02675647428761,47.45403928077291],[27.033687136359692,47.4487142664331],[26.98721904671522,47.44305709810177],[26.968603299142035,47.43615303183344],[26.969522246665747,47.43179855242503],[26.966758024950092,47.43040591991813],[26.951754711775965,47.43011316262166],[26.948930692961827,47.43746123252192],[26.920840452099274,47.43488080569892],[26.91758036638909,47.4374374982304],[26.889877376311834,47.430697954089986],[26.85058301762954,47.440842547107586],[26.845011084230585,47.44450176683242],[26.846626169087024,47.446396391085294],[26.840541604973787,47.45821664774377],[26.83266846948886,47.459407246808325],[26.827826926804885,47.44961176589607],[26.813336679630066,47.44357856055889],[26.816309118112503,47.44068879077529],[26.821416879221676,47.4403982272807],[26.834913533186253,47.44575302599027],[26.842409651655206,47.43789838839149],[26.83140598270769,47.42907274116997],[26.804167684680387,47.42438608852605],[26.80616275312476,47.42770880809205],[26.80393849088905,47.43223989431359],[26.791318607613604,47.42438610863303],[26.791745815558556,47.41814231024206],[26.78418586027537,47.41889632144591],[26.771888020607964,47.423789345209414],[26.764831001846687,47.43169376487269],[26.75744013550537,47.43297215671566],[26.749314916103998,47.443466108145586],[26.751309436780517,47.44605509366651],[26.73964204418738,47.46390735894192],[26.724877701064326,47.47465902514738],[26.71536581343151,47.48618845113625],[26.697556706344212,47.492836722025764],[26.704268986403292,47.499354470676984],[26.698700866165833,47.509404362158485],[26.702293045913,47.510889799483],[26.70936415042072,47.50992276954627],[26.718789945439912,47.51527932729272]]],[[[27.08225469237844,47.464384354568274],[27.085647501613423,47.433244333321746],[27.080717678270997,47.42904002885093],[27.085793693604078,47.426178599310504],[27.082296242056096,47.42253449942989],[27.084936695905913,47.421305702380835],[27.093396458515937,47.426328711152394],[27.098224800109072,47.42486397446665],[27.08418645291493,47.41628417060406],[27.07381037126033,47.42357989378499],[27.070295685257534,47.4214533780077],[27.066489993374123,47.42421676977082],[27.061660493283323,47.42108376852271],[27.060528434104857,47.41515488387188],[27.04838558555448,47.407526555082235],[26.971729744483735,47.39692077342839],[26.95894678602186,47.393095896789376],[26.959843564769425,47.39023680212193],[26.95155461881137,47.389252052032994],[26.950775785161937,47.391248772242115],[26.926915951293655,47.38482698712872],[26.91103172694283,47.38588594835617],[26.905083608202457,47.38401684928408],[26.85865358997772,47.393596535137846],[26.850883895773958,47.39409873800848],[26.851973301544415,47.39246509470424],[26.844869833137764,47.395008469855554],[26.841413892202105,47.393012072839845],[26.83306484889394,47.393702536354],[26.83037699643144,47.39738930998713],[26.822918870281242,47.39707247809816],[26.818133836093203,47.39942234768699],[26.785332406762503,47.405096282175684],[26.794850456677477,47.41072970010271],[26.80877975884434,47.411001432346175],[26.83337105101307,47.407396255821226],[26.852223404505537,47.41005472222673],[26.850381810490198,47.41545472042078],[26.868770985922765,47.42136919530565],[26.873290220096475,47.42535825296393],[26.880534881216402,47.42554088605935],[26.887171945191646,47.428377751055564],[26.894447447889846,47.428325136133815],[26.8953125747405,47.425575072771366],[26.908607031908883,47.42355971320303],[26.91714741244324,47.41735531035639],[26.920450114422167,47.4183684821572],[26.92531942694377,47.41643823034927],[26.93195524064156,47.41882078600981],[26.939075233896055,47.41845115016401],[26.988828348356716,47.425994997673016],[26.998951161432107,47.428155315678325],[26.99967215631313,47.430756868095315],[27.009445827452645,47.42482655402754],[27.013656607525505,47.42615154611849],[27.010236099812303,47.43069772415725],[27.042187271334047,47.43835205325662],[27.04981829475703,47.45171327793569],[27.04916214641226,47.46621288399503],[27.06472632007458,47.46189836837078],[27.072593332863626,47.46507655855888],[27.08225469237844,47.464384354568274]]],[[[26.69006017520916,47.40405197504329],[26.697764286133342,47.398710720003955],[26.689658914153295,47.393143824311885],[26.716357112308856,47.369606625217585],[26.720936437554922,47.37176969022324],[26.72039322720763,47.36738810190899],[26.73012828184982,47.36686704725394],[26.731552614662434,47.37565125374639],[26.740115310468564,47.36921710484909],[26.741460340333518,47.35902951249636],[26.74909853637011,47.34419203769317],[26.742186215375924,47.34422946047936],[26.74389366205352,47.33915298211762],[26.735643097417125,47.33755511802893],[26.730323789021003,47.33677122786324],[26.720854049657706,47.33992666844902],[26.707601578703837,47.34041224897186],[26.70184446462351,47.33647397983753],[26.707637892747027,47.330325951090835],[26.70710492814201,47.32615001957158],[26.71218788133374,47.324460118997614],[26.712358834332523,47.31950434944766],[26.707339075620485,47.31697420297852],[26.707672310220566,47.31425717836283],[26.711768243097687,47.311897113740876],[26.7206108493734,47.31317035818812],[26.726130659576206,47.31018953655374],[26.726921103253265,47.30353144390544],[26.721801865544045,47.3023033959502],[26.69847908111713,47.30392632440461],[26.698195698746538,47.31014884468494],[26.682171551827192,47.31114196599934],[26.64781444807289,47.32050208372369],[26.652040006708344,47.327229846655335],[26.649228114085542,47.32762318166274],[26.648338422904292,47.33646182784491],[26.64250508087621,47.34427635288087],[26.645566262231423,47.3465717572161],[26.63738867545476,47.35197448040861],[26.618363786885524,47.34943102192936],[26.609636382362254,47.35532419468237],[26.628553457395746,47.35520606905184],[26.63576959523899,47.35794852569195],[26.667285203097027,47.36022236240051],[26.67134983289647,47.358838819471046],[26.68124510898346,47.36139916183141],[26.684061187575576,47.36512302612438],[26.67988576983455,47.368121246595585],[26.672132226518013,47.364256870426736],[26.663221161588826,47.367791265279834],[26.665254695356243,47.370486064440776],[26.677371735477188,47.37248608939845],[26.67900158785941,47.37598931750327],[26.67663706096996,47.37898168286971],[26.669206664761695,47.38071744756358],[26.670138299371867,47.385084205293694],[26.65752607062163,47.3930812007961],[26.65029918590314,47.39057250695146],[26.65121136734138,47.39577373735996],[26.64397522982148,47.39879065049912],[26.648170929247293,47.40138853645733],[26.669088057885133,47.40634339062339],[26.6802865346888,47.41182002214791],[26.679519749011995,47.41337778952363],[26.68098941256166,47.41207569960281],[26.688554082859174,47.41419928879231],[26.69130739446958,47.409644382222034],[26.69006017520916,47.40405197504329]]],[[[26.774496724250664,47.42230578081634],[26.790492434070465,47.41699549580007],[26.791911949846533,47.410060428503094],[26.785332406762503,47.405096282175684],[26.786861793066276,47.400503761688995],[26.780556875391138,47.399992183216376],[26.779498338788805,47.395832292162],[26.781906232028344,47.3937396476318],[26.77805718123569,47.39351547087052],[26.771227974264306,47.38866122633211],[26.765360737710726,47.392789824189286],[26.76320894661072,47.39005176303314],[26.76111767774022,47.39166145438392],[26.755807634403016,47.38672075682546],[26.756638800537132,47.38203521156663],[26.738654741726748,47.38078167629436],[26.739808466239033,47.371999744984755],[26.730537395268133,47.37564832724137],[26.73012828184982,47.36686704725394],[26.72039322720763,47.36738810190899],[26.720936437554922,47.37176969022324],[26.716357112308856,47.369606625217585],[26.689658914153295,47.393143824311885],[26.697764286133342,47.398710720003955],[26.695977051520597,47.4008143776467],[26.70475403260715,47.41245547178228],[26.70123196978776,47.41992746208801],[26.69171817898972,47.425884575415935],[26.687801747080094,47.436022789392375],[26.68357708435855,47.44006391076814],[26.680399082751727,47.43978513778334],[26.681521680772995,47.46154332040498],[26.684080367098254,47.460408934292495],[26.687204612202937,47.46282807603344],[26.69508679327775,47.4594745433174],[26.69528025229812,47.464995379624845],[26.70059349820329,47.47172977473162],[26.726845198712716,47.472884557802104],[26.739593244705507,47.46395401395078],[26.744919637139933,47.45743518392058],[26.751309436780517,47.44605509366651],[26.749314916103998,47.443466108145586],[26.75744013550537,47.43297215671566],[26.764831001846687,47.43169376487269],[26.774496724250664,47.42230578081634]]]]},"properties":{"alert_id":"e76bfdc02fff790f","source":"nowcasting","alert_type":"nowcasting","feature_id":"c98faf622a04c37d1e","judet_cod":"IS","judet_nume":"Iași","county_code":"IS","county_name":"Iași","cod_judet":"IS","cod_culoare":1,"cod_culoare_nume":"Galben","culoare":"1","cod":"Galben","fenomen_principal":"Local averse torențiale care vor acumula 15...25 l/mp, descărcări electrice, intensificări ale vântului cu viteze de 50...70 km/h, grindină de mici dimensiuni (1...2 cm).","fenomen_group":"ploi/vijelii","zona_text":"Județul Botoşani: Botoșani, Flămânzi, Vorona, Ungureni, Corni, Mihai Eminescu, Frumușica, Albești, Trușești, Bălușeni, Lunca, Tudora, Vlădeni, Cristești, Vorniceni, Curtești, Răchiți, Copălău, Gorbănești, Coșula, Todireni, Prăjeni, Sulița, Dângeni, Stăuceni, Roma, Unțeni, Nicșeni, Corlăteni, Leorda, Blândești, Brăești, Dimăcheni, Bucecea;<br>Județul Suceava: Dolhasca, Liteni, Salcea, Dumbrăveni, Udești, Verești, Fântânele, Dolhești, Siminicea;<br>Județul Iaşi: Hârlău, Deleni, Scobinți, Lespezi, Sirețel;<br>","zona_nume":"Iași - localitati","zone_name":"Iași - localitati","display_name":"Iași - localitati","localities":["Hârlău","Deleni","Scobinți","Lespezi","Sirețel"],"geometry_source":"uat_match","match_confidence":"medium","interval_text":"","interval_start":"2026-09-18T16:40:00","valid_from":"2026-09-18T16:40:00","valid_to":"2026-09-18T17:30:00","interval_valabilitate_text":"","interval_end":"2026-09-18T17:30:00","data_expirare":"2026-09-18T17:30:00","mesaj_plain":"Local averse torențiale care vor acumula 15...25 l/mp, descărcări electrice, intensificări ale vântului cu viteze de 50...70 km/h, grindină de mici dimensiuni (1...2 cm).","source_url":"","source_label":"","notes":"","durata_ore":0.8,"zi":"2026-09-18"}},{"type":"Feature","geometry":{"type":"MultiPolygon","coordinates":[[[[26.70059349820329,47.47172977473162],[26.69528025229812,47.464995379624845],[26.69508679327775,47.4594745433174],[26.687204612202937,47.46282807603344],[26.684080367098254,47.460408934292495],[26.681510526084217,47.46152611910028],[26.680399082751727,47.43978513778334],[26.68357708435855,47.44006391076814],[26.68696318795191,47.436865948426856],[26.691930443143423,47.42560281176542],[26.701347217912705,47.41979363896024],[26.70430755858649,47.4149094974567],[26.70340827979099,47.40884941478297],[26.70018539129838,47.408125084375065],[26.695977051520597,47.4008143776467],[26.69006017520916,47.40405197504329],[26.69130739446958,47.409644382222034],[26.68885240206624,47.41414895363054],[26.68098941256166,47.41207569960281],[26.679519749011995,47.41337778952363],[26.6802865346888,47.41182002214791],[26.669088057885133,47.40634339062339],[26.648170929247293,47.40138853645733],[26.64397522982148,47.39879065049912],[26.65121136734138,47.39577373735996],[26.65029918590314,47.39057250695146],[26.65752607062163,47.3930812007961],[26.670138299371867,47.385084205293694],[26.669206664761695,47.38071744756358],[26.67663706096996,47.37898168286971],[26.67900158785941,47.37598931750327],[26.677371735477188,47.37248608939845],[26.665254695356243,47.370486064440776],[26.663221161588826,47.367791265279834],[26.672132226518013,47.364256870426736],[26.67988576983455,47.368121246595585],[26.684061187575576,47.36512302612438],[26.68124510898346,47.36139916183141],[26.67134983289647,47.358838819471046],[26.667285203097027,47.36022236240051],[26.63576959523899,47.35794852569195],[26.628553457395746,47.35520606905184],[26.611669903217074,47.354884341848184],[26.599345646811187,47.36735762545399],[26.570565930814517,47.376276163044416],[26.570896397867248,47.389425399081695],[26.532929763082038,47.38979499492769],[26.5269367807984,47.39910827566093],[26.527119524095504,47.40423326385758],[26.544971374236756,47.40901486979096],[26.546549878647106,47.41643279218876],[26.562018119368496,47.426883519536595],[26.568592093772715,47.437124310261964],[26.565882605769453,47.44689338389616],[26.548763854687213,47.46039582512123],[26.587877430227397,47.47849999838631],[26.591429526178697,47.470031767258405],[26.585889443862516,47.46388846619446],[26.58901146407039,47.46212651069524],[26.59783079551065,47.46264188784995],[26.59894916874108,47.459718599782526],[26.630478026271756,47.469107211851444],[26.70059349820329,47.47172977473162]]],[[[26.551463887496425,47.55583900067693],[26.56883482766653,47.555017234801795],[26.56873003756478,47.54859054454701],[26.58248457754909,47.53903661504959],[26.58007622105748,47.537462557156154],[26.58228788247991,47.53596294443211],[26.577985105679126,47.5353553533964],[26.603904673969833,47.532744702341766],[26.604848208737206,47.52060365840866],[26.56562017727868,47.51384726908025],[26.554469370131077,47.50975370945484],[26.55222610560334,47.513220752082916],[26.550591808525652,47.51203442944573],[26.55266412962478,47.50855846077018],[26.55097790984819,47.50421063694456],[26.557653249319046,47.5040242663108],[26.560564145218805,47.49560460025859],[26.570535992608722,47.49928712588378],[26.58023468663163,47.49778473794301],[26.580469699740142,47.49258888791777],[26.58873893667953,47.49089238433157],[26.5901197870288,47.487143578624035],[26.587877430227397,47.47849999838631],[26.54864185616325,47.460343305651186],[26.536313364000826,47.470795834509865],[26.532575871167342,47.47059888132377],[26.529716810467733,47.47499563458533],[26.522911637946493,47.474459013585594],[26.52020586816773,47.46956515901832],[26.513427682860737,47.46983439331787],[26.494580569570566,47.474107954809114],[26.48141442711172,47.481527800652124],[26.472473969715356,47.49451713053795],[26.473492286529765,47.498215827351856],[26.469980653685923,47.500620377167074],[26.47158948421816,47.50639316995129],[26.46694973135155,47.52174979248544],[26.473915884742468,47.535174330490946],[26.47079635070912,47.53488276735944],[26.473051214036587,47.542985678748906],[26.476822497073233,47.54343558516931],[26.476699231203682,47.540010951125616],[26.4816747595667,47.539493024832545],[26.48656898831334,47.544902981215074],[26.4926106019806,47.54299228043945],[26.49985959231686,47.54817271482124],[26.503551258922222,47.54735737733676],[26.50843633705625,47.55250745470891],[26.512051370372376,47.54824252059106],[26.52101948482331,47.54687762788324],[26.516502197967693,47.55519287639047],[26.51866516014507,47.55779526106762],[26.53222659974771,47.556453174315344],[26.531105991863765,47.56022736339163],[26.538874241369882,47.560422999512944],[26.53796417414722,47.557899445113605],[26.546871316552743,47.55613646947313],[26.547943458460566,47.55366565731752],[26.551463887496425,47.55583900067693]]],[[[26.340874366457808,47.693562969281814],[26.357911377009476,47.685023327673925],[26.360136120676533,47.68547860671524],[26.36100066144161,47.682713273688655],[26.40241653119062,47.65058366372863],[26.41260228849289,47.63910964354178],[26.409026720135262,47.63432805059666],[26.41426803258299,47.619349327374835],[26.408552382968388,47.62030265689456],[26.406283548673592,47.61447323076575],[26.409062759373313,47.6138369305875],[26.408123900809088,47.60545052504394],[26.3990990100587,47.60107059229067],[26.392509856807703,47.60484628342236],[26.386468407662964,47.60393139651366],[26.380730182684218,47.610094907074554],[26.37386609000273,47.60672899310331],[26.37403861354802,47.602192076318126],[26.367507256004192,47.60635926825775],[26.36584895915685,47.60500571591581],[26.35783062478739,47.605883685608795],[26.355644007321576,47.60214296991467],[26.33172142186605,47.61459471354311],[26.3328145258587,47.619537572952744],[26.327959805333847,47.62445546800924],[26.321843601454226,47.62229996790521],[26.321843149734782,47.62563333074836],[26.328703975572427,47.62484674284064],[26.33064004881819,47.62754271481587],[26.330145734427767,47.62945272046039],[26.320554639575125,47.632974825819566],[26.32450929883792,47.636240495858836],[26.32132162687804,47.6390915619562],[26.317854677465345,47.639821855113844],[26.315202515536214,47.637690552658796],[26.301900962468327,47.64132609819167],[26.302456967936784,47.64360859380071],[26.309548196651836,47.64430028737813],[26.30993980975531,47.647485246602926],[26.296614171871926,47.65248054601133],[26.313535471584228,47.682425397491755],[26.320580468585266,47.6847436291302],[26.317326194763623,47.68758385762566],[26.32123617651354,47.68771002521705],[26.321733207454567,47.69142240785581],[26.340874366457808,47.693562969281814]]],[[[26.487056333561995,47.68225476415041],[26.48330181174371,47.678779789854545],[26.484212399393847,47.67502641356357],[26.479691006220165,47.67286274700098],[26.484513667974834,47.66982149758244],[26.478060299125566,47.667022822888136],[26.480976724941645,47.66399003192373],[26.468159872340987,47.65982231153553],[26.46664380703871,47.661386112212206],[26.46192656639073,47.655300993524975],[26.45212087436668,47.656640723079484],[26.455306985724494,47.64764573714791],[26.438792623104973,47.63474670871536],[26.460294484540494,47.62819990135003],[26.45280727863138,47.61643304064457],[26.43448483301798,47.623279197167335],[26.430845005050628,47.61651465294273],[26.425071226454392,47.616629074558595],[26.41842642196396,47.621771576647134],[26.41358588375114,47.621269571074016],[26.409026720135262,47.63432805059666],[26.41260228849289,47.63910964354178],[26.406427654389326,47.64696672891893],[26.36100066144161,47.682713273688655],[26.360136120676533,47.68547860671524],[26.357911377009476,47.685023327673925],[26.346922641925868,47.6920317856711],[26.363733299276422,47.68878390793571],[26.37499249462391,47.68235009906922],[26.38795807164949,47.68022973760325],[26.391275281598134,47.68203963074908],[26.394554847733893,47.68025414100273],[26.39874877576577,47.68123984794752],[26.403386480976057,47.67785778365614],[26.436600124586022,47.69741494062838],[26.435347497882482,47.700560145177434],[26.456609812379153,47.71066391496175],[26.44795440913299,47.713765650803396],[26.44821932773272,47.720541349547815],[26.440791077816687,47.715860618846406],[26.43350551657999,47.718510033849455],[26.45407025914537,47.727644413848196],[26.46764356447966,47.71592685972771],[26.459148772752794,47.71382603703868],[26.463463047453725,47.70692067539534],[26.487056333561995,47.68225476415041]]],[[[26.408268881067805,47.606016773771465],[26.411573060251232,47.60545202746561],[26.41564416004671,47.60066727526332],[26.427026791261646,47.60166684219187],[26.432365078934826,47.60487639658468],[26.437671887593847,47.59813703841847],[26.448641460758957,47.5971695843037],[26.45477212757025,47.593525635395764],[26.459986808238483,47.5964035293456],[26.461559999342313,47.59372410909522],[26.459272339288056,47.588550340471386],[26.469272214847166,47.58408808376029],[26.46881887372154,47.58045887690567],[26.475053052067643,47.57226094738904],[26.484051533081175,47.571775800130126],[26.491806570369924,47.58073202598732],[26.494832138868723,47.57763393244153],[26.50005894987962,47.58211692172815],[26.50823098209254,47.575846577547686],[26.50257973364844,47.56960923439739],[26.518505270462015,47.552968350505765],[26.52101948482331,47.54687762788324],[26.512051370372376,47.54824252059106],[26.50843633705625,47.55250745470891],[26.503551258922222,47.54735737733676],[26.49985959231686,47.54817271482124],[26.4926106019806,47.54299228043945],[26.48656898831334,47.544902981215074],[26.4816747595667,47.539493024832545],[26.476699231203682,47.540010951125616],[26.476822497073233,47.54343558516931],[26.469842455979542,47.541870946178726],[26.470107691233363,47.54310477295448],[26.464814456472862,47.5431596227564],[26.458265984829165,47.54137273909038],[26.459940098764147,47.537698846466746],[26.455500499839903,47.5391328316758],[26.453601897913902,47.54309433575958],[26.450902894379926,47.537351370610445],[26.44791645163283,47.539531323689765],[26.441106661821603,47.531574354742645],[26.42585962868162,47.54934729000978],[26.40825759474033,47.55846452912283],[26.386473049677942,47.54062236406807],[26.383660652604526,47.53468358578167],[26.37458561289414,47.534565612587734],[26.346659794423385,47.54226017256766],[26.341522286499405,47.55660153531164],[26.336063196341172,47.551927673193696],[26.338119050214644,47.54244318804054],[26.33504513600117,47.53921408525201],[26.33002731222056,47.54845715383895],[26.33544670399535,47.55014979845088],[26.33768341679904,47.558942149716394],[26.331440091013135,47.565521724920046],[26.331694097409507,47.56834201597312],[26.335586858463994,47.574760252949275],[26.3359919699605,47.58256605620097],[26.340790358698264,47.58464519265748],[26.341301287285496,47.58915406336047],[26.346515372554876,47.589062399249904],[26.3469679675954,47.59128613679457],[26.338086204129826,47.59140872194599],[26.336784762322985,47.594354841979424],[26.340787585940575,47.595302222310984],[26.34070066153525,47.59780301024575],[26.336670627285006,47.59866231664092],[26.341994954943413,47.60466588713147],[26.345617312606496,47.606873042308194],[26.355644007321576,47.60214296991467],[26.35783062478739,47.605883685608795],[26.36584895915685,47.60500571591581],[26.367757889036465,47.60635632467205],[26.37403861354802,47.602192076318126],[26.37386609000273,47.60672899310331],[26.380730182684218,47.610094907074554],[26.386468407662964,47.60393139651366],[26.392509856807703,47.60484628342236],[26.3990990100587,47.60107059229067],[26.408268881067805,47.606016773771465]]],[[[26.5074132403467,47.663521245657094],[26.496673836016708,47.658717147336496],[26.505330996832882,47.65951976024616],[26.50316164108905,47.6548999845061],[26.509914170518634,47.65181969505581],[26.51988618254382,47.65175865396532],[26.517480941114396,47.647628323802856],[26.530433731861535,47.64772345698172],[26.533332706945316,47.640583143243006],[26.52698449118657,47.636920775726686],[26.52491369120763,47.63892301226484],[26.520751138485153,47.63670152623829],[26.52232600849522,47.63411762049762],[26.47081317076979,47.60455075605485],[26.469428635779803,47.60548105214817],[26.461876031186264,47.59984776409923],[26.465424116027645,47.59808930546614],[26.461040527856497,47.595234177611474],[26.458812471402872,47.59656289353798],[26.45477212757025,47.593525635395764],[26.448641460758957,47.5971695843037],[26.437671887593847,47.59813703841847],[26.432365078934826,47.60487639658468],[26.427026791261646,47.60166684219187],[26.414301706206444,47.60106063529162],[26.411573060251232,47.60545202746561],[26.408268881067805,47.606016773771465],[26.409062759373313,47.6138369305875],[26.406283548673592,47.61447323076575],[26.408552382968388,47.62030265689456],[26.41426803258299,47.619349327374835],[26.41358588375114,47.621269571074016],[26.41842642196396,47.621771576647134],[26.424222344882686,47.61680384657115],[26.430845005050628,47.61651465294273],[26.43448483301798,47.623279197167335],[26.45280727863138,47.61643304064457],[26.460294484540494,47.62819990135003],[26.438792623104973,47.63474670871536],[26.455306985724494,47.64764573714791],[26.45212087436668,47.656640723079484],[26.46192656639073,47.655300993524975],[26.46664380703871,47.661386112212206],[26.468159872340987,47.65982231153553],[26.480976724941645,47.66399003192373],[26.478060299125566,47.667022822888136],[26.484513667974834,47.66982149758244],[26.479691006220165,47.67286274700098],[26.484212399393847,47.67502641356357],[26.48330181174371,47.678779789854545],[26.487056333561995,47.68225476415041],[26.496811004868214,47.671698686669686],[26.49981565879599,47.6730037877805],[26.5074132403467,47.663521245657094]]],[[[26.536313364000826,47.470795834509865],[26.56206296325802,47.45092474852878],[26.56800478702338,47.44347847161825],[26.568542824456898,47.436952445444746],[26.562018119368496,47.426883519536595],[26.546549878647106,47.41643279218876],[26.544971374236756,47.40901486979096],[26.535979356649595,47.40573898409105],[26.529373968223585,47.4060754394847],[26.501490215666653,47.39433682625108],[26.49506958789863,47.403339343574764],[26.491649395543053,47.42029356923995],[26.47569335307722,47.43835986406839],[26.480113844230097,47.45793105836033],[26.474930458748947,47.48128300141962],[26.481545916096618,47.48157199272625],[26.494580569570566,47.474107954809114],[26.513427682860737,47.46983439331787],[26.52020586816773,47.46956515901832],[26.522911637946493,47.474459013585594],[26.529716810467733,47.47499563458533],[26.532575871167342,47.47059888132377],[26.536313364000826,47.470795834509865]]],[[[26.446067155800577,47.73358115425945],[26.45407025914537,47.727644413848196],[26.43350551657999,47.718510033849455],[26.440791077816687,47.715860618846406],[26.44821932773272,47.720541349547815],[26.44795440913299,47.713765650803396],[26.456609812379153,47.71066391496175],[26.435347497882482,47.700560145177434],[26.436600124586022,47.69741494062838],[26.403386480976057,47.67785778365614],[26.39874877576577,47.68123984794752],[26.394554847733893,47.68025414100273],[26.391275281598134,47.68203963074908],[26.38795807164949,47.68022973760325],[26.369312832125225,47.68415483075756],[26.345791531189924,47.707252685362036],[26.347139132795757,47.712284996804215],[26.340444695008177,47.71367781644239],[26.336621539317612,47.718090442685344],[26.34639911819858,47.7130187211575],[26.34884801249111,47.71793965531867],[26.34506336278099,47.72159642989862],[26.375844225873102,47.73505899340072],[26.39166508760878,47.73980692474946],[26.396220513668588,47.734157563444114],[26.400140482842097,47.733020986607016],[26.39715035951008,47.741363258521545],[26.40115200640433,47.740960835403676],[26.40318780762353,47.74297087919627],[26.40606306689507,47.741859744685335],[26.42052089145675,47.748290209521315],[26.427664961715127,47.74058618762458],[26.439859141663927,47.74297618314947],[26.43229172620918,47.726325034618455],[26.446067155800577,47.73358115425945]]]]},"properties":{"alert_id":"e76bfdc02fff790f","source":"nowcasting","alert_type":"nowcasting","feature_id":"80292ef48006927d93","judet_cod":"SV","judet_nume":"Suceava","county_code":"SV","county_name":"Suceava","cod_judet":"SV","cod_culoare":1,"cod_culoare_nume":"Galben","culoare":"1","cod":"Galben","fenomen_principal":"Local averse torențiale care vor acumula 15...25 l/mp, descărcări electrice, intensificări ale vântului cu viteze de 50...70 km/h, grindină de mici dimensiuni (1...2 cm).","fenomen_group":"ploi/vijelii","zona_text":"Județul Botoşani: Botoșani, Flămânzi, Vorona, Ungureni, Corni, Mihai Eminescu, Frumușica, Albești, Trușești, Bălușeni, Lunca, Tudora, Vlădeni, Cristești, Vorniceni, Curtești, Răchiți, Copălău, Gorbănești, Coșula, Todireni, Prăjeni, Sulița, Dângeni, Stăuceni, Roma, Unțeni, Nicșeni, Corlăteni, Leorda, Blândești, Brăești, Dimăcheni, Bucecea;<br>Județul Suceava: Dolhasca, Liteni, Salcea, Dumbrăveni, Udești, Verești, Fântânele, Dolhești, Siminicea;<br>Județul Iaşi: Hârlău, Deleni, Scobinți, Lespezi, Sirețel;<br>","zona_nume":"Suceava - localitati","zone_name":"Suceava - localitati","display_name":"Suceava - localitati","localities":["Dolhasca","Liteni","Salcea","Dumbrăveni","Udești","Verești","Fântânele","Dolhești","Siminicea"],"geometry_source":"uat_match","match_confidence":"medium","interval_text":"","interval_start":"2026-09-18T16:40:00","valid_from":"2026-09-18T16:40:00","valid_to":"2026-09-18T17:30:00","interval_valabilitate_text":"","interval_end":"2026-09-18T17:30:00","data_expirare":"2026-09-18T17:30:00","mesaj_plain":"Local averse torențiale care vor acumula 15...25 l/mp, descărcări electrice, intensificări ale vântului cu viteze de 50...70 km/h, grindină de mici dimensiuni (1...2 cm).","source_url":"","source_label":"","notes":"","durata_ore":0.8,"zi":"2026-09-18"}},{"type":"Feature","geometry":{"type":"MultiPolygon","coordinates":[[[[28.690685,45.228643],[28.696662,45.226285],[28.700156,45.225382],[28.705356,45.224449],[28.706211,45.224338],[28.710372,45.223968],[28.716882,45.224228],[28.717581,45.224258],[28.718018,45.224293],[28.718868,45.224323],[28.731319,45.227815],[28.733455,45.2285],[28.734272,45.228755],[28.734988,45.228983],[28.735807,45.229253],[28.736437,45.229495],[28.737194,45.229903],[28.739982,45.231406],[28.743537,45.233322],[28.743963,45.233396],[28.74783,45.233755],[28.748457,45.233856],[28.74871,45.23395],[28.74946,45.234046],[28.761479,45.236004],[28.778839,45.237243],[28.779839,45.237324],[28.780621,45.237429],[28.781583,45.237642],[28.782646,45.237932],[28.784052,45.238378],[28.785201,45.238666],[28.786512,45.238999],[28.787647,45.239314],[28.788427,45.239622],[28.789515,45.240224],[28.790091,45.240651],[28.790787,45.241259],[28.791457,45.242027],[28.792098,45.242774],[28.792421,45.243328],[28.792548,45.24363],[28.792754,45.244237],[28.792891,45.244896],[28.792891,45.245875],[28.792868,45.246556],[28.792248,45.249198],[28.792124,45.249564],[28.790919,45.249731],[28.789998,45.251],[28.787174,45.253562],[28.784467,45.254874],[28.781281,45.257191],[28.777434,45.258454],[28.773526,45.259463],[28.77066,45.259802],[28.768344,45.261392],[28.764936,45.263228],[28.762115,45.265567],[28.756093,45.273552],[28.752419,45.27897],[28.751906,45.281829],[28.751858,45.28453],[28.753827,45.287205],[28.756864,45.289316],[28.759476,45.29035],[28.762731,45.291038],[28.766804,45.291296],[28.773952,45.291046],[28.78121,45.290632],[28.786331,45.29107],[28.787946,45.291399],[28.790456,45.291873],[28.793398,45.293168],[28.796579,45.29659],[28.801393,45.300832],[28.80347,45.303646],[28.805096,45.306634],[28.805598,45.308962],[28.80544,45.310277],[28.804851,45.311256],[28.803079,45.312959],[28.796613,45.316264],[28.791959,45.317882],[28.786485,45.319357],[28.782447,45.32112],[28.780379,45.323185],[28.780075,45.325295],[28.780888,45.326958],[28.782434,45.328341],[28.78385,45.329217],[28.788011,45.331222],[28.792551,45.333066],[28.793924,45.333618],[28.80253,45.335902],[28.809822,45.336172],[28.810955,45.336282],[28.817275,45.336037],[28.822322,45.334171],[28.823962,45.333066],[28.827621,45.329484],[28.833271,45.324275],[28.837678,45.32143],[28.845071,45.318046],[28.854981,45.316251],[28.861639,45.316305],[28.86736,45.317323],[28.872068,45.316454],[28.873456,45.316169],[28.876026,45.315045],[28.879059,45.312651],[28.882448,45.309037],[28.888933,45.30454],[28.88986,45.303897],[28.898807,45.296915],[28.907181,45.29203],[28.908244,45.291401],[28.913945,45.2877],[28.919215,45.285409],[28.925389,45.282525],[28.932311,45.280736],[28.935958,45.280249],[28.942535,45.280579],[28.947228,45.28226],[28.948781,45.282967],[28.950653,45.284559],[28.952583,45.287224],[28.953995,45.29064],[28.954174,45.291401],[28.95487,45.294254],[28.95407,45.29857],[28.949841,45.305532],[28.948295,45.309085],[28.949369,45.312144],[28.953826,45.316718],[28.95759,45.323913],[28.959606,45.32671],[28.964419,45.331359],[28.964916,45.332022],[28.975745,45.332042],[28.982563,45.331763],[28.985879,45.332299],[28.987519,45.333068],[28.991287,45.33481],[28.996415,45.336234],[28.998456,45.33784],[29.002629,45.341231],[29.004724,45.342686],[29.007233,45.344023],[29.009847,45.345152],[29.013914,45.346744],[29.016966,45.347414],[29.019769,45.348348],[29.023437,45.34957],[29.028935,45.351682],[29.033895,45.354415],[29.039847,45.35871],[29.041497,45.359732],[29.043883,45.360722],[29.049381,45.35958],[29.052903,45.359224],[29.056836,45.359588],[29.059607,45.360433],[29.060956,45.361259],[29.061889,45.361879],[29.065069,45.363403],[29.070695,45.365617],[29.075438,45.367495],[29.079404,45.370198],[29.081676,45.37249],[29.082304,45.37282],[29.084286,45.373832],[29.088384,45.374356],[29.096644,45.374589],[29.100214,45.374218],[29.103003,45.374176],[29.105624,45.374594],[29.106386,45.374738],[29.106694,45.374878],[29.111417,45.376744],[29.11483,45.378663],[29.119098,45.381223],[29.121962,45.382042],[29.123456,45.382107],[29.124065,45.382144],[29.13098,45.383263],[29.132883,45.383734],[29.138571,45.38514],[29.150814,45.388568],[29.166118,45.394048],[29.297654,45.281991],[29.274914,45.187365],[28.943118,45.092582],[28.667138,45.121033],[28.690685,45.228643]]]]},"properties":{"alert_id":"a7bacb6eb72e8e5d","source":"nowcasting","alert_type":"nowcasting","feature_id":"c6b12491b46d31b1cd","judet_cod":"TL","judet_nume":"Tulcea","county_code":"TL","county_name":"Tulcea","cod_judet":"TL","cod_culoare":1,"cod_culoare_nume":"Galben","culoare":"1","cod":"Galben","fenomen_principal":"Ceață ce determină vizibilitate redusă, local sub 200 m și izolat sub 50 m.","fenomen_group":"ceata","zona_text":"Județul Tulcea: Tulcea, Somova, Chilia Veche, Nufăru, Beștepe, Crișan, Maliuc, Pardina, Ceatalchioi;<br>","zona_nume":"Tulcea - localitati","zone_name":"Tulcea - localitati","display_name":"Tulcea - localitati","localities":["Tulcea","Somova","Chilia Veche","Nufăru","Beștepe","Crișan","Maliuc","Pardina","Ceatalchioi"],"geometry_source":"coordGis","match_confidence":"high","interval_text":"","interval_start":"2026-09-18T07:05:00","valid_from":"2026-09-18T07:05:00","valid_to":"2026-09-18T09:00:00","interval_valabilitate_text":"","interval_end":"2026-09-18T09:00:00","data_expirare":"2026-09-18T09:00:00","mesaj_plain":"Ceață ce determină vizibilitate redusă, local sub 200 m și izolat sub 50 m.","source_url":"","source_label":"","notes":"","durata_ore":1.9,"zi":"2026-09-18"}}]}